{
"type": "FeatureCollection",
"name": "ariyalur_boundary",
"crs": { "type": "name", "properties": { "name": "urn:ogc:def:crs:OGC:1.3:CRS84" } },
"features": [
{ "type": "Feature", "properties": { "dtname": "Ariyalur", "stname": "TAMIL NADU", "stcode11": "33", "dtcode11": "616", "year_stat": "2011_c", "objectid": 668, "test": -1, "dist_lgd": 610, "state_lgd": 33, "remarks": " ", "dist": "Ariyalur", "st_area(shape)": 2023218827.0981224, "st_length(shape)": 263670.8515734445 }, "geometry": { "type": "Polygon", "coordinates": [ [ [ 79.45866232020596, 11.150554685663923 ], [ 79.458442781831977, 11.151246332592915 ], [ 79.458076892626863, 11.15244880084899 ], [ 79.457344813281026, 11.153705601864962 ], [ 79.456717867366137, 11.15440187012249 ], [ 79.455839200033921, 11.155283527253252 ], [ 79.45582104059045, 11.155884718837573 ], [ 79.456484872229211, 11.156214529707384 ], [ 79.457391391826832, 11.156833572633975 ], [ 79.458829064590688, 11.15802202217551 ], [ 79.459753952939209, 11.158821860434452 ], [ 79.460083687649075, 11.159368721250493 ], [ 79.460326476219237, 11.160024086700965 ], [ 79.460596794559621, 11.160909977402799 ], [ 79.46104105728169, 11.161768697733265 ], [ 79.46161347815378, 11.162550542321975 ], [ 79.461924967181886, 11.163314374180139 ], [ 79.462405864997891, 11.164191164951861 ], [ 79.462831872156741, 11.165208095945452 ], [ 79.46288707991917, 11.166207046420558 ], [ 79.462851959384807, 11.167027270566432 ], [ 79.46285069276027, 11.167056853406233 ], [ 79.462765283638007, 11.167115921251744 ], [ 79.462759155331142, 11.167120160338406 ], [ 79.462722758290781, 11.167938326701723 ], [ 79.462906116118361, 11.168833276831085 ], [ 79.463460276037353, 11.169728127257605 ], [ 79.463881657770813, 11.170537128715079 ], [ 79.464472363850518, 11.171138153877665 ], [ 79.465470560116145, 11.171960554097071 ], [ 79.467796556203226, 11.173537448754074 ], [ 79.469179381429072, 11.174594776795104 ], [ 79.47059886420675, 11.175737971234513 ], [ 79.471615406765395, 11.176560345193108 ], [ 79.472352643339306, 11.177197471702303 ], [ 79.473016492046057, 11.177364517592032 ], [ 79.473625318043347, 11.177251328259413 ], [ 79.474751448778463, 11.177142499439029 ], [ 79.475763112586804, 11.176979457063014 ], [ 79.476468044844779, 11.176775827355476 ], [ 79.477461418953936, 11.176685108618793 ], [ 79.479251345395241, 11.176594129876662 ], [ 79.479988399611116, 11.176630053418268 ], [ 79.480986504248577, 11.176995861153429 ], [ 79.4817970110103, 11.177632939998132 ], [ 79.482273325621719, 11.178252048283619 ], [ 79.482699353441845, 11.179070059872291 ], [ 79.482866506560029, 11.179450676907763 ], [ 79.483298856723124, 11.180435144954995 ], [ 79.483308698665354, 11.180457554680942 ], [ 79.483716467329018, 11.181406656847036 ], [ 79.48411964470327, 11.18231055956565 ], [ 79.484637244986828, 11.183133057644234 ], [ 79.485191357295093, 11.183625568715771 ], [ 79.486166757013748, 11.184425306430587 ], [ 79.486720880101828, 11.184935894208751 ], [ 79.48742610610887, 11.185518751616129 ], [ 79.488236731448225, 11.186377303922155 ], [ 79.488694759953731, 11.186991885952999 ], [ 79.489052744882628, 11.187532596331094 ], [ 79.489069290951832, 11.187557588436967 ], [ 79.489212367423775, 11.187773694275624 ], [ 79.489894999004818, 11.189124986607604 ], [ 79.490357717614401, 11.190019817583899 ], [ 79.491608268609653, 11.191958525418483 ], [ 79.492533535148922, 11.193237398337137 ], [ 79.493174423815304, 11.194313366421778 ], [ 79.493271090624745, 11.194475657053605 ], [ 79.493971957107732, 11.195533120191442 ], [ 79.49460630244559, 11.197343183081397 ], [ 79.494618193445007, 11.197377113385592 ], [ 79.494688979791093, 11.197468230120565 ], [ 79.495099146956562, 11.197996197981659 ], [ 79.49563060465168, 11.198981397849892 ], [ 79.496372558279148, 11.19969078521904 ], [ 79.497980034191258, 11.200964859305532 ], [ 79.498726641091864, 11.201380245388217 ], [ 79.498978358017638, 11.201574725900825 ], [ 79.499811358594073, 11.202117518637737 ], [ 79.500618628725832, 11.202543055362383 ], [ 79.500703914778938, 11.20258801238295 ], [ 79.501193652915632, 11.202900120608536 ], [ 79.501820680577211, 11.203347893184414 ], [ 79.501170396431249, 11.203713743839582 ], [ 79.500872669593235, 11.204011944715969 ], [ 79.500629713936448, 11.20468534505931 ], [ 79.500721039363171, 11.205218768422888 ], [ 79.501045842322128, 11.20579749539424 ], [ 79.501585746875875, 11.206557121912901 ], [ 79.502093620201549, 11.207285093398138 ], [ 79.50235884509425, 11.208003918137596 ], [ 79.502710930786705, 11.209016592586474 ], [ 79.502723528760256, 11.209057478433044 ], [ 79.502889230200935, 11.209595252918234 ], [ 79.502994183070513, 11.210386330946793 ], [ 79.50317680877113, 11.211539056706853 ], [ 79.503409841637307, 11.212596880430421 ], [ 79.50346574559407, 11.212911058289873 ], [ 79.503820882863565, 11.21490687061374 ], [ 79.504008252567189, 11.21569798256831 ], [ 79.50428255403753, 11.216629257928385 ], [ 79.504488263746026, 11.217366136306367 ], [ 79.504593104326176, 11.218428423756858 ], [ 79.504720899556816, 11.219350595986715 ], [ 79.504976882581872, 11.220299942433162 ], [ 79.50521447080483, 11.22144364981089 ], [ 79.505470452033265, 11.222406557151489 ], [ 79.505689987712287, 11.222953592214344 ], [ 79.506014879604479, 11.223392186653019 ], [ 79.506431386180907, 11.223735897218534 ], [ 79.50705396987675, 11.223993809621136 ], [ 79.507472381779891, 11.224295436564194 ], [ 79.507781748987341, 11.224518454750381 ], [ 79.508335457053747, 11.225241915417822 ], [ 79.508400168991869, 11.225350951716893 ], [ 79.508692337054867, 11.22584324640256 ], [ 79.509104025068098, 11.226770052582511 ], [ 79.509575406131987, 11.227299108858753 ], [ 79.51021149060827, 11.228140124416187 ], [ 79.510174202439117, 11.228200386932652 ], [ 79.50983119961252, 11.228754711090653 ], [ 79.509331851298896, 11.229387331167809 ], [ 79.508887475389088, 11.229952169161747 ], [ 79.508273656555474, 11.230580220682421 ], [ 79.507233978784967, 11.231284933723773 ], [ 79.507293318797664, 11.231714375746135 ], [ 79.50617148021297, 11.231808827229729 ], [ 79.505965208159125, 11.23233308015778 ], [ 79.505804836423039, 11.232599703437717 ], [ 79.504948538039685, 11.232748503968077 ], [ 79.505007762169768, 11.233435596662003 ], [ 79.505167556289109, 11.234493385990621 ], [ 79.505304308621461, 11.235894699234615 ], [ 79.505418348848451, 11.236880146099827 ], [ 79.505006037404399, 11.237372668702083 ], [ 79.505051537073555, 11.23803263480643 ], [ 79.503723600708156, 11.238181230764237 ], [ 79.503769129123413, 11.238768874381886 ], [ 79.503343065370672, 11.239283989239567 ], [ 79.502564201764827, 11.240300690672898 ], [ 79.501313353427236, 11.242094652421658 ], [ 79.500275933123049, 11.24333929305511 ], [ 79.50025504369944, 11.243364352582788 ], [ 79.500202598256493, 11.243427475410487 ], [ 79.499984737935492, 11.243689686588395 ], [ 79.49937545020417, 11.24431771876467 ], [ 79.49872509059972, 11.244633840098851 ], [ 79.498235467447358, 11.244466966118752 ], [ 79.498102735075904, 11.244611664426564 ], [ 79.497736653631321, 11.245203948742466 ], [ 79.497237820052362, 11.245895728106701 ], [ 79.496954000033313, 11.246090205069976 ], [ 79.496391012370026, 11.246669003415683 ], [ 79.495791427342041, 11.247342738626701 ], [ 79.495356664304097, 11.247966688816911 ], [ 79.495173675684086, 11.248409734217658 ], [ 79.495123459859713, 11.248803008852081 ], [ 79.495192580729267, 11.24991946409024 ], [ 79.495060186124348, 11.25094107334375 ], [ 79.495244427894178, 11.251405074352611 ], [ 79.495165236910324, 11.253542378570467 ], [ 79.494964781447948, 11.256177714084101 ], [ 79.49488878127994, 11.258481696412254 ], [ 79.494888327630747, 11.258495436931717 ], [ 79.494887843438804, 11.258510150105844 ], [ 79.498724768104523, 11.258737800697814 ], [ 79.499606387300759, 11.258391088788617 ], [ 79.500993973597659, 11.25818377560503 ], [ 79.503375288838214, 11.257863885117564 ], [ 79.503669991048639, 11.257820269706984 ], [ 79.503984359177281, 11.257773745126672 ], [ 79.504064869786276, 11.257836719426589 ], [ 79.504094221339869, 11.257859676435555 ], [ 79.504071214587142, 11.258112796346355 ], [ 79.503979431917941, 11.258560252422704 ], [ 79.503891933314321, 11.259676697139893 ], [ 79.503694614768904, 11.260607766163099 ], [ 79.503694444088993, 11.260991979577446 ], [ 79.503987258939006, 11.261570688941589 ], [ 79.504284591416564, 11.262289523778572 ], [ 79.504650556978504, 11.263139472024957 ], [ 79.504924954568565, 11.263953221396891 ], [ 79.505245228221867, 11.264581659573006 ], [ 79.505263145120196, 11.265494741943657 ], [ 79.505194127556905, 11.266240540697671 ], [ 79.505106861616966, 11.266832644843891 ], [ 79.50496891183036, 11.268129873732573 ], [ 79.50485866159552, 11.268916335097401 ], [ 79.504835653944468, 11.269169454971331 ], [ 79.504789804830679, 11.269295999407337 ], [ 79.504684460295621, 11.269341156581762 ], [ 79.504469214072103, 11.269377225403892 ], [ 79.504340954412456, 11.269463052813517 ], [ 79.50427671588649, 11.269752315865768 ], [ 79.50418469606204, 11.270728632571629 ], [ 79.504028433220043, 11.272003250971787 ], [ 79.503895452015286, 11.272405489110486 ], [ 79.503812983977241, 11.272491336759726 ], [ 79.503638948865671, 11.272531942261608 ], [ 79.503034477900869, 11.272509078927076 ], [ 79.502690993577289, 11.27257221210234 ], [ 79.501486606106184, 11.272580725063172 ], [ 79.501253035149176, 11.272625823576604 ], [ 79.501165998279589, 11.272689067730377 ], [ 79.501161323446865, 11.272901513645936 ], [ 79.501156189575028, 11.272995973646738 ], [ 79.501138233150797, 11.27332639795816 ], [ 79.501114887733195, 11.274316303975372 ], [ 79.501155745807253, 11.275102830346972 ], [ 79.501173960047979, 11.275333367100199 ], [ 79.501260940323661, 11.275396688184122 ], [ 79.501499024416688, 11.275505277344175 ], [ 79.501563106635786, 11.275568586937544 ], [ 79.501535572373996, 11.275695140009224 ], [ 79.501471286237347, 11.276079325337122 ], [ 79.501361083613219, 11.276734700055592 ], [ 79.501094885845063, 11.278031870163947 ], [ 79.500856234915133, 11.279170844847863 ], [ 79.500787282030572, 11.279744875826713 ], [ 79.50082829641147, 11.280187869646191 ], [ 79.501038703410586, 11.280743941980653 ], [ 79.501079660299325, 11.281313500713463 ], [ 79.501197624367506, 11.283749920292696 ], [ 79.501254849746033, 11.28884868739711 ], [ 79.501255431854361, 11.288899121824004 ], [ 79.501272475590213, 11.290376508055489 ], [ 79.501313634599938, 11.290503090719993 ], [ 79.50155166120075, 11.290765364692611 ], [ 79.50172104483579, 11.290910084634403 ], [ 79.501743904264828, 11.290995976965791 ], [ 79.501702666203357, 11.291041160680635 ], [ 79.501611054214067, 11.291081801439969 ], [ 79.498723793432433, 11.292390325279991 ], [ 79.497502568837973, 11.292997993408104 ], [ 79.498116964390022, 11.294769656386883 ], [ 79.497114074427031, 11.294964413019116 ], [ 79.496963124221637, 11.295421007587196 ], [ 79.496983360570056, 11.300244006826915 ], [ 79.497103558748307, 11.303060016591806 ], [ 79.496526562756515, 11.303236526099449 ], [ 79.495084034598534, 11.303589652257278 ], [ 79.495148475245458, 11.303786384900683 ], [ 79.495790187666969, 11.30574549583573 ], [ 79.496271725083446, 11.307372565807611 ], [ 79.496666137595469, 11.308723939436071 ], [ 79.497399658737351, 11.310536235729664 ], [ 79.497498255127965, 11.310850348949987 ], [ 79.497532471957157, 11.31095935984121 ], [ 79.497596850620312, 11.311164460064123 ], [ 79.497794043401584, 11.311792684782553 ], [ 79.498303271386689, 11.313889834944908 ], [ 79.498230065877564, 11.313928212182773 ], [ 79.497034860086984, 11.314554793326888 ], [ 79.493137632414545, 11.315632076906921 ], [ 79.491727155247602, 11.316134339772692 ], [ 79.490815793730604, 11.316342602067573 ], [ 79.489826574329612, 11.316564449564098 ], [ 79.488599189088944, 11.316786382331092 ], [ 79.487417535282759, 11.316827486290482 ], [ 79.485965622424999, 11.316773757995398 ], [ 79.484738088063992, 11.316593380206912 ], [ 79.483318148043821, 11.316286498907028 ], [ 79.483314652699065, 11.316285729043182 ], [ 79.481902789431629, 11.315975088817964 ], [ 79.480088832158216, 11.315270550792157 ], [ 79.477574081165315, 11.314412542911828 ], [ 79.475709880219711, 11.314065086081827 ], [ 79.47415261294546, 11.313925449811073 ], [ 79.4735900160493, 11.31405702623195 ], [ 79.473552668591381, 11.314065760818972 ], [ 79.473497694390943, 11.314131876243344 ], [ 79.473090258103937, 11.31462188198444 ], [ 79.471936555377795, 11.31614552658694 ], [ 79.470902061784813, 11.318125665981624 ], [ 79.46731585871153, 11.318257804213109 ], [ 79.465566289084379, 11.318398428440331 ], [ 79.46451744670135, 11.318425842964457 ], [ 79.463230400749396, 11.318326754989744 ], [ 79.463232370754824, 11.3184084066474 ], [ 79.463258207200724, 11.319479387401442 ], [ 79.46429333590261, 11.319533341564901 ], [ 79.464220353175662, 11.320586560419635 ], [ 79.464083125634559, 11.321210378782787 ], [ 79.462003728771066, 11.321224508271341 ], [ 79.461989846206649, 11.320713734876959 ], [ 79.460803601111024, 11.320781854432445 ], [ 79.460758159832395, 11.322106271184133 ], [ 79.461555110118169, 11.32209249759573 ], [ 79.46149587700495, 11.323213512433416 ], [ 79.460895874260387, 11.323231754416932 ], [ 79.460758886569479, 11.324768641313566 ], [ 79.460584899068607, 11.324990174871051 ], [ 79.459774207253943, 11.325031070658545 ], [ 79.459595593429356, 11.325085359369195 ], [ 79.459490336929179, 11.325419879387503 ], [ 79.45938505437789, 11.325654955082809 ], [ 79.459027809660753, 11.325709288597018 ], [ 79.457951483321636, 11.325836131350222 ], [ 79.458098526753858, 11.327635114117571 ], [ 79.457498542873907, 11.327761831821773 ], [ 79.457260267439722, 11.327373160160217 ], [ 79.457035724551318, 11.326957362293877 ], [ 79.456765435855374, 11.326749504972929 ], [ 79.45627075159473, 11.326695386576185 ], [ 79.456210998356966, 11.325877253387924 ], [ 79.455267466373002, 11.325877488567258 ], [ 79.455134716035275, 11.32618037210788 ], [ 79.455061474593521, 11.32634763460856 ], [ 79.455359232872567, 11.326514807167861 ], [ 79.455569968655055, 11.326682000769088 ], [ 79.455570069266372, 11.327079773979952 ], [ 79.455327396578866, 11.327400764961803 ], [ 79.455089246908855, 11.327495747831648 ], [ 79.454851072085987, 11.327495805965533 ], [ 79.454461705410935, 11.327319616174218 ], [ 79.453875384008128, 11.327138951720674 ], [ 79.453650980358603, 11.327261050638887 ], [ 79.453596086108206, 11.327536792999744 ], [ 79.453729101448943, 11.328287106688961 ], [ 79.452004728667248, 11.328554381683244 ], [ 79.451947434118395, 11.328563262042834 ], [ 79.451965096793529, 11.328655629392861 ], [ 79.452396877424732, 11.330913635667827 ], [ 79.452502418690813, 11.331704637149466 ], [ 79.452379445616657, 11.332048047292902 ], [ 79.452369679132886, 11.332075321342272 ], [ 79.452295339949842, 11.33212703413068 ], [ 79.451966675133505, 11.33235566477255 ], [ 79.451426253150117, 11.332604400391974 ], [ 79.45141262840221, 11.333088060929114 ], [ 79.450093544933964, 11.333355055745903 ], [ 79.44926455174199, 11.333585772896489 ], [ 79.449127285573311, 11.334209584929065 ], [ 79.449008304612263, 11.334679707582628 ], [ 79.448651163201376, 11.335235766659927 ], [ 79.448138209004483, 11.335457369618247 ], [ 79.447437447624381, 11.335633810705314 ], [ 79.446599245802432, 11.3356927576699 ], [ 79.446388063557251, 11.333532170179513 ], [ 79.445023136365094, 11.333640947827163 ], [ 79.44484463482992, 11.334251206935395 ], [ 79.444020168248699, 11.334264941183276 ], [ 79.44388719962032, 11.333627628405022 ], [ 79.442852034985847, 11.33362784243886 ], [ 79.442792554835933, 11.333930703677838 ], [ 79.441656597429926, 11.333822451095505 ], [ 79.43878009397379, 11.333696452165468 ], [ 79.437525090029709, 11.333796133758499 ], [ 79.437360310260502, 11.334392824764718 ], [ 79.437255314271781, 11.336232545711194 ], [ 79.435538466677187, 11.340590287966656 ], [ 79.433096947244579, 11.339912696332402 ], [ 79.432589012833475, 11.342751438628879 ], [ 79.431901951659768, 11.342850999040092 ], [ 79.431540118348181, 11.343013785407763 ], [ 79.43132949036351, 11.343456795007054 ], [ 79.43080612828571, 11.345519652205839 ], [ 79.430798501588967, 11.34554971169691 ], [ 79.432438369851909, 11.345689562404846 ], [ 79.432530280081878, 11.347393643027921 ], [ 79.435434413919523, 11.34758749983135 ], [ 79.435594932081017, 11.348645183783535 ], [ 79.435686558443351, 11.348726529968735 ], [ 79.436016371306664, 11.34877167198316 ], [ 79.43658439672204, 11.348920732882759 ], [ 79.436671459642781, 11.34908796181622 ], [ 79.436823071008206, 11.351456489568241 ], [ 79.436826000414342, 11.351509652073293 ], [ 79.436933390413316, 11.353458895985449 ], [ 79.437039069121667, 11.355149410999491 ], [ 79.437295959445123, 11.357079464583146 ], [ 79.437304247301938, 11.357142069175731 ], [ 79.437323483825423, 11.357287386146046 ], [ 79.435367563991022, 11.357617717606439 ], [ 79.434561367346021, 11.357712786427467 ], [ 79.433585671183323, 11.357744597273671 ], [ 79.432403826934305, 11.357699599355916 ], [ 79.430218745074257, 11.357342874438885 ], [ 79.428670452868005, 11.357361202315735 ], [ 79.428432259180525, 11.357392880211776 ], [ 79.428299442367432, 11.357551105824564 ], [ 79.428377472727988, 11.358531964567872 ], [ 79.428391427157592, 11.359847325180112 ], [ 79.427823637100815, 11.361275780832264 ], [ 79.426614790392648, 11.36442650669068 ], [ 79.425812991000939, 11.366635674676441 ], [ 79.425804315970282, 11.366659579402219 ], [ 79.425478945276041, 11.365818880089538 ], [ 79.425313908588677, 11.36500527834478 ], [ 79.425180929180527, 11.364101268300512 ], [ 79.42526791394782, 11.363757724973002 ], [ 79.425735099879333, 11.36335536329007 ], [ 79.425735073828164, 11.363183598274304 ], [ 79.42535922320485, 11.361714606888816 ], [ 79.424974308580346, 11.360882956417367 ], [ 79.424699383679226, 11.360358658324245 ], [ 79.423581682734735, 11.360467300690397 ], [ 79.423471746910252, 11.360480877790671 ], [ 79.42205173502488, 11.360756802093199 ], [ 79.42009573793537, 11.36081582225413 ], [ 79.419684403858327, 11.360952587387235 ], [ 79.418776520618124, 11.361254442931834 ], [ 79.4154829581217, 11.361643566967052 ], [ 79.414360785363712, 11.362787289765981 ], [ 79.412968375113763, 11.364324287919208 ], [ 79.408538727650537, 11.364862615337747 ], [ 79.405995597081173, 11.35589938177994 ], [ 79.405367894784803, 11.354141094300768 ], [ 79.404442557278642, 11.353684630427253 ], [ 79.403512636567868, 11.353155842315216 ], [ 79.402779684059581, 11.352577315240568 ], [ 79.401387059112253, 11.35109480001967 ], [ 79.400338013709998, 11.349901547310164 ], [ 79.400270643656953, 11.349959261806999 ], [ 79.399678435594097, 11.350466606160573 ], [ 79.39909674231167, 11.351271227043037 ], [ 79.398675368663007, 11.352089397615311 ], [ 79.398299808195546, 11.35304317043126 ], [ 79.39788298002226, 11.35331892225774 ], [ 79.397072212749094, 11.353599213131565 ], [ 79.396160671569049, 11.353956349629115 ], [ 79.395785056304362, 11.354001569201772 ], [ 79.395203285766797, 11.353513418855139 ], [ 79.394562087181598, 11.355782561863476 ], [ 79.394159057131063, 11.357554476354858 ], [ 79.393691913420383, 11.359855249869712 ], [ 79.39345378530993, 11.361740159837442 ], [ 79.393458491583687, 11.364895222420957 ], [ 79.393623475270488, 11.366707793967741 ], [ 79.393545868016446, 11.366732594354804 ], [ 79.393142486724642, 11.366861497326248 ], [ 79.390522210635311, 11.366929385702012 ], [ 79.389234975138834, 11.366938460382297 ], [ 79.389257896551641, 11.367616481911558 ], [ 79.389097593985795, 11.368760082108029 ], [ 79.389106764886535, 11.369175936227542 ], [ 79.389202978046711, 11.369722870236172 ], [ 79.389344999896537, 11.370197481366896 ], [ 79.389995551740427, 11.372199890040733 ], [ 79.390119248856763, 11.372593137435295 ], [ 79.39028875556096, 11.37295926474296 ], [ 79.39080184989507, 11.37365535306572 ], [ 79.391314946025773, 11.374351437926002 ], [ 79.392167050175075, 11.375305160925077 ], [ 79.392579358924166, 11.375725519792882 ], [ 79.392996249979547, 11.376141357579419 ], [ 79.39317755156344, 11.376314884922545 ], [ 79.394068259015398, 11.377167387615444 ], [ 79.394011702881755, 11.377189303800664 ], [ 79.391315069993297, 11.378234241353256 ], [ 79.39157174561943, 11.382302359356927 ], [ 79.391979670589947, 11.388160445577702 ], [ 79.389748597682299, 11.387952587057239 ], [ 79.389744136648616, 11.390513095892956 ], [ 79.389744086342944, 11.390542625787832 ], [ 79.389746494726239, 11.390598035391408 ], [ 79.389771590960336, 11.391175442604977 ], [ 79.390325926050792, 11.391175429395689 ], [ 79.390669533443599, 11.391478267378439 ], [ 79.390747424565262, 11.391839876599951 ], [ 79.390820745058747, 11.392422972713605 ], [ 79.39055059470337, 11.397404171642112 ], [ 79.391462292190241, 11.39741770295096 ], [ 79.391329482563705, 11.398995234631641 ], [ 79.39274972082454, 11.398927385606045 ], [ 79.392781803256611, 11.399261873598649 ], [ 79.394023368404063, 11.399248265765832 ], [ 79.394069285789783, 11.401702696845984 ], [ 79.3934462134104, 11.401874487048397 ], [ 79.393391273345955, 11.402819196575498 ], [ 79.392149691130527, 11.402832801595506 ], [ 79.390321683307704, 11.402914221242474 ], [ 79.390124689952444, 11.403302958986007 ], [ 79.389588658035876, 11.403384333588534 ], [ 79.389529107817367, 11.403718826020505 ], [ 79.38789351912844, 11.403967470299946 ], [ 79.388058493832034, 11.405933726174629 ], [ 79.387582020218829, 11.406227541927684 ], [ 79.384645258671767, 11.406584674044922 ], [ 79.384677342002135, 11.4079181134218 ], [ 79.385034704398564, 11.407931668885778 ], [ 79.385167572415611, 11.408098913353768 ], [ 79.385185903437289, 11.408528326159429 ], [ 79.385080533749417, 11.409206347188501 ], [ 79.384687448049078, 11.409206349830207 ], [ 79.383925974928815, 11.409206355994122 ], [ 79.383806853830578, 11.409301278139761 ], [ 79.383596104573357, 11.410065183770076 ], [ 79.379807120299375, 11.410508150703919 ], [ 79.379701748814881, 11.409775888391914 ], [ 79.379614700267211, 11.40963576360264 ], [ 79.379271082992943, 11.409522758326494 ], [ 79.379060331040762, 11.409360031107724 ], [ 79.378968702881792, 11.409011980222079 ], [ 79.379060336430641, 11.408844735411312 ], [ 79.37968801177756, 11.408871862100291 ], [ 79.379257382786534, 11.404948383966181 ], [ 79.379798002399241, 11.404921266588746 ], [ 79.379633076204669, 11.403949437776363 ], [ 79.378748847402534, 11.40385450503608 ], [ 79.378735113060145, 11.403009240594171 ], [ 79.377653883716164, 11.402896222994773 ], [ 79.377713461782463, 11.401689348022758 ], [ 79.379271157553106, 11.401815930663954 ], [ 79.379408603384832, 11.401707447614445 ], [ 79.379454430939049, 11.400333328337231 ], [ 79.379619363421853, 11.40012540210477 ], [ 79.38202920107102, 11.400166096028171 ], [ 79.382281180304844, 11.400238417284006 ], [ 79.382464436622826, 11.400319780435989 ], [ 79.382432368563798, 11.402245357371843 ], [ 79.385172085551602, 11.401996732719173 ], [ 79.385428648888322, 11.401915368286229 ], [ 79.385474441408263, 11.400057592095086 ], [ 79.384022124308643, 11.399931041252492 ], [ 79.384035849667868, 11.397119515587224 ], [ 79.382125410637954, 11.397074323114444 ], [ 79.382125410637954, 11.397444973388428 ], [ 79.380604386792129, 11.397449489107727 ], [ 79.380269945808507, 11.397377165380968 ], [ 79.379807225402288, 11.397372641735092 ], [ 79.378748920166061, 11.397603158253284 ], [ 79.377699773254164, 11.398037077977865 ], [ 79.377186667241972, 11.397440412758399 ], [ 79.376471965805294, 11.397589565311266 ], [ 79.375267054616387, 11.397743223813862 ], [ 79.374126270562343, 11.398258488574214 ], [ 79.37405418525239, 11.398281932733155 ], [ 79.373292446230778, 11.39852967387491 ], [ 79.37329168266281, 11.398563649952132 ], [ 79.373241981573074, 11.400776180122271 ], [ 79.373617658821516, 11.400830432397086 ], [ 79.373631341061611, 11.402959416308805 ], [ 79.373690893975066, 11.403153783895272 ], [ 79.373837498131138, 11.403289391853553 ], [ 79.374272733682901, 11.403483768900642 ], [ 79.374378104269113, 11.403610335772381 ], [ 79.374556750433015, 11.404885019382014 ], [ 79.374781239422546, 11.405052268285962 ], [ 79.377374373813836, 11.405300929890217 ], [ 79.377717897663331, 11.411272029311693 ], [ 79.377621542569344, 11.41128882242575 ], [ 79.376343407904983, 11.411511572586033 ], [ 79.376086833788463, 11.411674292407634 ], [ 79.375981452422494, 11.411827974990832 ], [ 79.37586229359502, 11.413491380727372 ], [ 79.374350345428496, 11.413631469271909 ], [ 79.374263303169045, 11.413256295594953 ], [ 79.373795972608804, 11.413337643570129 ], [ 79.373525650675177, 11.413545563651169 ], [ 79.373360702921033, 11.413794164983862 ], [ 79.373333188422208, 11.414558065567284 ], [ 79.37237561397373, 11.414752402319685 ], [ 79.372164850343466, 11.41493319965986 ], [ 79.371834935072215, 11.415900496581489 ], [ 79.371669984623125, 11.416180739024576 ], [ 79.370403519074301, 11.41679182158386 ], [ 79.370387020615809, 11.416799783431001 ], [ 79.370313247371413, 11.416835379277614 ], [ 79.36998388456405, 11.41699429739765 ], [ 79.368366513709077, 11.417604443953927 ], [ 79.366959902891097, 11.418033786904429 ], [ 79.366002313171265, 11.418200981392941 ], [ 79.365182177368041, 11.41831845897692 ], [ 79.363367800581344, 11.418503674331443 ], [ 79.362080319844793, 11.418697953788239 ], [ 79.359853610952811, 11.418507947568701 ], [ 79.357594821425423, 11.418449007179429 ], [ 79.354117246229521, 11.418864548241613 ], [ 79.353191731755246, 11.418905140859335 ], [ 79.352907680869151, 11.418742387321094 ], [ 79.352861905417214, 11.418340091098239 ], [ 79.352696987307453, 11.418091467332282 ], [ 79.351954758795529, 11.417982908611778 ], [ 79.350965109999848, 11.417955685934549 ], [ 79.350218293791769, 11.417910402560231 ], [ 79.350084643342086, 11.417782914857991 ], [ 79.349695880334892, 11.417412081561302 ], [ 79.349668546397453, 11.417386007932262 ], [ 79.349017994553506, 11.416942963679389 ], [ 79.346502772843408, 11.415848798120347 ], [ 79.346131659934954, 11.41581711176323 ], [ 79.339442047947927, 11.417655919319106 ], [ 79.33883728772561, 11.417759788422073 ], [ 79.338246580747608, 11.417861240412408 ], [ 79.338232517621805, 11.41786365396484 ], [ 79.338156738439395, 11.417869488404117 ], [ 79.337119142065404, 11.417949370723898 ], [ 79.336101987754063, 11.418017013561323 ], [ 79.336028674447078, 11.418057683787531 ], [ 79.335744549899118, 11.41840568923908 ], [ 79.335428342919116, 11.418821491002872 ], [ 79.334202508170605, 11.418941779874375 ], [ 79.334186671770482, 11.41894333401658 ], [ 79.333452184041349, 11.419105694721688 ], [ 79.332674640060674, 11.419277573012923 ], [ 79.330933549631482, 11.419430958260987 ], [ 79.328890109633875, 11.419322112999438 ], [ 79.327080485833392, 11.418462953978665 ], [ 79.322796598109818, 11.418308435838142 ], [ 79.322691028995948, 11.419221480427186 ], [ 79.322585570374869, 11.419596628606044 ], [ 79.322269409208928, 11.419696008048911 ], [ 79.319245073599788, 11.419285842096226 ], [ 79.319231798296514, 11.419284041406708 ], [ 79.31915686802202, 11.419273089339939 ], [ 79.317683220425991, 11.419057698607324 ], [ 79.314613536962938, 11.418699920021952 ], [ 79.3127396575685, 11.418491557286437 ], [ 79.312657706960067, 11.416348995658078 ], [ 79.307971008374935, 11.414892369606873 ], [ 79.299743035057105, 11.412413146933957 ], [ 79.297933379815575, 11.412105265432178 ], [ 79.297873716409327, 11.412453298436503 ], [ 79.29774997797054, 11.412566264682246 ], [ 79.296201404591599, 11.412498013843893 ], [ 79.296145679399558, 11.412495349288001 ], [ 79.292586547955665, 11.412325169000081 ], [ 79.292129610903245, 11.410306876630706 ], [ 79.292119869572318, 11.410263848913134 ], [ 79.292114775226338, 11.410239122766008 ], [ 79.291914014336754, 11.409264836887502 ], [ 79.291566036640077, 11.408559590658486 ], [ 79.290778870804388, 11.405851789615443 ], [ 79.290001154347166, 11.40230324618399 ], [ 79.290671125970889, 11.398931438108367 ], [ 79.291120854043172, 11.396576589017304 ], [ 79.292950812108458, 11.390199243812177 ], [ 79.293083781635119, 11.389837672132646 ], [ 79.293299323404383, 11.389123555575242 ], [ 79.294610534935799, 11.385946293732893 ], [ 79.295510857056271, 11.383965898279119 ], [ 79.295522801954604, 11.383939624316861 ], [ 79.295533755112871, 11.383911058920678 ], [ 79.296389321369261, 11.381679809667917 ], [ 79.296389557626156, 11.380888785583053 ], [ 79.29618360177929, 11.380237826435698 ], [ 79.296018757331382, 11.379989171093486 ], [ 79.29580804131183, 11.37993486728749 ], [ 79.295134567156794, 11.380101913345788 ], [ 79.29400758302215, 11.380196502635259 ], [ 79.292582863066372, 11.380168951376772 ], [ 79.291488028737461, 11.380001370800535 ], [ 79.289843497319836, 11.379725131366067 ], [ 79.288913546066368, 11.379684157992045 ], [ 79.28785068726998, 11.37980586191164 ], [ 79.286187655049105, 11.380067492974705 ], [ 79.283315108671829, 11.380608959230971 ], [ 79.280424242950929, 11.381105189817854 ], [ 79.280328602915887, 11.37951406814148 ], [ 79.278596877423567, 11.37970330960616 ], [ 79.276310755755333, 11.380100270045077 ], [ 79.273616967831359, 11.380338856779479 ], [ 79.27352011507071, 11.382051951567124 ], [ 79.273474115039932, 11.382549149230131 ], [ 79.273432423329311, 11.383765050134008 ], [ 79.273262659706901, 11.384447527273633 ], [ 79.273133967957605, 11.385550392929074 ], [ 79.272927729141429, 11.385771801799743 ], [ 79.272107694847804, 11.385766975910881 ], [ 79.267636458980178, 11.385706509630145 ], [ 79.267187442373611, 11.385850978068165 ], [ 79.266243530402306, 11.386302620893547 ], [ 79.265052045433663, 11.387206175628029 ], [ 79.264470136555516, 11.387431951142446 ], [ 79.262545943420321, 11.387611980345445 ], [ 79.261482966046316, 11.387918914409996 ], [ 79.260077426918443, 11.388258456954526 ], [ 79.260025981300473, 11.388270884389929 ], [ 79.259858693434992, 11.388294849824048 ], [ 79.258610286718323, 11.388473698439054 ], [ 79.258600091738174, 11.388471306652633 ], [ 79.258554903784429, 11.388460707410355 ], [ 79.257529221766092, 11.388220115248201 ], [ 79.256544569400006, 11.387500996166626 ], [ 79.255496053105418, 11.386171628168178 ], [ 79.254447819780182, 11.38423203968604 ], [ 79.253578378145917, 11.382039397046695 ], [ 79.253130161039962, 11.380407435017171 ], [ 79.252741792393181, 11.378133638263511 ], [ 79.251515399790875, 11.375195008583351 ], [ 79.249899134762032, 11.373368155400618 ], [ 79.249427464440615, 11.372835016264332 ], [ 79.248799507921035, 11.372434249975822 ], [ 79.248749876001597, 11.372392098086255 ], [ 79.248740759898098, 11.372389776618947 ], [ 79.247760114018192, 11.371770894425543 ], [ 79.246096774573473, 11.370709300576193 ], [ 79.244502429335853, 11.370104255579639 ], [ 79.242646919590669, 11.369630267819719 ], [ 79.24155668373767, 11.369617165845309 ], [ 79.240562652061712, 11.369834469018853 ], [ 79.239797838106895, 11.37022345540305 ], [ 79.2394507578272, 11.370537842947627 ], [ 79.239371056600248, 11.370610036109422 ], [ 79.239188735428513, 11.370775183600703 ], [ 79.238533997435368, 11.37167489501036 ], [ 79.238177029399324, 11.372660398283982 ], [ 79.238039954571803, 11.373505793423471 ], [ 79.238067864329352, 11.374703543574009 ], [ 79.238641843778481, 11.378287842717109 ], [ 79.238959764744038, 11.383214705059144 ], [ 79.238935150006938, 11.383597466391249 ], [ 79.238931294437762, 11.383657424108405 ], [ 79.238809469410484, 11.385551654001716 ], [ 79.238406290239638, 11.387359537685141 ], [ 79.238374976765442, 11.3874999455735 ], [ 79.237830225800764, 11.388616614686214 ], [ 79.237079248596274, 11.389638429989159 ], [ 79.236222897212329, 11.39048397724552 ], [ 79.236208674186429, 11.39049076508026 ], [ 79.235398330019763, 11.390877512880369 ], [ 79.234468443444982, 11.391185282651755 ], [ 79.233350711957783, 11.391524636366906 ], [ 79.231962692672951, 11.391751120873424 ], [ 79.230244800337658, 11.392009399890156 ], [ 79.228160318111364, 11.391991983040002 ], [ 79.226187765071145, 11.392042942602391 ], [ 79.22612625742363, 11.392044532116461 ], [ 79.226034630162985, 11.392046899215556 ], [ 79.224623461293248, 11.39188908992468 ], [ 79.223070293031626, 11.391401418391711 ], [ 79.222538810183664, 11.391202730373008 ], [ 79.221067980602697, 11.390570315180087 ], [ 79.220409876622156, 11.39023579582612 ], [ 79.220356008247848, 11.390208412858071 ], [ 79.218419631262407, 11.389224114271084 ], [ 79.216536414778915, 11.388180532730182 ], [ 79.214373765648148, 11.387069196778175 ], [ 79.212014010872679, 11.385763571369543 ], [ 79.210827332789123, 11.385225934248806 ], [ 79.209549093021877, 11.384900851705932 ], [ 79.207551527290889, 11.384259532428899 ], [ 79.206243875782931, 11.383849042314566 ], [ 79.206237106977269, 11.383846917324 ], [ 79.206193218885758, 11.383833139670148 ], [ 79.204889634949424, 11.383423916187379 ], [ 79.20234235955337, 11.382723980426878 ], [ 79.201810914434617, 11.38259303096708 ], [ 79.201407797247526, 11.382525298676807 ], [ 79.200097527150518, 11.38244418405978 ], [ 79.198924699291965, 11.382254684626314 ], [ 79.196977541624832, 11.381450506108791 ], [ 79.195187018702214, 11.38082684141251 ], [ 79.195152844992165, 11.38081493763989 ], [ 79.19444855233472, 11.380569616953071 ], [ 79.193748836593599, 11.380432060722763 ], [ 79.1936813174202, 11.380418786637241 ], [ 79.192771754330423, 11.380239971708265 ], [ 79.190536019166473, 11.379553395594113 ], [ 79.189706847209777, 11.379318498152651 ], [ 79.188685140236544, 11.37878081803378 ], [ 79.187532332232422, 11.378025354897124 ], [ 79.187449403358627, 11.37797100932551 ], [ 79.187333542246563, 11.377895081384823 ], [ 79.1863117921542, 11.376964123415632 ], [ 79.185015180042797, 11.375983499837679 ], [ 79.183466598579017, 11.375111375804684 ], [ 79.180617096683704, 11.374370615438279 ], [ 79.17829900936438, 11.374022881920085 ], [ 79.176640666349286, 11.373955394179456 ], [ 79.174858715151117, 11.374077721421957 ], [ 79.17352108057392, 11.374331020426164 ], [ 79.17227963759737, 11.374706347630097 ], [ 79.171478059191259, 11.375285044682467 ], [ 79.170937580614037, 11.376017358837016 ], [ 79.169861194986069, 11.377188260214758 ], [ 79.168468647293906, 11.378250598731029 ], [ 79.168147513952846, 11.378420763311842 ], [ 79.167048444067362, 11.377170472578847 ], [ 79.167052929355563, 11.376682321397634 ], [ 79.166370243875633, 11.375561394985525 ], [ 79.163223046583369, 11.375299603022777 ], [ 79.163501905207141, 11.370395207369317 ], [ 79.162768926647672, 11.369708219138749 ], [ 79.161344141114895, 11.368682255587501 ], [ 79.159681129555267, 11.367846231670915 ], [ 79.158109860240685, 11.367204521706936 ], [ 79.156043826715347, 11.367141406759648 ], [ 79.154568833443037, 11.36713247211622 ], [ 79.153139504231547, 11.366834282964808 ], [ 79.15285094559934, 11.366549448377269 ], [ 79.15271446365989, 11.365262136396991 ], [ 79.152713609362053, 11.36525407094566 ], [ 79.152713409037773, 11.365252182724644 ], [ 79.152710873992021, 11.365239677663658 ], [ 79.152612597401642, 11.364755049102374 ], [ 79.152273571416757, 11.364411472215368 ], [ 79.151091683150298, 11.363918881560743 ], [ 79.150752665250252, 11.363426181728196 ], [ 79.150656436818707, 11.362748169607322 ], [ 79.150230271556339, 11.360320894133993 ], [ 79.1506423602182, 11.357794098321795 ], [ 79.15162265126358, 11.357997417588674 ], [ 79.151970760114281, 11.357852806439217 ], [ 79.152662418865589, 11.357174729985264 ], [ 79.15257080867292, 11.356397260963591 ], [ 79.153899195992565, 11.356261540831586 ], [ 79.154984755216219, 11.355931486991837 ], [ 79.159354211063842, 11.349363339622702 ], [ 79.159582211567781, 11.348835421612897 ], [ 79.159606035787434, 11.348780259305093 ], [ 79.159603715439033, 11.348757609912633 ], [ 79.159372233963367, 11.346497619377017 ], [ 79.157461447285442, 11.338420259398948 ], [ 79.157404186872625, 11.338430768019577 ], [ 79.150316008563706, 11.339731629394405 ], [ 79.150103489625351, 11.338591765394666 ], [ 79.150096049778185, 11.338551858903985 ], [ 79.15009330003511, 11.338531564793715 ], [ 79.149749876796903, 11.335997473427058 ], [ 79.149610283991649, 11.334967425985687 ], [ 79.14710015842418, 11.333801338388856 ], [ 79.145625302594055, 11.333353909827025 ], [ 79.142725847182447, 11.33265793898445 ], [ 79.140710533436391, 11.332400337264295 ], [ 79.130775708976444, 11.332386912088189 ], [ 79.130047477114971, 11.330972097400871 ], [ 79.129899237126779, 11.330027785645109 ], [ 79.129887109870438, 11.329950533421169 ], [ 79.129883359404118, 11.329925051615596 ], [ 79.129215265259333, 11.325387325930864 ], [ 79.129149729566123, 11.324942201653535 ], [ 79.128875041820208, 11.321470719407863 ], [ 79.124963823785535, 11.310757849889731 ], [ 79.131403318746351, 11.310699167333752 ], [ 79.132836790987923, 11.310658482668945 ], [ 79.134503966238881, 11.310721751913949 ], [ 79.136574096980198, 11.310152273592127 ], [ 79.140219769423609, 11.309546468749495 ], [ 79.140911355411433, 11.309306840690461 ], [ 79.142578172234565, 11.302318675649 ], [ 79.142701708552437, 11.299113868424936 ], [ 79.142362777789003, 11.298431306305597 ], [ 79.141666669682095, 11.298865273724859 ], [ 79.141478851719114, 11.297260570212416 ], [ 79.140888046824742, 11.297305798747916 ], [ 79.140821704444363, 11.297027462951524 ], [ 79.140814790111634, 11.296998453694075 ], [ 79.140812676375774, 11.29697981274945 ], [ 79.14075070340094, 11.296433416093574 ], [ 79.140109493137643, 11.29642891287093 ], [ 79.140411724128484, 11.295746354051722 ], [ 79.139624028286775, 11.295741863151106 ], [ 79.139266671280225, 11.29001027762596 ], [ 79.13919434612005, 11.290092327603206 ], [ 79.136628840313634, 11.293002765366017 ], [ 79.130102631876795, 11.297577153073796 ], [ 79.125884652647315, 11.2959001158225 ], [ 79.124355005873099, 11.296230022228796 ], [ 79.12342079840181, 11.296026661694475 ], [ 79.120041003926289, 11.294408276615256 ], [ 79.118813666296305, 11.293327928698556 ], [ 79.115813922068057, 11.293648719653454 ], [ 79.114091917245432, 11.293734517787525 ], [ 79.113116543577917, 11.292513991197334 ], [ 79.112378465282589, 11.291205218618572 ], [ 79.112351750284347, 11.291157847584648 ], [ 79.112340653395663, 11.291138465399785 ], [ 79.112292217133842, 11.291053858385871 ], [ 79.111023787867836, 11.288956458368148 ], [ 79.11088653337724, 11.287546178320497 ], [ 79.11340084778891, 11.286981300937857 ], [ 79.113030114867797, 11.282800108162357 ], [ 79.109586275902416, 11.282872223923498 ], [ 79.109307136105969, 11.280481015751816 ], [ 79.109030720899796, 11.272379014604741 ], [ 79.109028470620004, 11.272313058707605 ], [ 79.10902793342747, 11.272290769758628 ], [ 79.108978207184904, 11.270229258277618 ], [ 79.115233592428197, 11.27043302559837 ], [ 79.11578787182313, 11.268105182856079 ], [ 79.119785689247806, 11.266817155050763 ], [ 79.120541423930021, 11.26371183730428 ], [ 79.121965529438157, 11.264109683746625 ], [ 79.122272366989762, 11.262803282097988 ], [ 79.122441936576038, 11.259065178940796 ], [ 79.119982889215606, 11.258852588889154 ], [ 79.120990503418668, 11.255363029089732 ], [ 79.121791869822374, 11.251446117187987 ], [ 79.122077148705486, 11.249339597385934 ], [ 79.122077791000905, 11.249334852897034 ], [ 79.122080804848693, 11.249315873178542 ], [ 79.122173996076242, 11.248729128599315 ], [ 79.114604908273236, 11.24665400857694 ], [ 79.1101514617432, 11.244696283343053 ], [ 79.110131381701649, 11.244687455896315 ], [ 79.109444639429881, 11.244384506641376 ], [ 79.111167312599079, 11.230602594803205 ], [ 79.10740339311819, 11.232188870871418 ], [ 79.10390093458895, 11.229462909002857 ], [ 79.103834611073211, 11.229478881013327 ], [ 79.098910009854734, 11.230664818164097 ], [ 79.098904649607448, 11.230645641609257 ], [ 79.097660514379982, 11.226194195153088 ], [ 79.09517551828425, 11.216724109986036 ], [ 79.095042911676941, 11.215042505140939 ], [ 79.093450021710098, 11.199877875299793 ], [ 79.093447093202272, 11.199849992134496 ], [ 79.091459979369603, 11.200464493577513 ], [ 79.091464723372638, 11.199768319171399 ], [ 79.08912523459, 11.199754439268377 ], [ 79.088337580969082, 11.20107421759125 ], [ 79.087407968380461, 11.202050471604142 ], [ 79.08739870674988, 11.203166995759068 ], [ 79.08563138102285, 11.203297751319086 ], [ 79.085480131678452, 11.204766784880688 ], [ 79.083918911816951, 11.204617425358682 ], [ 79.079885505835648, 11.203821114871836 ], [ 79.078044997955686, 11.203947435081826 ], [ 79.07456540873693, 11.204556980803515 ], [ 79.073772784737571, 11.207210163599923 ], [ 79.073063163273829, 11.207137684358518 ], [ 79.073131658915912, 11.208114068588433 ], [ 79.068961104445265, 11.206476956792461 ], [ 79.065956450923977, 11.204382005755788 ], [ 79.065926107630304, 11.204360849176362 ], [ 79.06592823214595, 11.204342285948744 ], [ 79.06630683341065, 11.201034024123587 ], [ 79.066659471566993, 11.200821697975579 ], [ 79.066257442239703, 11.196970331920708 ], [ 79.066687820600734, 11.196690213412325 ], [ 79.066770564421546, 11.195298007793694 ], [ 79.067974662635123, 11.195090366419596 ], [ 79.067234444552795, 11.18885684802993 ], [ 79.070635880341825, 11.188880187694979 ], [ 79.070631238746756, 11.189232746390813 ], [ 79.075770257942096, 11.189265151338322 ], [ 79.075777034832612, 11.18925177940703 ], [ 79.075841131424738, 11.189125307379012 ], [ 79.075809146010755, 11.188700338717817 ], [ 79.075703928138154, 11.188582846302721 ], [ 79.075717714582808, 11.188456226815156 ], [ 79.075964941728756, 11.188189568987841 ], [ 79.076084078098376, 11.187873213168539 ], [ 79.076070341959365, 11.187814449174279 ], [ 79.075974151257071, 11.187737602035007 ], [ 79.075969665968856, 11.187412163607986 ], [ 79.076148341777184, 11.186982716581976 ], [ 79.076349845573489, 11.186273097153146 ], [ 79.07630417612279, 11.185658344397481 ], [ 79.076322570026534, 11.185373553126654 ], [ 79.076418770610317, 11.185161171431888 ], [ 79.07659274643305, 11.184917075934706 ], [ 79.076675238725613, 11.184614254363758 ], [ 79.076775976699892, 11.184541926327718 ], [ 79.076840093054997, 11.184302428696373 ], [ 79.077041537562494, 11.184189447405259 ], [ 79.077330036007581, 11.183827849696071 ], [ 79.077467412669023, 11.183809842987115 ], [ 79.077659711428623, 11.183674214970399 ], [ 79.077769631981766, 11.183317127776917 ], [ 79.077874919024623, 11.183177065919663 ], [ 79.077842972238159, 11.182937486084505 ], [ 79.078135985615859, 11.182499065603674 ], [ 79.078314555422992, 11.182440379832981 ], [ 79.078300857013218, 11.182087802297017 ], [ 79.078264392599209, 11.181567967695102 ], [ 79.078411033586193, 11.180758836617784 ], [ 79.078360702777445, 11.180446968907905 ], [ 79.078168572901106, 11.179899940716677 ], [ 79.07645642619039, 11.179492796300686 ], [ 79.075875292558365, 11.178308465624267 ], [ 79.07189256593216, 11.178149445154785 ], [ 79.07170500758231, 11.177127848216077 ], [ 79.069365719123951, 11.177113823580044 ], [ 79.069672856712856, 11.175414258984654 ], [ 79.069690625389171, 11.174766012925833 ], [ 79.069691317990277, 11.174740735943669 ], [ 79.069691797690624, 11.174723246865231 ], [ 79.069709778369358, 11.174067304754889 ], [ 79.070423879731422, 11.174166820422046 ], [ 79.071270847313883, 11.173981669310846 ], [ 79.071028738768405, 11.171513653075182 ], [ 79.072260118817141, 11.171364663295027 ], [ 79.072983698303787, 11.170180579680064 ], [ 79.072750612437005, 11.168390514879935 ], [ 79.072685064167374, 11.167886639950252 ], [ 79.072677167976025, 11.167825940966356 ], [ 79.072617442586036, 11.16736683277319 ], [ 79.07260889691274, 11.167301136673073 ], [ 79.072606328629334, 11.167280883369001 ], [ 79.072426073582761, 11.165859115692147 ], [ 79.072462868576778, 11.165221818866755 ], [ 79.072179195881418, 11.164579824997508 ], [ 79.072696494331041, 11.164421768212431 ], [ 79.072445018153786, 11.162753728132628 ], [ 79.072866169918541, 11.162595673878686 ], [ 79.072330961757103, 11.160990853139051 ], [ 79.072468656422174, 11.159246097302367 ], [ 79.070753046706017, 11.154458797109926 ], [ 79.068903704793556, 11.154354473996776 ], [ 79.068092668924137, 11.154176306376577 ], [ 79.067544265409481, 11.154055833366606 ], [ 79.065598795676763, 11.154073480569833 ], [ 79.065342568309958, 11.153720875620236 ], [ 79.062358056813977, 11.153575533423275 ], [ 79.061798515088114, 11.153499057076134 ], [ 79.061794992793864, 11.153498575859942 ], [ 79.061730590774502, 11.153489400142337 ], [ 79.060650705310238, 11.153335538711996 ], [ 79.059530425302569, 11.152282607871919 ], [ 79.059520263560074, 11.152273058422628 ], [ 79.059790614239773, 11.151292269701585 ], [ 79.06018444644009, 11.150496756689666 ], [ 79.060733780609397, 11.150338693123302 ], [ 79.060570064445486, 11.1458817130817 ], [ 79.060185706776466, 11.145334721122842 ], [ 79.060158601909407, 11.143956003571763 ], [ 79.059641346578914, 11.143888072292988 ], [ 79.059875022638806, 11.142898254630211 ], [ 79.060360254826051, 11.143092751436354 ], [ 79.060566664322138, 11.141271105400307 ], [ 79.057133658140756, 11.141184420252511 ], [ 79.057069778940942, 11.140542467589526 ], [ 79.056099310074885, 11.140533242986722 ], [ 79.056098271622403, 11.140512845913499 ], [ 79.056012839143946, 11.138833575406206 ], [ 79.055995296843065, 11.135868344341993 ], [ 79.055785182694734, 11.134331455904368 ], [ 79.055199360755239, 11.133942569440324 ], [ 79.055067663243008, 11.129869795347949 ], [ 79.057141099784587, 11.129888412698875 ], [ 79.057214520889389, 11.129246498586337 ], [ 79.057827943565997, 11.129056853572129 ], [ 79.057448391883725, 11.127583123968179 ], [ 79.058070971088014, 11.127077020578495 ], [ 79.058400808205818, 11.126113184995697 ], [ 79.058432908604189, 11.126019380418974 ], [ 79.059178924413331, 11.125929216125565 ], [ 79.059247671583748, 11.125544955660841 ], [ 79.059572694629921, 11.125549534705277 ], [ 79.059632072371912, 11.125902162336807 ], [ 79.060053144186611, 11.125997165698292 ], [ 79.059851535287393, 11.126991632192764 ], [ 79.060171760431643, 11.127597365181234 ], [ 79.061178696406671, 11.127737712091593 ], [ 79.061174030557083, 11.128090279781805 ], [ 79.063311552911031, 11.128004953392859 ], [ 79.063929509384877, 11.128140649707763 ], [ 79.06464824335886, 11.127598441403347 ], [ 79.065399043595249, 11.126866332679322 ], [ 79.065284721297232, 11.126323866388093 ], [ 79.065019517065792, 11.125067212410933 ], [ 79.065248531767693, 11.124366589293572 ], [ 79.065189174686978, 11.123819630064773 ], [ 79.064937565559049, 11.12320933041425 ], [ 79.064516668017518, 11.122440829129118 ], [ 79.064521387766007, 11.121957184812119 ], [ 79.065079940446722, 11.121157251378525 ], [ 79.066288611085113, 11.1195663528603 ], [ 79.06716759642093, 11.118865958037201 ], [ 79.067497191891945, 11.118323540318716 ], [ 79.06743327316623, 11.117844401345195 ], [ 79.067080911690979, 11.117329002817787 ], [ 79.06698103160781, 11.117161363589654 ], [ 79.066926082560187, 11.117069134824204 ], [ 79.066792744724253, 11.116845335916318 ], [ 79.066701322279471, 11.116013525375555 ], [ 79.066092877167861, 11.114770322185981 ], [ 79.066651513391918, 11.113938736671177 ], [ 79.067045261150611, 11.113364813990495 ], [ 79.067173465114706, 11.112912763295437 ], [ 79.067626629242909, 11.112822439809147 ], [ 79.06767749724419, 11.110132971566019 ], [ 79.068007131342767, 11.109717154424692 ], [ 79.068817214099681, 11.109757995192762 ], [ 79.069142200314957, 11.109721977887871 ], [ 79.069371082066226, 11.109441703868303 ], [ 79.06940781777142, 11.108894776583899 ], [ 79.068954906968116, 11.108379371938897 ], [ 79.068506341315825, 11.108180401337364 ], [ 79.067673927339271, 11.105920078657899 ], [ 79.066644349327504, 11.104957099595003 ], [ 79.066072702803211, 11.103058447010627 ], [ 79.064828351081729, 11.100490742411345 ], [ 79.064656700997261, 11.100319097628091 ], [ 79.064620692029109, 11.100283089736623 ], [ 79.064439483869975, 11.100101886619719 ], [ 79.063016127556821, 11.099758037617216 ], [ 79.062284431791596, 11.097669523604976 ], [ 79.061666539098141, 11.097827557563962 ], [ 79.061240932587879, 11.097795782409307 ], [ 79.060861282989222, 11.096828442120572 ], [ 79.060417632918174, 11.095386318056127 ], [ 79.060129289881672, 11.095476713051667 ], [ 79.059996737173265, 11.094902608621203 ], [ 79.05961243340316, 11.094355537741079 ], [ 79.059521161875324, 11.093469547756907 ], [ 79.059402316559897, 11.092728212783518 ], [ 79.058789348430835, 11.091733612756332 ], [ 79.058144266428656, 11.090734484409074 ], [ 79.057924593307405, 11.090571733026627 ], [ 79.057792052277122, 11.090024713983869 ], [ 79.05718341492603, 11.089830238196217 ], [ 79.056575144985914, 11.088162062772579 ], [ 79.056190878046721, 11.087547258784042 ], [ 79.055866004120844, 11.087547172392341 ], [ 79.055619177623512, 11.086263365391604 ], [ 79.054745211175145, 11.085553461575627 ], [ 79.054356432896597, 11.084974792354588 ], [ 79.053486933770174, 11.084933835282193 ], [ 79.052644784750868, 11.084929126893467 ], [ 79.051802727359743, 11.084924325941325 ], [ 79.050466239931168, 11.085461898978274 ], [ 79.048905707280838, 11.085452461060436 ], [ 79.048800068098359, 11.086700004643561 ], [ 79.047784143580614, 11.086613864822921 ], [ 79.047783008110088, 11.086613769615445 ], [ 79.047729831438545, 11.086609279878301 ], [ 79.046763578366139, 11.086527686188623 ], [ 79.043875874715027, 11.086251113586725 ], [ 79.041418483847977, 11.085689880227642 ], [ 79.039574389893403, 11.08513328806032 ], [ 79.03873242233378, 11.084839196742239 ], [ 79.036787346961475, 11.084951617140588 ], [ 79.036824217414008, 11.084350415003835 ], [ 79.035637317446543, 11.084092931367318 ], [ 79.035593178725065, 11.084083355882196 ], [ 79.035552870419977, 11.084085646170426 ], [ 79.033616144888214, 11.084195697230887 ], [ 79.032279873055316, 11.083883366400302 ], [ 79.031726342855322, 11.083435752808432 ], [ 79.032125004398637, 11.08193061631507 ], [ 79.032001690862941, 11.081225421009762 ], [ 79.031809607699032, 11.080678440903737 ], [ 79.031233199205388, 11.080131274645343 ], [ 79.030780250672805, 11.079837271744724 ], [ 79.030588168407178, 11.079421358591304 ], [ 79.030565851560596, 11.077753439402871 ], [ 79.030245824045664, 11.076984844055785 ], [ 79.030420051396717, 11.07605824160283 ], [ 79.029189019894318, 11.075854463762751 ], [ 79.027116066646357, 11.075492087963669 ], [ 79.025756941672626, 11.075387703098839 ], [ 79.025889867181832, 11.074809130140441 ], [ 79.02540480118293, 11.074709466809125 ], [ 79.02521768480419, 11.073330724945517 ], [ 79.024439809345154, 11.07313163262716 ], [ 79.024417394582173, 11.071915673396109 ], [ 79.023799680653482, 11.071734587583888 ], [ 79.023804509098142, 11.071061144892326 ], [ 79.024193638617945, 11.070582118835647 ], [ 79.024367909986466, 11.06952439663046 ], [ 79.024533020335667, 11.068435132938909 ], [ 79.024419713133952, 11.067701141794107 ], [ 79.02441439241251, 11.067666671818419 ], [ 79.024400385880597, 11.067655279684086 ], [ 79.023897367949061, 11.067246110282399 ], [ 79.02295944055416, 11.06676202900332 ], [ 79.022181645943505, 11.06653126739606 ], [ 79.022341525402808, 11.067078278344065 ], [ 79.020364794298231, 11.066715936645924 ], [ 79.018250744922639, 11.066443920002863 ], [ 79.018370852371092, 11.063496799267735 ], [ 79.01843514210104, 11.062904652288731 ], [ 79.014064962211293, 11.062844202107874 ], [ 79.01315430766843, 11.062708268280991 ], [ 79.012701342966182, 11.062545284433391 ], [ 79.011123099131751, 11.061351391572435 ], [ 79.010263147300137, 11.060415336198737 ], [ 79.00935713165741, 11.060410467840743 ], [ 79.009101108208171, 11.059894984797538 ], [ 79.008488121214498, 11.059406609285366 ], [ 79.00699651000771, 11.058917765693558 ], [ 79.006447421078505, 11.058854294211763 ], [ 79.006537991920396, 11.058035477098077 ], [ 79.007522307418242, 11.049136197138813 ], [ 79.008380971065705, 11.042071500368039 ], [ 79.009383254665863, 11.041723839579703 ], [ 79.009973849354452, 11.040860636321824 ], [ 79.009951588203421, 11.039450366425548 ], [ 79.009183505279296, 11.03784540224277 ], [ 79.009289177699429, 11.036701815705863 ], [ 79.010108835598942, 11.035364165094975 ], [ 79.010113570618813, 11.034853335785119 ], [ 79.010049783047108, 11.034337983307715 ], [ 79.009505476748473, 11.033885750611319 ], [ 79.008274745283359, 11.033428733057518 ], [ 79.00805079258808, 11.032981158809084 ], [ 79.008252567675626, 11.031729077646441 ], [ 79.008427003435813, 11.030531313876832 ], [ 79.009416620790446, 11.027430834100381 ], [ 79.010209117229039, 11.025094196574784 ], [ 79.010393217065072, 11.022562947773011 ], [ 79.010344361290024, 11.019073279606328 ], [ 79.010193827004613, 11.017830141085305 ], [ 79.010496397558626, 11.016492311151284 ], [ 79.011517985055903, 11.013292378374043 ], [ 79.012305898289938, 11.010148448841813 ], [ 79.012319970398835, 11.010092299710484 ], [ 79.012305238028176, 11.010077578384747 ], [ 79.011899230062497, 11.009671822380655 ], [ 79.009314381731357, 11.009141856078571 ], [ 79.007209846412962, 11.008874290265057 ], [ 79.006011339313716, 11.008448904942204 ], [ 79.004817553759608, 11.007670921395407 ], [ 79.004076564922769, 11.00716886365119 ], [ 79.00246176594446, 11.006485670184698 ], [ 79.002141617156951, 11.006132963155682 ], [ 79.001666496406585, 11.00462293133115 ], [ 78.999685582745983, 11.00418813725541 ], [ 78.998816484268204, 11.003898470822977 ], [ 78.998784232054533, 11.003853729218235 ], [ 78.99868921904357, 11.003831238047709 ], [ 78.998212278306411, 11.003718340387742 ], [ 78.997933048678433, 11.003352306919773 ], [ 78.9968987994272, 11.002692742205893 ], [ 78.995411534269763, 11.001834451577954 ], [ 78.99485777679601, 11.001409755363101 ], [ 78.994081465303921, 11.00060917715923 ], [ 78.992906936036206, 11.000500758737509 ], [ 78.991856462312668, 11.001401810286566 ], [ 78.991908237612364, 11.000203682357808 ], [ 78.992007372093852, 10.997909638302126 ], [ 78.991173372590822, 10.995987707575098 ], [ 78.990245179340349, 10.99440337655926 ], [ 78.990121292679504, 10.992963191866645 ], [ 78.990190363243386, 10.990728532690296 ], [ 78.990192300011131, 10.990665863072136 ], [ 78.990244810132765, 10.988966874395459 ], [ 78.990313153959576, 10.986755596313085 ], [ 78.990131523592282, 10.985004356351961 ], [ 78.990383169551151, 10.983945379117326 ], [ 78.990451940077719, 10.98158052180734 ], [ 78.990006556258152, 10.979659624977472 ], [ 78.989621246374938, 10.978491406612877 ], [ 78.9886036069733, 10.978342734799197 ], [ 78.9879775423057, 10.977120104582925 ], [ 78.986182343652033, 10.977122876328865 ], [ 78.985997639249831, 10.976477356017162 ], [ 78.985182298653555, 10.976244761576019 ], [ 78.983720834907729, 10.975995621073929 ], [ 78.983030659274917, 10.975877961177682 ], [ 78.982331450183636, 10.975561607605261 ], [ 78.982262272720249, 10.975530308668075 ], [ 78.982477518045471, 10.973603530855494 ], [ 78.982933129184545, 10.97186937898565 ], [ 78.983523496599375, 10.970855545748746 ], [ 78.985006690591931, 10.969586786678493 ], [ 78.986330974407366, 10.968453950202436 ], [ 78.987196621557885, 10.967365927962927 ], [ 78.98743134595172, 10.966798338363859 ], [ 78.983347826553995, 10.967700735397669 ], [ 78.980928097555207, 10.968113417405347 ], [ 78.978295244153628, 10.968562421844682 ], [ 78.975610966693552, 10.969020179373905 ], [ 78.974840245417468, 10.970180782941934 ], [ 78.974371971626141, 10.970885935944553 ], [ 78.972955260151139, 10.971711319592721 ], [ 78.97156593741083, 10.971100843749825 ], [ 78.970539615791964, 10.971282284310277 ], [ 78.969862646292157, 10.971587555273038 ], [ 78.968945555320303, 10.972175304589143 ], [ 78.968733900561247, 10.972210158795365 ], [ 78.968045456880347, 10.972296758101759 ], [ 78.96718525441878, 10.972449964124346 ], [ 78.965600187879716, 10.972690293984654 ], [ 78.964932746810163, 10.972651336389639 ], [ 78.964862431181302, 10.972647232062277 ], [ 78.964412580938131, 10.972620974595904 ], [ 78.963643709293208, 10.97248220965893 ], [ 78.962866583927436, 10.972509692086831 ], [ 78.960998554362092, 10.972633208208519 ], [ 78.958046250163989, 10.972774012009005 ], [ 78.956839955569549, 10.972838972170436 ], [ 78.955579188932916, 10.972913808622158 ], [ 78.954102192417508, 10.972958738351885 ], [ 78.953391807385756, 10.973068756059931 ], [ 78.951948175198311, 10.973441430687977 ], [ 78.95162151631996, 10.973532910011656 ], [ 78.950750357106884, 10.973769588852331 ], [ 78.949950378600306, 10.973945257577467 ], [ 78.949970653576258, 10.974148294710128 ], [ 78.949149650000436, 10.974379687907545 ], [ 78.949237936426542, 10.975140860577055 ], [ 78.949250684418743, 10.975824425596326 ], [ 78.948678635449198, 10.9759697263588 ], [ 78.948003945873594, 10.976199361421097 ], [ 78.946798307049292, 10.976569255057967 ], [ 78.946453256063819, 10.975653921416148 ], [ 78.946212085359505, 10.974982272920874 ], [ 78.946253147351129, 10.974410844982796 ], [ 78.946335683661147, 10.973262227927698 ], [ 78.946434103981971, 10.972332419226102 ], [ 78.946589022045984, 10.970445736386658 ], [ 78.946787591944585, 10.968493715293594 ], [ 78.946909143884014, 10.967286396589952 ], [ 78.947077454032282, 10.965103820399124 ], [ 78.947168402166582, 10.964224887676822 ], [ 78.947318269902041, 10.962467562952023 ], [ 78.94742440405625, 10.961777909987058 ], [ 78.947640471339938, 10.960948335913431 ], [ 78.947815181086298, 10.960401100384223 ], [ 78.94810692424619, 10.959506007284499 ], [ 78.948428725035441, 10.958689118753833 ], [ 78.949057500818583, 10.958598499133462 ], [ 78.949039915398558, 10.958478650407381 ], [ 78.949018179761964, 10.958086186565913 ], [ 78.949091815564103, 10.957526184989399 ], [ 78.949092459656185, 10.957521067105899 ], [ 78.949117387007007, 10.957322643439953 ], [ 78.94926921756138, 10.956775701946714 ], [ 78.949434856119979, 10.95651505159098 ], [ 78.949627946295351, 10.95625402970833 ], [ 78.950286487755434, 10.95552100239383 ], [ 78.951026729193941, 10.955484581652803 ], [ 78.952298997859472, 10.955335649562006 ], [ 78.952471513919889, 10.955005670892744 ], [ 78.952848492827201, 10.954340468393765 ], [ 78.953645499706823, 10.953499507787258 ], [ 78.954421044936026, 10.95299148414121 ], [ 78.955936718415998, 10.95200806212269 ], [ 78.957269116713391, 10.951308654162505 ], [ 78.958906198402346, 10.950545630667287 ], [ 78.960588312636474, 10.949902074682058 ], [ 78.960895550836682, 10.949778435296292 ], [ 78.96137190856723, 10.949643423853866 ], [ 78.961846027696097, 10.94958706742201 ], [ 78.962744758001875, 10.949636601003418 ], [ 78.963798869004037, 10.949679693616162 ], [ 78.965604462063851, 10.949751013375824 ], [ 78.966080852133743, 10.949763824736529 ], [ 78.96757925280744, 10.949815743109591 ], [ 78.967582645744272, 10.94949224599679 ], [ 78.968214800091189, 10.949364621736352 ], [ 78.969168671684059, 10.949136355813028 ], [ 78.97031632785, 10.948813327162727 ], [ 78.971828559884131, 10.948439862137212 ], [ 78.972041403114275, 10.948368119600653 ], [ 78.972142512092788, 10.948237569377282 ], [ 78.972325074911339, 10.947648566857227 ], [ 78.972631810054978, 10.947506379639407 ], [ 78.973474398350461, 10.947090000786284 ], [ 78.973456416773416, 10.946526481398919 ], [ 78.973361157624041, 10.945982277007047 ], [ 78.975356664416424, 10.944831565139033 ], [ 78.976552520587262, 10.944152232559549 ], [ 78.977563649898002, 10.943567502161686 ], [ 78.977800016412218, 10.943231988302873 ], [ 78.978304980992988, 10.942131031670053 ], [ 78.979132653661466, 10.940670474187966 ], [ 78.979870118407433, 10.939400444429529 ], [ 78.980245658213661, 10.938832399024191 ], [ 78.980183761595626, 10.938329425223445 ], [ 78.979951547094714, 10.937648224665343 ], [ 78.9799373348486, 10.937204874574507 ], [ 78.980030867435943, 10.936838676703843 ], [ 78.980272938252199, 10.936392325719016 ], [ 78.98052282800468, 10.936190660657978 ], [ 78.980830852230781, 10.934514377648421 ], [ 78.981209890974995, 10.93205175630453 ], [ 78.981371110720715, 10.931365938970156 ], [ 78.981500947821999, 10.928307413983966 ], [ 78.981614348448517, 10.92673203380245 ], [ 78.982203023437364, 10.926238076769319 ], [ 78.983004305399433, 10.925343892165946 ], [ 78.983139447950776, 10.925193079428634 ], [ 78.983207100074821, 10.925081147561411 ], [ 78.982698399400775, 10.921667326176731 ], [ 78.983545239422497, 10.921793410842856 ], [ 78.984423963348576, 10.925752091602218 ], [ 78.986098323325194, 10.925886929580118 ], [ 78.986127851846902, 10.927599566437417 ], [ 78.98869679281097, 10.927999118922475 ], [ 78.988806041424283, 10.928016111141403 ], [ 78.988934027996038, 10.928049960626469 ], [ 78.989029436265767, 10.928075193603853 ], [ 78.990330818431332, 10.928419374623251 ], [ 78.990897499068765, 10.927967298090245 ], [ 78.992495742096381, 10.926927334401121 ], [ 78.993163064588316, 10.926506360379193 ], [ 78.994160490997785, 10.926150295303154 ], [ 78.99533939326426, 10.925611355411814 ], [ 78.998409757650236, 10.923792433000232 ], [ 78.99842891422368, 10.923771366406166 ], [ 78.998803178422193, 10.923600689364179 ], [ 79.00194696301466, 10.922154058946798 ], [ 79.0019469710995, 10.922137343353738 ], [ 79.001947947568226, 10.91999035603944 ], [ 79.002773628671733, 10.919657734217767 ], [ 79.003044671054198, 10.917348466689447 ], [ 79.003316911789256, 10.914858657073495 ], [ 79.003848022734687, 10.912296861872079 ], [ 79.00425233557948, 10.909555139979103 ], [ 79.004547196791677, 10.907011931405842 ], [ 79.005303030288616, 10.903910344835483 ], [ 79.005613140402772, 10.903506216265344 ], [ 79.006942931789226, 10.901283162791989 ], [ 79.006809627190947, 10.899368461899543 ], [ 79.006456531792097, 10.897560662898602 ], [ 79.006010597305291, 10.895986974823295 ], [ 79.005598653272187, 10.894792664304125 ], [ 79.005709553887257, 10.893596680890161 ], [ 79.006634247301378, 10.89338388078699 ], [ 79.008994445844607, 10.892864955230808 ], [ 79.010897375857056, 10.892115301089424 ], [ 79.01222393780003, 10.891577877630183 ], [ 79.01375627143527, 10.891121889253307 ], [ 79.015480646911939, 10.890774452308314 ], [ 79.016505177290114, 10.890639212028908 ], [ 79.018247646633256, 10.890775444711169 ], [ 79.018276975728952, 10.890775104206709 ], [ 79.018294164093589, 10.890774905726166 ], [ 79.018670701029791, 10.89077054091789 ], [ 79.019276219430196, 10.890763521762691 ], [ 79.01976150102476, 10.890757896382024 ], [ 79.021522419068901, 10.890500845395774 ], [ 79.023269662059448, 10.890117209203492 ], [ 79.024166222035504, 10.889733279646922 ], [ 79.025081192983308, 10.889037449399304 ], [ 79.026156146696664, 10.888567686008017 ], [ 79.027725107340984, 10.887908223851072 ], [ 79.029980111367777, 10.887176645647296 ], [ 79.031408015851241, 10.886835678180859 ], [ 79.031490784824896, 10.886815913664901 ], [ 79.032532339176015, 10.886567192049739 ], [ 79.034224560355398, 10.886481820369465 ], [ 79.035096555900026, 10.886482083249764 ], [ 79.035175955293042, 10.88648210706778 ], [ 79.036072249367763, 10.886482372594493 ], [ 79.038153043111507, 10.886916935424811 ], [ 79.039845116967214, 10.887283569725156 ], [ 79.041217121985497, 10.887424087642234 ], [ 79.041917152136932, 10.887359165234114 ], [ 79.041994639915018, 10.887351978390749 ], [ 79.043965787091807, 10.887456485326513 ], [ 79.04579974625338, 10.887511219814943 ], [ 79.047999523653147, 10.887773973800854 ], [ 79.049418072182931, 10.88812815382404 ], [ 79.049468900658326, 10.888140845225138 ], [ 79.049956841266152, 10.888262671004046 ], [ 79.051927842915873, 10.888905049708564 ], [ 79.053267693636855, 10.889583429784679 ], [ 79.055096824353782, 10.890614506037656 ], [ 79.055942737314112, 10.891324400877522 ], [ 79.0574745634012, 10.892509086267973 ], [ 79.059093207168928, 10.894041852374439 ], [ 79.060766738898849, 10.895624344602943 ], [ 79.060784441099855, 10.895641383661175 ], [ 79.062143066610261, 10.896949106415921 ], [ 79.063249607783987, 10.898079427662799 ], [ 79.064058832649792, 10.899354338429706 ], [ 79.064762860304285, 10.900660866373805 ], [ 79.065046240148845, 10.901442946315127 ], [ 79.06553979343056, 10.903133661007535 ], [ 79.065891615916655, 10.904611889805892 ], [ 79.066348522426338, 10.906582858046358 ], [ 79.066823778822368, 10.908341372240582 ], [ 79.067651207149112, 10.910185840751414 ], [ 79.068515236433768, 10.912034833435587 ], [ 79.069351945255718, 10.913391100216854 ], [ 79.070118525298355, 10.914790477894885 ], [ 79.070124614977672, 10.914801596319498 ], [ 79.070307689835943, 10.91506808555922 ], [ 79.071606087798145, 10.916958078569143 ], [ 79.073330050948087, 10.91889309892041 ], [ 79.073570185894923, 10.919192953384465 ], [ 79.074738465583152, 10.920651761659617 ], [ 79.07616526334219, 10.922080433945364 ], [ 79.077610438835293, 10.923161036078648 ], [ 79.078960954355338, 10.923924000391159 ], [ 79.07898707556717, 10.923938755996405 ], [ 79.080377491557201, 10.924445250587215 ], [ 79.081539220730406, 10.924897460380043 ], [ 79.082508808349161, 10.925525933197907 ], [ 79.083057069031682, 10.925965849354373 ], [ 79.083057403204961, 10.925966116609882 ], [ 79.083528680962587, 10.926344264418878 ], [ 79.08415945459889, 10.926721101050669 ], [ 79.084164412400938, 10.926724062904711 ], [ 79.084640091005141, 10.926882341237329 ], [ 79.085202681613055, 10.927022549372134 ], [ 79.086506293397193, 10.927076968749613 ], [ 79.087809894401516, 10.927199187836434 ], [ 79.089589220722431, 10.927212971284252 ], [ 79.091194739205548, 10.927181519937402 ], [ 79.092689737060965, 10.927121754607358 ], [ 79.092746359669945, 10.927119491323475 ], [ 79.093449789046417, 10.927091367858736 ], [ 79.09580547355533, 10.926956004739058 ], [ 79.097831825799588, 10.926797991936471 ], [ 79.100018276692111, 10.9265721730285 ], [ 79.101706199432897, 10.925925907439616 ], [ 79.102991593383024, 10.925284119409572 ], [ 79.103997922995248, 10.925003933406282 ], [ 79.104720640997499, 10.924881936570298 ], [ 79.106692072940277, 10.924832348577093 ], [ 79.108544568837715, 10.924882190596277 ], [ 79.109916784960063, 10.924954595049229 ], [ 79.11068977897385, 10.925230378869264 ], [ 79.111471910650693, 10.925632730586667 ], [ 79.113109354360688, 10.926591125198872 ], [ 79.114801712084002, 10.927377738430682 ], [ 79.116324837987563, 10.928123654709271 ], [ 79.117573545639843, 10.928544088402488 ], [ 79.117986626041798, 10.928659096343514 ], [ 79.11804012970012, 10.928673991955034 ], [ 79.118045394725982, 10.928675456995885 ], [ 79.119197334957533, 10.92899616934892 ], [ 79.120253942377872, 10.929308098185192 ], [ 79.122540976734427, 10.930040437098057 ], [ 79.123949789323149, 10.930614539400693 ], [ 79.1251481904212, 10.931346846864283 ], [ 79.127631922587341, 10.932617070760662 ], [ 79.130275765978112, 10.934235339914299 ], [ 79.13196820365151, 10.935392527133548 ], [ 79.134346791606887, 10.936680780297269 ], [ 79.135754847814155, 10.937407944849664 ], [ 79.13595850217726, 10.937513117732182 ], [ 79.135976243904096, 10.937522279918078 ], [ 79.137077619764938, 10.938091051951908 ], [ 79.137876658633772, 10.93851742056712 ], [ 79.139364766410935, 10.939311462057782 ], [ 79.141285981630972, 10.940319417289762 ], [ 79.141690089659846, 10.940407303047232 ], [ 79.142013299905827, 10.940477594876619 ], [ 79.142743093039257, 10.940582686409213 ], [ 79.142807609144668, 10.940591976388484 ], [ 79.14281083768978, 10.940592442078113 ], [ 79.143582293787787, 10.940703530203898 ], [ 79.144907476816812, 10.940781273874602 ], [ 79.146276572191894, 10.940861584107545 ], [ 79.149185856071043, 10.941277258186696 ], [ 79.150371330412156, 10.941504201895478 ], [ 79.152726419338038, 10.941955031835572 ], [ 79.153882424446223, 10.94205735165183 ], [ 79.154716265845764, 10.942131150737819 ], [ 79.155430447157897, 10.942175633565913 ], [ 79.156093147817728, 10.942216908614744 ], [ 79.156989717675245, 10.942216822180423 ], [ 79.158261370096511, 10.942058480590847 ], [ 79.159775474219686, 10.941850387955554 ], [ 79.162062626255533, 10.941764245427333 ], [ 79.16410733197938, 10.94150182141729 ], [ 79.165571075649424, 10.941049605186906 ], [ 79.166353694213157, 10.940972170281944 ], [ 79.166408778906387, 10.940966719603331 ], [ 79.167000477624441, 10.940908166255312 ], [ 79.167492272004836, 10.940859500853872 ], [ 79.170273432768283, 10.940615020086852 ], [ 79.171845476430661, 10.940439372147479 ], [ 79.174486323041648, 10.940144287784923 ], [ 79.176097823406266, 10.939966296119652 ], [ 79.178514448725707, 10.939699368837717 ], [ 79.178626009602553, 10.939687047428651 ], [ 79.180507933410368, 10.940304470225799 ], [ 79.180684842232509, 10.940362508611736 ], [ 79.180738070108063, 10.940379971986228 ], [ 79.182605848145116, 10.94099272939407 ], [ 79.183434123583169, 10.943103580792743 ], [ 79.183877928164435, 10.943700184421632 ], [ 79.184495519023969, 10.944034574110695 ], [ 79.186082960708617, 10.944870536098662 ], [ 79.187720743981799, 10.945792364580669 ], [ 79.189216685068232, 10.946452035159338 ], [ 79.190977928302487, 10.946994111379286 ], [ 79.19238691157112, 10.947341878567279 ], [ 79.194097815911817, 10.947721217111827 ], [ 79.196192892868567, 10.947933307985972 ], [ 79.198763634954787, 10.948140906858063 ], [ 79.201160616813922, 10.948556419908961 ], [ 79.202903506568603, 10.949008165179068 ], [ 79.203273616058951, 10.947548199883363 ], [ 79.203661964044457, 10.945893876067311 ], [ 79.204155104101133, 10.942761544155561 ], [ 79.204771970020246, 10.940478925796977 ], [ 79.204945711382706, 10.940216747605861 ], [ 79.205581486838511, 10.940148855607408 ], [ 79.206445984145432, 10.940148725954959 ], [ 79.208275637681851, 10.940252399365901 ], [ 79.210283718193239, 10.94047806762236 ], [ 79.211710888753089, 10.940685744040978 ], [ 79.212996377026357, 10.941259545263019 ], [ 79.214423752402126, 10.942099987617645 ], [ 79.216363534900808, 10.943265760200866 ], [ 79.218143234920873, 10.944413469727953 ], [ 79.219305365640977, 10.945335296986119 ], [ 79.220096880220979, 10.945909163290606 ], [ 79.220837974160702, 10.946153089339628 ], [ 79.221981577128105, 10.946347212945504 ], [ 79.222196597874515, 10.946451126729716 ], [ 79.222654184408867, 10.946957257424614 ], [ 79.22342752696899, 10.947861067897739 ], [ 79.224759033239295, 10.949261288423369 ], [ 79.224768249055828, 10.949270980305267 ], [ 79.226305769563496, 10.950947515870954 ], [ 79.227628199256174, 10.952289623146587 ], [ 79.229179483750642, 10.953993258878455 ], [ 79.23125697888068, 10.956099032009217 ], [ 79.233073642778066, 10.957874902881304 ], [ 79.23455624208593, 10.959235018676059 ], [ 79.235787190045016, 10.960400836687475 ], [ 79.236423650017088, 10.961158906570374 ], [ 79.236519426596047, 10.96127298464857 ], [ 79.236520417437774, 10.961274266969518 ], [ 79.237732250145967, 10.962841065839319 ], [ 79.23880310664336, 10.963970752440986 ], [ 79.239663394444847, 10.964716303195384 ], [ 79.241109266132312, 10.965588252348148 ], [ 79.24274729464554, 10.966509860209733 ], [ 79.243223216693195, 10.966943637390514 ], [ 79.243420125606832, 10.96744980535682 ], [ 79.243685653231779, 10.967955954818441 ], [ 79.244106584909304, 10.968145672232087 ], [ 79.245275421553018, 10.96851997136285 ], [ 79.245305260891811, 10.968529525918701 ], [ 79.246151605941819, 10.968682963189062 ], [ 79.247011802115154, 10.969134703308146 ], [ 79.248101617556586, 10.970385516789221 ], [ 79.24812076604519, 10.970407492834058 ], [ 79.248124051184178, 10.970411263834645 ], [ 79.248134983681183, 10.970423810612907 ], [ 79.248763786413761, 10.971145496839526 ], [ 79.257193648006862, 10.976859582395999 ], [ 79.260182413924028, 10.97896740618957 ], [ 79.263659599251085, 10.982229429668067 ], [ 79.265033181710976, 10.983603029026698 ], [ 79.266522385432808, 10.984574281268142 ], [ 79.267745768678893, 10.985464255118302 ], [ 79.267745855815477, 10.985464318611816 ], [ 79.267747811447862, 10.985465996780276 ], [ 79.268889680666732, 10.986446109905959 ], [ 79.269970043136439, 10.987616514641219 ], [ 79.270909191341829, 10.988907119778958 ], [ 79.273885875816717, 10.992363174417276 ], [ 79.274667749677079, 10.993296430604568 ], [ 79.274892950132298, 10.993875079438991 ], [ 79.274764355401075, 10.994150475395385 ], [ 79.273456211616335, 10.996352057972688 ], [ 79.273351983687178, 10.99680331308357 ], [ 79.273324973143232, 10.997079287424263 ], [ 79.273603459864432, 10.997231492947346 ], [ 79.275502230677105, 10.998271531349303 ], [ 79.277731620141907, 10.999238133115314 ], [ 79.278846174287963, 10.999746529605906 ], [ 79.279503873128277, 11.000202120672141 ], [ 79.280185802226768, 11.000858669885398 ], [ 79.280629002241866, 11.001425703714759 ], [ 79.281129429432127, 11.002916729692556 ], [ 79.280543490711636, 11.003829624355076 ], [ 79.281366822720699, 11.004431091950794 ], [ 79.282889941437745, 11.005710825047014 ], [ 79.284829209201746, 11.007632560098838 ], [ 79.285217974005562, 11.00803950667901 ], [ 79.285249249750478, 11.008070983815093 ], [ 79.287500300291711, 11.010336514890133 ], [ 79.28935262101767, 11.012497765916475 ], [ 79.290596686176571, 11.013881339912485 ], [ 79.291017452564063, 11.014419377319985 ], [ 79.29223904636612, 11.014523708036469 ], [ 79.293167783995642, 11.014731914366998 ], [ 79.294096498268971, 11.0150260010168 ], [ 79.295880757239118, 11.015505660897025 ], [ 79.297509470222877, 11.01594006527753 ], [ 79.297719913154623, 11.016026008057528 ], [ 79.298346718932308, 11.016112067205054 ], [ 79.298680693690301, 11.016216123975299 ], [ 79.299135999402196, 11.01631271042233 ], [ 79.299185221689854, 11.016323152246146 ], [ 79.303246682057477, 11.017184681675561 ], [ 79.304330892011549, 11.017808757587794 ], [ 79.304802084429213, 11.01809817314418 ], [ 79.305538591571079, 11.018622709347365 ], [ 79.306032614671707, 11.019106501434614 ], [ 79.30685604100384, 11.0197078999088 ], [ 79.308712905408512, 11.020810051307155 ], [ 79.308814045828058, 11.02087008425832 ], [ 79.308817738802162, 11.020866076712693 ], [ 79.311825483426361, 11.017602659071994 ], [ 79.315979417267627, 11.020049050322269 ], [ 79.318340050595438, 11.021450834798188 ], [ 79.32253987936457, 11.023734417023931 ], [ 79.324305838754071, 11.024702092924937 ], [ 79.325957422844937, 11.025660697009389 ], [ 79.326762624156629, 11.026162592712767 ], [ 79.328510311813233, 11.027116680226294 ], [ 79.330244269619044, 11.028152119784279 ], [ 79.331781488292805, 11.029192036613107 ], [ 79.332550101222935, 11.029707472179068 ], [ 79.333373622776492, 11.030245515908808 ], [ 79.334174258849885, 11.030837795797696 ], [ 79.334668353815715, 11.031285378600728 ], [ 79.33488997987439, 11.031553981211001 ], [ 79.334910816297423, 11.031579233561066 ], [ 79.334974867973798, 11.031619924756074 ], [ 79.336223810086352, 11.032944549247444 ], [ 79.338232190635068, 11.035177849362523 ], [ 79.341283691298429, 11.038676948296571 ], [ 79.341947068389644, 11.03945451919707 ], [ 79.342596742579531, 11.040078397947685 ], [ 79.343328789586039, 11.040648043576708 ], [ 79.344326224978587, 11.041303606739163 ], [ 79.344834104592451, 11.041547763376453 ], [ 79.345502143041713, 11.041773857602157 ], [ 79.346673508442947, 11.042099455058731 ], [ 79.348490030406523, 11.042705376248877 ], [ 79.348998797555907, 11.042872969093596 ], [ 79.349064875831573, 11.04289473606285 ], [ 79.350013719553786, 11.043207289566766 ], [ 79.350626840396473, 11.043568974365991 ], [ 79.350782399857579, 11.043745280357077 ], [ 79.351047758599236, 11.044106926581289 ], [ 79.351743228902308, 11.044658467096104 ], [ 79.352237384953597, 11.044988494419583 ], [ 79.352690383791781, 11.045092504818614 ], [ 79.353440772599768, 11.045594325005966 ], [ 79.354182020151399, 11.046032857875451 ], [ 79.354831741053687, 11.046570826735293 ], [ 79.355545520818893, 11.047190163873418 ], [ 79.356913600199391, 11.04845143043288 ], [ 79.358030053383942, 11.049247083921363 ], [ 79.35836408293919, 11.049387236572729 ], [ 79.359201455616088, 11.049644957025421 ], [ 79.361004434578447, 11.050097905162735 ], [ 79.361091274716969, 11.050119720969114 ], [ 79.36109492187704, 11.050120524161763 ], [ 79.361686136403179, 11.050250849413356 ], [ 79.362807208724945, 11.050684865639628 ], [ 79.36345238594852, 11.051132411138394 ], [ 79.364189062871972, 11.051928018563437 ], [ 79.364870847341678, 11.052484047863404 ], [ 79.365543497741612, 11.052768861422056 ], [ 79.367538606580283, 11.052976896945413 ], [ 79.369359830326061, 11.053252715422007 ], [ 79.371807958664206, 11.053722915398442 ], [ 79.37216030127486, 11.053944419196162 ], [ 79.372631618558358, 11.054206608246226 ], [ 79.373555951748031, 11.054776186777479 ], [ 79.3744848618541, 11.055400005625476 ], [ 79.374738506564455, 11.055596879433397 ], [ 79.374741112577098, 11.05559890192462 ], [ 79.378516294236704, 11.057619520640822 ], [ 79.379339975690399, 11.058103195599843 ], [ 79.381051413630345, 11.058953013417851 ], [ 79.381925442062439, 11.058812887378531 ], [ 79.382538633872031, 11.058830967934037 ], [ 79.382872685885161, 11.058953015181112 ], [ 79.383746715215551, 11.059314630314779 ], [ 79.384588714216207, 11.059730487387423 ], [ 79.385494781961242, 11.060164422580096 ], [ 79.387192519694779, 11.060905718378796 ], [ 79.388803321170073, 11.061737412431707 ], [ 79.390560567799639, 11.062573613626 ], [ 79.391292757638269, 11.062917130766019 ], [ 79.392240024817184, 11.06321091614503 ], [ 79.393429837122767, 11.063730702712098 ], [ 79.394880502220587, 11.064440322677498 ], [ 79.396401367064598, 11.065268635403418 ], [ 79.396482194778898, 11.065312657075484 ], [ 79.396483521590582, 11.065313493727874 ], [ 79.398129668179052, 11.066352229764849 ], [ 79.398916802573737, 11.066939818906185 ], [ 79.398948867039465, 11.067491285620644 ], [ 79.399054146895836, 11.067974946049747 ], [ 79.399177714654741, 11.068151227669807 ], [ 79.399406534422226, 11.068322983901872 ], [ 79.399667390807679, 11.068548979904199 ], [ 79.400472840952702, 11.06915464543893 ], [ 79.401941873903098, 11.070153524819007 ], [ 79.402642074734487, 11.070691386825111 ], [ 79.403397204850506, 11.071382930424713 ], [ 79.4040058961005, 11.072056402350407 ], [ 79.405918939346392, 11.074117486198206 ], [ 79.407108899874061, 11.075586466815214 ], [ 79.40833547303771, 11.076951473621362 ], [ 79.410276037070645, 11.079012525645053 ], [ 79.412184568078885, 11.08082495578355 ], [ 79.413058734851532, 11.081534544015502 ], [ 79.413438625198665, 11.081991047568765 ], [ 79.412843760817537, 11.082664623791551 ], [ 79.413562380705471, 11.083803647907725 ], [ 79.413965191567087, 11.084585605608867 ], [ 79.414628972001879, 11.086348425415101 ], [ 79.415700158180954, 11.088888676969031 ], [ 79.416533278233331, 11.090547506580567 ], [ 79.416968143679242, 11.091329457705429 ], [ 79.417407582448234, 11.092070723941282 ], [ 79.41777377618223, 11.092640229691876 ], [ 79.418071279339699, 11.092848124931411 ], [ 79.419211019551383, 11.094213096128628 ], [ 79.420538384588227, 11.095356548103505 ], [ 79.422428756152982, 11.096997144680905 ], [ 79.422602714009443, 11.097327098035496 ], [ 79.422744616383312, 11.097516929406163 ], [ 79.422831611032052, 11.097792650379903 ], [ 79.422918614663971, 11.098127135590451 ], [ 79.423024010402983, 11.099080888345204 ], [ 79.422970916376414, 11.099965631604102 ], [ 79.422969215865592, 11.099993981855544 ], [ 79.42297269683732, 11.100040833238282 ], [ 79.423074676283306, 11.101413318280535 ], [ 79.423161687101739, 11.10179300467623 ], [ 79.423637914576574, 11.103555827336056 ], [ 79.423880607026973, 11.104437237318928 ], [ 79.424539938106179, 11.106358240837016 ], [ 79.425135153728604, 11.107949274867037 ], [ 79.425762433816772, 11.109680430167009 ], [ 79.426517886427987, 11.111479368605313 ], [ 79.426921333296818, 11.112245345154358 ], [ 79.426934501700558, 11.112270344615176 ], [ 79.426956381965937, 11.112306410086477 ], [ 79.427460977339138, 11.113138149223699 ], [ 79.427827257311421, 11.11396529442233 ], [ 79.428330980420441, 11.115633178756262 ], [ 79.429384079021261, 11.118141738437508 ], [ 79.429768688218587, 11.119023120219712 ], [ 79.43020821771745, 11.1198683307945 ], [ 79.430255058571305, 11.119947269935547 ], [ 79.430258812630882, 11.119953596983104 ], [ 79.430265246364925, 11.119964440579752 ], [ 79.430661468083926, 11.120632175122028 ], [ 79.431114729230231, 11.121459301705981 ], [ 79.431535901656247, 11.121960977665026 ], [ 79.432236318083255, 11.122720258574171 ], [ 79.432982492894226, 11.123389125622685 ], [ 79.433664590875978, 11.124048962571463 ], [ 79.434291779335993, 11.124781128616995 ], [ 79.434886931178028, 11.125508780766665 ], [ 79.435560331671212, 11.126342362328213 ], [ 79.435610318425191, 11.126404236986309 ], [ 79.436058932586505, 11.126959561410386 ], [ 79.436599171313546, 11.127705299397906 ], [ 79.437107368032713, 11.128428442810016 ], [ 79.43759704957553, 11.128048653587459 ], [ 79.439295506859651, 11.1297931400105 ], [ 79.439647901572556, 11.129553502045933 ], [ 79.44206967064531, 11.131772454778904 ], [ 79.443420228386188, 11.133137287911042 ], [ 79.444660948218967, 11.134520217840292 ], [ 79.445216585866575, 11.135251516703049 ], [ 79.4452274303287, 11.135265789271614 ], [ 79.445237843599458, 11.135279494215606 ], [ 79.44555378557645, 11.135799252131372 ], [ 79.445677442268604, 11.136124681421014 ], [ 79.446062120636171, 11.136992480210688 ], [ 79.446341513757517, 11.137810579792026 ], [ 79.446639245985423, 11.138759759633068 ], [ 79.446849920682482, 11.139297620401223 ], [ 79.447005603212787, 11.139541677569884 ], [ 79.447550472755111, 11.140300954947062 ], [ 79.447935064884433, 11.140730292108165 ], [ 79.448127351965965, 11.140906537731331 ], [ 79.449596955346593, 11.142113108395138 ], [ 79.45063163489084, 11.142962673839822 ], [ 79.452417156892281, 11.144413249395118 ], [ 79.45323668273943, 11.145127249351072 ], [ 79.454477452877853, 11.146320287578016 ], [ 79.455860164916004, 11.147635332853069 ], [ 79.457155938899263, 11.149036277652398 ], [ 79.45866232020596, 11.150554685663923 ] ] ] } }
]
}
