{
"type": "FeatureCollection",
"name": "chennai_boundary",
"crs": { "type": "name", "properties": { "name": "urn:ogc:def:crs:OGC:1.3:CRS84" } },
"features": [
{ "type": "Feature", "properties": { "dtname": "Chennai", "stname": "TAMIL NADU", "stcode11": "33", "dtcode11": "603", "year_stat": "2011_c", "objectid": 670, "test": -1, "dist_lgd": 568, "state_lgd": 33, "remarks": " ", "dist": "Chennai", "st_area(shape)": 354615466.95070106, "st_length(shape)": 133494.09698320506 }, "geometry": { "type": "Polygon", "coordinates": [ [ [ 80.331881925391869, 13.235440511575504 ], [ 80.331362921939828, 13.23538516739095 ], [ 80.330758580332457, 13.235208757609435 ], [ 80.330126549953079, 13.235095658250037 ], [ 80.329540639978674, 13.235045791574416 ], [ 80.328927166098097, 13.234760928015982 ], [ 80.328359795554533, 13.234412887205607 ], [ 80.327331166163731, 13.233721184263054 ], [ 80.32620570018193, 13.232988734651707 ], [ 80.325057075632088, 13.232355733994863 ], [ 80.324462022604735, 13.232107057932254 ], [ 80.323068909872219, 13.231537295627533 ], [ 80.321394377419097, 13.231021699268046 ], [ 80.320794771729894, 13.230759425576196 ], [ 80.320135129833588, 13.230533259402019 ], [ 80.319590820840006, 13.230261979868486 ], [ 80.318926507704234, 13.230053939311507 ], [ 80.318331505880877, 13.229859428435772 ], [ 80.317687368906391, 13.229623726155189 ], [ 80.317676466952122, 13.229619736801888 ], [ 80.317675376397332, 13.229567898813769 ], [ 80.317662773033931, 13.228968881068131 ], [ 80.317593927947172, 13.227698887955333 ], [ 80.317575660705856, 13.227030013598375 ], [ 80.317465097857337, 13.226446972597373 ], [ 80.316773334901413, 13.225343993990116 ], [ 80.315998618817233, 13.224403755410169 ], [ 80.315228476056177, 13.223436413423551 ], [ 80.314794969761309, 13.22290300912727 ], [ 80.313697538402906, 13.221203316081784 ], [ 80.312673847949512, 13.219544421988447 ], [ 80.311285898733274, 13.217523774246898 ], [ 80.310861616339736, 13.216922571220238 ], [ 80.310207630236505, 13.2160767460751 ], [ 80.310116049688219, 13.216029973945462 ], [ 80.310110987681611, 13.216027388854316 ], [ 80.305824691574784, 13.213838282570569 ], [ 80.303347486567517, 13.21284742966859 ], [ 80.300749900125652, 13.212666676378539 ], [ 80.298742294823015, 13.21266118079777 ], [ 80.297351818645893, 13.213262480028945 ], [ 80.296613944268145, 13.213581567288394 ], [ 80.294779318556635, 13.215023748763187 ], [ 80.293001719696008, 13.21716074405256 ], [ 80.290576729264629, 13.218543370937031 ], [ 80.288155741726158, 13.218536643297874 ], [ 80.286147083598053, 13.218878378798752 ], [ 80.284668002991154, 13.219858362413001 ], [ 80.28389614624453, 13.221303430249424 ], [ 80.28377297913427, 13.223039758829584 ], [ 80.283768248605952, 13.224660641196945 ], [ 80.28380004986532, 13.225428308802069 ], [ 80.283823410554277, 13.225992244684711 ], [ 80.28427230858324, 13.228339097672482 ], [ 80.284288719006852, 13.228424890192352 ], [ 80.282808049280234, 13.229925855204515 ], [ 80.280739561557581, 13.23049893202603 ], [ 80.277728118569357, 13.23043254913706 ], [ 80.275310270642791, 13.229325812578676 ], [ 80.273130876915133, 13.227467175597445 ], [ 80.271129526581859, 13.22531958434992 ], [ 80.270757470442319, 13.224248380627635 ], [ 80.270697781883271, 13.224076531144123 ], [ 80.270485485727121, 13.223465300675572 ], [ 80.270562868402322, 13.222988898006015 ], [ 80.270786238090992, 13.221613711236676 ], [ 80.271735659429922, 13.220053413843875 ], [ 80.272682741555869, 13.218058348167393 ], [ 80.272397465367717, 13.216377703434542 ], [ 80.27165470325653, 13.212001885116388 ], [ 80.270807184108449, 13.206328360890023 ], [ 80.270794524151157, 13.206243610943559 ], [ 80.271318283284316, 13.204374863038383 ], [ 80.271324275945574, 13.204353480794278 ], [ 80.271318251843269, 13.204346668805666 ], [ 80.270872455697017, 13.203842572376876 ], [ 80.270439103912381, 13.203268382576571 ], [ 80.269761062722438, 13.203268103589027 ], [ 80.269147510688455, 13.203236169570587 ], [ 80.26848323528192, 13.203276541431633 ], [ 80.267210140166327, 13.203294110649159 ], [ 80.266559750019141, 13.203293764319845 ], [ 80.26529579436324, 13.203351982623106 ], [ 80.263893372389475, 13.203590838616716 ], [ 80.261974301447992, 13.203892773394935 ], [ 80.261337730983144, 13.204014516571112 ], [ 80.260156677251572, 13.204248953611382 ], [ 80.2594739917716, 13.204339061837082 ], [ 80.258376021424027, 13.204546424673136 ], [ 80.257665560933788, 13.20477202985847 ], [ 80.256982828741471, 13.204839565408776 ], [ 80.256516607600574, 13.205472015664336 ], [ 80.256041275746085, 13.205878596210399 ], [ 80.255344777770347, 13.20585562939554 ], [ 80.254067003330434, 13.205805314213659 ], [ 80.252766220341115, 13.205714255881963 ], [ 80.251612991027159, 13.205804054847219 ], [ 80.249989122657695, 13.206092452214277 ], [ 80.249887995712925, 13.205446138271192 ], [ 80.249666858337733, 13.204813259412481 ], [ 80.249058093425887, 13.204718078016587 ], [ 80.248998744430025, 13.203434450949343 ], [ 80.24901753808409, 13.202824359065071 ], [ 80.249041314693031, 13.201585990931887 ], [ 80.248968176557511, 13.200347613021767 ], [ 80.248881457691581, 13.198648258787157 ], [ 80.248842242636158, 13.198647037865609 ], [ 80.248581564117131, 13.198638922585204 ], [ 80.243811852216581, 13.198918774975024 ], [ 80.238549001157651, 13.199476941276577 ], [ 80.238849742741721, 13.201564836707712 ], [ 80.238725474296913, 13.202193103615818 ], [ 80.238453581209868, 13.202789796903271 ], [ 80.238084727564299, 13.203178630780164 ], [ 80.237448319694522, 13.20353593760742 ], [ 80.236779578762736, 13.203802867904164 ], [ 80.235893947690428, 13.203861986015466 ], [ 80.236398119957144, 13.201974169045831 ], [ 80.23624193257362, 13.199166375894443 ], [ 80.235886656065261, 13.197710208779938 ], [ 80.235410172570582, 13.19666522486164 ], [ 80.23454867922996, 13.196325645625391 ], [ 80.233503484905327, 13.196347717752239 ], [ 80.231823921886601, 13.19651066415882 ], [ 80.2304174862401, 13.196993575619596 ], [ 80.227055893428869, 13.198100503432608 ], [ 80.222751305826236, 13.199762080427213 ], [ 80.222386744331132, 13.199359983306611 ], [ 80.222266421287017, 13.198365740347374 ], [ 80.222672049265356, 13.197646985607101 ], [ 80.222754344826839, 13.19580751899578 ], [ 80.222157358624997, 13.19084985731039 ], [ 80.222443018393776, 13.19005431714521 ], [ 80.222935602393321, 13.187658794927961 ], [ 80.223751091211597, 13.185380653023111 ], [ 80.223949935994668, 13.184308804403035 ], [ 80.223958199596964, 13.184264257389668 ], [ 80.222095980334885, 13.182198361052047 ], [ 80.221485361300296, 13.180623101993266 ], [ 80.219547741944865, 13.178931719587689 ], [ 80.218266974318425, 13.176029121732924 ], [ 80.21744085393874, 13.174255384250852 ], [ 80.215928090101954, 13.172259741689343 ], [ 80.215897154818521, 13.172272023071232 ], [ 80.214184910191463, 13.172951802414314 ], [ 80.214167631096956, 13.172964682040892 ], [ 80.211800976361815, 13.174728743641992 ], [ 80.211768955015188, 13.174744132606637 ], [ 80.210643480948534, 13.175285009402408 ], [ 80.209490592994356, 13.175841268650563 ], [ 80.209246175778603, 13.175945291926769 ], [ 80.209241529691937, 13.175949827949037 ], [ 80.209199309771932, 13.175968134725222 ], [ 80.207249329598142, 13.176813644768266 ], [ 80.207234150764791, 13.176824818597392 ], [ 80.205787561323433, 13.177889726343748 ], [ 80.203938539211208, 13.179630281989919 ], [ 80.202905630246377, 13.180502844567767 ], [ 80.201840424152124, 13.181370892602079 ], [ 80.201827750720113, 13.18137009229965 ], [ 80.199561870790163, 13.18122688622886 ], [ 80.199100489772036, 13.180707262563825 ], [ 80.198818973931679, 13.180115276975567 ], [ 80.1987127167083, 13.179487088895232 ], [ 80.198818579571252, 13.178682582394954 ], [ 80.199496079077079, 13.176838428364315 ], [ 80.199606657196966, 13.17642260066151 ], [ 80.199389744598591, 13.175934548393602 ], [ 80.199145159397872, 13.175446503024469 ], [ 80.198752982792598, 13.174958496042343 ], [ 80.198466946629708, 13.174678359077022 ], [ 80.197544411867213, 13.174362231643961 ], [ 80.19750624065415, 13.174386142565192 ], [ 80.197046372398958, 13.174674208761282 ], [ 80.197038640599317, 13.174675819905987 ], [ 80.196373021313121, 13.174814486770074 ], [ 80.196354215980989, 13.174832532104602 ], [ 80.1961563009542, 13.175022441436072 ], [ 80.195732064374766, 13.175370553785772 ], [ 80.195718340812164, 13.175370557284445 ], [ 80.195054061812385, 13.175370722596867 ], [ 80.194666578006149, 13.175162920419281 ], [ 80.194417391634573, 13.17467487176218 ], [ 80.194311191903338, 13.174218423195656 ], [ 80.194274141787758, 13.173626372054041 ], [ 80.194204887967572, 13.173350697036456 ], [ 80.193637521915605, 13.173102260901457 ], [ 80.193485662615103, 13.173108188587472 ], [ 80.192769174429344, 13.173136159006708 ], [ 80.192483811104623, 13.173147298891312 ], [ 80.191940010557488, 13.171104786972631 ], [ 80.190800173327759, 13.168718779563585 ], [ 80.190827712081116, 13.168217107814703 ], [ 80.191361642838231, 13.167545217338301 ], [ 80.191413248356341, 13.167480277210446 ], [ 80.192451190581693, 13.166866056267581 ], [ 80.192460020122624, 13.166860830813956 ], [ 80.192879310578121, 13.166430155611883 ], [ 80.192944149178686, 13.166363556755108 ], [ 80.19327288586031, 13.166080635400926 ], [ 80.193359135805665, 13.166006404671162 ], [ 80.193432775201089, 13.16545500480386 ], [ 80.193884449922592, 13.16436568234894 ], [ 80.193930463428046, 13.163986030697448 ], [ 80.193907336301066, 13.163746502734845 ], [ 80.192620107092765, 13.16200231430904 ], [ 80.192477012654564, 13.161550400279006 ], [ 80.192402888168857, 13.160334671825556 ], [ 80.192647183213751, 13.159832941794523 ], [ 80.193038948390623, 13.158928935202086 ], [ 80.193135740065884, 13.158716492635383 ], [ 80.193061857226994, 13.158382068000344 ], [ 80.192674324911749, 13.157903102353492 ], [ 80.193139871417856, 13.15697647937858 ], [ 80.193761114827325, 13.155858223118727 ], [ 80.193776110404372, 13.155831231308701 ], [ 80.193812865872502, 13.155765069564792 ], [ 80.194481255563048, 13.154598852618186 ], [ 80.194679487695097, 13.154323109826262 ], [ 80.194591768105937, 13.153984170760099 ], [ 80.194490254885565, 13.153798897891757 ], [ 80.191081458301099, 13.151336662044757 ], [ 80.188770602419837, 13.149954275394146 ], [ 80.18785733288118, 13.149394081299143 ], [ 80.186708793671286, 13.148531131789504 ], [ 80.185910857933663, 13.148092929380846 ], [ 80.185338971559148, 13.147961997826934 ], [ 80.184504154589192, 13.147555437393821 ], [ 80.183374218590529, 13.14726644704986 ], [ 80.18224895832293, 13.147244103693017 ], [ 80.18143732507383, 13.147352750892685 ], [ 80.179961682319544, 13.14780954342948 ], [ 80.178476998920246, 13.149129555858558 ], [ 80.178232500856112, 13.148777084890208 ], [ 80.178144703113489, 13.147968108072641 ], [ 80.177992470113864, 13.147751202567107 ], [ 80.177111536332191, 13.147290392981734 ], [ 80.17630452042367, 13.1474397002844 ], [ 80.175967845329907, 13.147340337921277 ], [ 80.175834072709364, 13.147177660580665 ], [ 80.175626408266822, 13.146508812618698 ], [ 80.175736963030502, 13.145898656684022 ], [ 80.175985855653053, 13.145229718632041 ], [ 80.176488371426345, 13.144488417036182 ], [ 80.177728463336706, 13.142427264263091 ], [ 80.177751477275976, 13.142219362417837 ], [ 80.177442173848945, 13.140687307766479 ], [ 80.177132974626446, 13.139629802719616 ], [ 80.175452943585469, 13.138832827732355 ], [ 80.175325476239891, 13.13885689958356 ], [ 80.175320864289219, 13.138856901333144 ], [ 80.175280246963666, 13.138878810678543 ], [ 80.171507424279966, 13.140913928832314 ], [ 80.170718837309508, 13.140909531253472 ], [ 80.169663098560051, 13.142970610171309 ], [ 80.168219533746253, 13.142197979117849 ], [ 80.167956496251279, 13.141036489769082 ], [ 80.167435156281186, 13.139490875379449 ], [ 80.165862076861302, 13.135748896753057 ], [ 80.164414111200912, 13.1361332513522 ], [ 80.161652346861089, 13.140513047250767 ], [ 80.158101575139213, 13.142054615432917 ], [ 80.155472978853751, 13.142439040638543 ], [ 80.15428777400723, 13.142308081573187 ], [ 80.151004127114888, 13.140369467382248 ], [ 80.148772034619441, 13.139334652339651 ], [ 80.145779117587324, 13.139411672999833 ], [ 80.147092850689759, 13.134658154614618 ], [ 80.147982470281946, 13.130454919084032 ], [ 80.147101517635619, 13.128475443062523 ], [ 80.144080816610099, 13.125013728572917 ], [ 80.143811622062159, 13.122476543642904 ], [ 80.143333262885164, 13.117967838128536 ], [ 80.142078832066218, 13.115120620735945 ], [ 80.141954162074441, 13.112648444090887 ], [ 80.140211748426893, 13.107010702390383 ], [ 80.140196998988202, 13.106962982028989 ], [ 80.14043438778522, 13.098617252566806 ], [ 80.140436241009624, 13.098552112220718 ], [ 80.141871521559892, 13.098201420960748 ], [ 80.141879394395048, 13.098199497834072 ], [ 80.143248392752042, 13.096750202377955 ], [ 80.143322456152276, 13.096671794681756 ], [ 80.14488531184594, 13.094316999062942 ], [ 80.144290410633843, 13.092784920637293 ], [ 80.144170404695075, 13.091135297252462 ], [ 80.144476873039068, 13.090830986350158 ], [ 80.144530006591495, 13.09077822739925 ], [ 80.145406763207106, 13.089922770119292 ], [ 80.145493553938309, 13.089838087564381 ], [ 80.146076405149159, 13.088245780972384 ], [ 80.146097405963872, 13.088188406826413 ], [ 80.147180854146569, 13.087718283418118 ], [ 80.150786286556823, 13.087252434278914 ], [ 80.152468978407683, 13.085724653619089 ], [ 80.154995275446922, 13.083369692131599 ], [ 80.160283344910795, 13.082080951833193 ], [ 80.161282904819018, 13.08121343743526 ], [ 80.161366670922632, 13.081140735949749 ], [ 80.163403300792069, 13.07342557925783 ], [ 80.162370270554703, 13.071328662427733 ], [ 80.162789587959651, 13.069895904838463 ], [ 80.162992245192811, 13.068625882321653 ], [ 80.162489374584965, 13.066284830263065 ], [ 80.162200803376336, 13.064508898879003 ], [ 80.162180207701823, 13.064382145905759 ], [ 80.160838637605366, 13.064287424595825 ], [ 80.160201634152557, 13.058633556726738 ], [ 80.15978171757132, 13.055768218437466 ], [ 80.159394182561115, 13.0536440803762 ], [ 80.158988313834286, 13.052238553275588 ], [ 80.159131062421139, 13.05108152970697 ], [ 80.159075528570284, 13.049513251410568 ], [ 80.159388888789152, 13.048713248305347 ], [ 80.160006428444717, 13.047416053668121 ], [ 80.160375038646805, 13.046177645981381 ], [ 80.160319537135294, 13.04488054043181 ], [ 80.159816879428163, 13.043529261433745 ], [ 80.158779428581269, 13.041680900599163 ], [ 80.157963454672739, 13.041292324854435 ], [ 80.157933415009637, 13.041288006010555 ], [ 80.156612779252569, 13.041098152710038 ], [ 80.154169599733294, 13.040876982125777 ], [ 80.152851190899838, 13.040624032970726 ], [ 80.150993498248468, 13.040841164976639 ], [ 80.149251019023851, 13.040787100123502 ], [ 80.147960266623045, 13.040452770818835 ], [ 80.1468078224366, 13.040258529753803 ], [ 80.145715286896504, 13.039860899215842 ], [ 80.145722722252103, 13.039981693615319 ], [ 80.145987635429378, 13.044285523687082 ], [ 80.14729233327671, 13.045736190580071 ], [ 80.14950522967284, 13.047629683593492 ], [ 80.149514573050126, 13.04887708022868 ], [ 80.153359274431267, 13.049491344616598 ], [ 80.152962911676752, 13.050273270602382 ], [ 80.152912016726034, 13.050288048649964 ], [ 80.150860864691722, 13.05088363027282 ], [ 80.149441001926675, 13.050766261136927 ], [ 80.149436614554816, 13.050859481563906 ], [ 80.149316793668973, 13.053405691116396 ], [ 80.150174230217772, 13.053270023019373 ], [ 80.151635594250621, 13.053355747245215 ], [ 80.152645249426001, 13.054020015132769 ], [ 80.152811234734301, 13.054268573334111 ], [ 80.152838936981041, 13.054652731315166 ], [ 80.152640800070401, 13.055479830903829 ], [ 80.152825287080319, 13.05625717433419 ], [ 80.153443119586626, 13.057057067260443 ], [ 80.153862751401931, 13.058078439396844 ], [ 80.153720194156236, 13.061138190968528 ], [ 80.154056933030361, 13.062855581714068 ], [ 80.153950702756447, 13.062845254145865 ], [ 80.15340689771773, 13.062792380700218 ], [ 80.151609016694636, 13.063425308931597 ], [ 80.149188781944346, 13.064333977133671 ], [ 80.148488046615412, 13.064410874251898 ], [ 80.146805051133953, 13.06114338891631 ], [ 80.146652748065762, 13.059199994623674 ], [ 80.146514378765914, 13.058427162765373 ], [ 80.14569827909321, 13.056976453970064 ], [ 80.146149931356817, 13.055457847630331 ], [ 80.146286548941859, 13.054100020317884 ], [ 80.146292718571232, 13.054038696779841 ], [ 80.144291976397398, 13.053803837184562 ], [ 80.144191770225774, 13.053791999688009 ], [ 80.142341947714627, 13.053573479766886 ], [ 80.141664125713618, 13.051236915244854 ], [ 80.140589872686164, 13.048954607867778 ], [ 80.137413646335503, 13.048448591054814 ], [ 80.135482110371157, 13.048335688254154 ], [ 80.134389066384571, 13.044652181380609 ], [ 80.135797848430585, 13.044966411088685 ], [ 80.137466578665297, 13.045377679340087 ], [ 80.138937122582035, 13.045630772405579 ], [ 80.139905247743528, 13.045694026816184 ], [ 80.139688513909846, 13.045029642040651 ], [ 80.139637855216037, 13.044717804152887 ], [ 80.139375076435869, 13.043741595138584 ], [ 80.139098380955318, 13.042629713585741 ], [ 80.138826412409784, 13.041432041819602 ], [ 80.140029595240065, 13.041468138054489 ], [ 80.140195460174155, 13.041373298568526 ], [ 80.140554988408738, 13.040478361913737 ], [ 80.140587281046564, 13.040446733168359 ], [ 80.141467794416712, 13.040478316406031 ], [ 80.14137088775712, 13.039136015184905 ], [ 80.141776513040512, 13.038991333925834 ], [ 80.142186840106092, 13.038846760226123 ], [ 80.141970085611192, 13.038295307376824 ], [ 80.143158462408962, 13.03801743898153 ], [ 80.143284610129356, 13.037987942679978 ], [ 80.143767895667395, 13.037874937086309 ], [ 80.145579455337355, 13.037477112807927 ], [ 80.145644010070271, 13.037477145188811 ], [ 80.146404414195359, 13.034584562742639 ], [ 80.14649763776228, 13.032205781410145 ], [ 80.14650112322559, 13.032116835324329 ], [ 80.146466723140108, 13.032084279571672 ], [ 80.146367379351133, 13.031990261782497 ], [ 80.144518979771391, 13.031714721286992 ], [ 80.144380606878286, 13.031701154253504 ], [ 80.144345356986548, 13.031676469812215 ], [ 80.14428382688115, 13.031633382963069 ], [ 80.14429305976563, 13.030851480323701 ], [ 80.144421983280267, 13.02797697982496 ], [ 80.144555415439328, 13.024325170912952 ], [ 80.14579538697545, 13.024392912696213 ], [ 80.146726452139859, 13.024618768976733 ], [ 80.148007950096641, 13.025002919613836 ], [ 80.149436947829813, 13.025725891585283 ], [ 80.150243575666138, 13.026019684033397 ], [ 80.151898394590361, 13.02572120838631 ], [ 80.153046117231654, 13.025368622148857 ], [ 80.154719330059635, 13.02530066270711 ], [ 80.156517017046653, 13.025074505978544 ], [ 80.158669596063064, 13.024888999631129 ], [ 80.159305715573623, 13.024857247240403 ], [ 80.159305644606718, 13.023827763036032 ], [ 80.159305637420204, 13.023704776234974 ], [ 80.161651767447736, 13.02316217828607 ], [ 80.162103558051868, 13.024278493565612 ], [ 80.162371038614253, 13.024893118339522 ], [ 80.162500099571119, 13.024988022778796 ], [ 80.16347727166584, 13.025082771395573 ], [ 80.16451907305364, 13.025182064903351 ], [ 80.164777660294718, 13.02472997069945 ], [ 80.164915001921855, 13.023797998105518 ], [ 80.164768019575064, 13.02279991907456 ], [ 80.164790761324809, 13.02207442407436 ], [ 80.16520838630376, 13.021929270731141 ], [ 80.165577600173762, 13.021920925564389 ], [ 80.16604842787541, 13.02193385160176 ], [ 80.166097506432635, 13.022875653699835 ], [ 80.166212427906942, 13.023563472138123 ], [ 80.166448271601638, 13.023878328138839 ], [ 80.166897782281595, 13.024317007869723 ], [ 80.167279656108875, 13.024813744357974 ], [ 80.167482611582713, 13.025255161815599 ], [ 80.168132926271383, 13.025267466285312 ], [ 80.170161014959092, 13.024914643096968 ], [ 80.170598952643275, 13.024941723644266 ], [ 80.171848113944733, 13.025330175398835 ], [ 80.172322892437052, 13.025176442601651 ], [ 80.172899099708033, 13.025275752700743 ], [ 80.173535248863004, 13.025375072387247 ], [ 80.174111425591292, 13.025316237805042 ], [ 80.174604534206935, 13.025085703325532 ], [ 80.175282050780737, 13.024443809386451 ], [ 80.175521718603619, 13.024249357087132 ], [ 80.175696858642993, 13.024326228161375 ], [ 80.175858230203985, 13.024579279741443 ], [ 80.175918233173405, 13.024755515283676 ], [ 80.175996606690347, 13.024814265104327 ], [ 80.17668424368415, 13.024460537183453 ], [ 80.176752497679445, 13.024425425699873 ], [ 80.176772134851575, 13.024413663815627 ], [ 80.177273257337859, 13.024113506712075 ], [ 80.177393101579895, 13.023901042391016 ], [ 80.178181149561226, 13.023253896751022 ], [ 80.178953170699543, 13.022767744564254 ], [ 80.179705880754199, 13.02243825010162 ], [ 80.1803259051498, 13.022458647799045 ], [ 80.180879466790827, 13.022690868630301 ], [ 80.181403875405948, 13.023217997407791 ], [ 80.181882620858502, 13.023597424968189 ], [ 80.18202550059938, 13.023782690725637 ], [ 80.182260632828374, 13.024013096887311 ], [ 80.182385136631822, 13.024234562605852 ], [ 80.182435893241987, 13.024419899653564 ], [ 80.182458949402061, 13.024559941216499 ], [ 80.182680297881319, 13.024803956077104 ], [ 80.182777119200992, 13.025002820715876 ], [ 80.183099848848272, 13.025151943052874 ], [ 80.183413324949811, 13.025282862844065 ], [ 80.183782072594155, 13.025205992066683 ], [ 80.184035480149291, 13.025038701421147 ], [ 80.184293596673129, 13.024812652978701 ], [ 80.184749910294741, 13.024550427739918 ], [ 80.185017303720528, 13.024758325564123 ], [ 80.185243201268392, 13.02485316266435 ], [ 80.185303082066909, 13.024871254001122 ], [ 80.18603587557341, 13.024378422795014 ], [ 80.186768667283289, 13.023885679879449 ], [ 80.187257156761731, 13.023370285575195 ], [ 80.187478419002744, 13.023189510210148 ], [ 80.187745738766665, 13.0230809404277 ], [ 80.1880683642094, 13.023035657055773 ], [ 80.188575352694514, 13.023040047110111 ], [ 80.188578365643977, 13.02304485463964 ], [ 80.189491616318008, 13.024501948387886 ], [ 80.189552968556967, 13.024585525202493 ], [ 80.189843421736086, 13.02482963280951 ], [ 80.190037015866324, 13.024910830710189 ], [ 80.190138464408008, 13.025050956015043 ], [ 80.190272159773428, 13.025272413803991 ], [ 80.190567318328007, 13.025624817261377 ], [ 80.190871593884424, 13.025859782377868 ], [ 80.191097521974996, 13.026117412309201 ], [ 80.191286525714176, 13.026429223749533 ], [ 80.191332764696767, 13.026587385144454 ], [ 80.191364962113212, 13.026609867220833 ], [ 80.191572456774125, 13.026664111960683 ], [ 80.191719980805033, 13.026777077162198 ], [ 80.192743470035808, 13.027703352412436 ], [ 80.192775823759064, 13.027798245272493 ], [ 80.192775759978716, 13.027829885261411 ], [ 80.192918699906684, 13.027969974782136 ], [ 80.192955484120972, 13.027965422904474 ], [ 80.193098488727671, 13.028073872394794 ], [ 80.193218351834346, 13.028182249196666 ], [ 80.194656712707683, 13.028859920827534 ], [ 80.194910371791124, 13.029085884183145 ], [ 80.195878428680643, 13.029555580951721 ], [ 80.19589789696947, 13.02955706089319 ], [ 80.195958585353438, 13.028443004644862 ], [ 80.196127041028774, 13.028479959586218 ], [ 80.196159339954818, 13.028511482212451 ], [ 80.196200756780996, 13.028534137401904 ], [ 80.1965903561197, 13.028597259653376 ], [ 80.196684771751023, 13.028601878033868 ], [ 80.196744681295627, 13.02857913533154 ], [ 80.19709043296703, 13.028583624184211 ], [ 80.197205734428678, 13.028642283827283 ], [ 80.197339360623815, 13.028673898327821 ], [ 80.197500722303374, 13.028687497909235 ], [ 80.197579129058013, 13.028678388929135 ], [ 80.19763443473677, 13.028662564613422 ], [ 80.197675847071366, 13.028628674616282 ], [ 80.197926957634337, 13.028628454068274 ], [ 80.19819547575085, 13.028725882874742 ], [ 80.19842713329632, 13.028658194788125 ], [ 80.200003287649437, 13.028656803235453 ], [ 80.20047838863691, 13.028279912730055 ], [ 80.199915611179364, 13.026991991315933 ], [ 80.199601802701167, 13.025426037141369 ], [ 80.199407922008362, 13.024235140241782 ], [ 80.199116927145084, 13.0224047916077 ], [ 80.198953532578074, 13.02133719992791 ], [ 80.19874849930099, 13.019918510655355 ], [ 80.198572069280871, 13.018703389921974 ], [ 80.198686917991623, 13.017996855244938 ], [ 80.19869900482378, 13.017729614732222 ], [ 80.198711091655952, 13.017462373931332 ], [ 80.198741938904476, 13.016136243930687 ], [ 80.199096763560235, 13.01588754240027 ], [ 80.20417497579399, 13.012229866191767 ], [ 80.204218976174928, 13.012198174321602 ], [ 80.204265720909021, 13.012164100020684 ], [ 80.20608438086299, 13.010838367924681 ], [ 80.209413912801736, 13.008411175420777 ], [ 80.210816022161808, 13.008898443715301 ], [ 80.210695949747674, 13.008322953387243 ], [ 80.209872382379999, 13.004820184639042 ], [ 80.209869816791553, 13.004809272591386 ], [ 80.209344079568169, 13.002566771405675 ], [ 80.209043687428732, 13.001295540278303 ], [ 80.208934233999543, 13.000953928675081 ], [ 80.208824779672071, 13.000612318352132 ], [ 80.208522611563339, 13.000016965070381 ], [ 80.208351337872941, 12.999257771106928 ], [ 80.208120528337105, 12.998900907302719 ], [ 80.208046294256974, 12.998394741839244 ], [ 80.207824216345699, 12.997527115119818 ], [ 80.207376223818571, 12.996596418006238 ], [ 80.206700939558246, 12.994151747123777 ], [ 80.205753030982237, 12.990970577198322 ], [ 80.204939787952142, 12.988819830123582 ], [ 80.204639104758542, 12.98766300056838 ], [ 80.204532371428087, 12.986894711712303 ], [ 80.204465502634974, 12.985902437395564 ], [ 80.204155418571915, 12.98304860118707 ], [ 80.205699319813078, 12.982929682062595 ], [ 80.206462165559074, 12.980569591402533 ], [ 80.20765099690442, 12.980279225567168 ], [ 80.207491428262173, 12.977282676028944 ], [ 80.209099605758553, 12.976951239120945 ], [ 80.208886358286506, 12.975663265730747 ], [ 80.21261781714459, 12.971576058875863 ], [ 80.216252252562128, 12.967384933668296 ], [ 80.217920160838347, 12.966958460686579 ], [ 80.219019758034946, 12.966332615026984 ], [ 80.219503124421337, 12.96605749623728 ], [ 80.221213438568867, 12.965084027582694 ], [ 80.222437553941887, 12.965850592742505 ], [ 80.222444721599572, 12.965846677900862 ], [ 80.224006359177693, 12.967411269393363 ], [ 80.225836121410211, 12.969148888839959 ], [ 80.228326781383799, 12.97160365034412 ], [ 80.228807096193208, 12.972556859767058 ], [ 80.230808691766541, 12.973861070980828 ], [ 80.231341075624755, 12.97415085780559 ], [ 80.231791145056803, 12.974395835256312 ], [ 80.232342011751967, 12.974695676956024 ], [ 80.233875343415477, 12.975530274877876 ], [ 80.236088520984339, 12.976391270425884 ], [ 80.237204951711007, 12.976726745303131 ], [ 80.237263131100406, 12.976744227387314 ], [ 80.239071437072383, 12.977287591240273 ], [ 80.240759366101344, 12.978262095841313 ], [ 80.24192610607723, 12.978880074332444 ], [ 80.242839271411299, 12.979416961950863 ], [ 80.243655586679623, 12.979895192134622 ], [ 80.243594570410608, 12.980485533193571 ], [ 80.243506345968228, 12.981883826296603 ], [ 80.243503444409853, 12.981906718589219 ], [ 80.243351299445138, 12.983918243644409 ], [ 80.246867584843244, 12.98248584684772 ], [ 80.247643272006258, 12.982195483251045 ], [ 80.247704467938362, 12.982172575228613 ], [ 80.249870112052236, 12.981361888980562 ], [ 80.252979955598363, 12.980327884255574 ], [ 80.253017168309015, 12.976666720057407 ], [ 80.257095669717557, 12.976379615686689 ], [ 80.260037992734567, 12.976019172867424 ], [ 80.261593184900505, 12.975775560853114 ], [ 80.263574223426915, 12.975144990195949 ], [ 80.26488231061775, 12.975145427885474 ], [ 80.26777207769905, 12.975089935847455 ], [ 80.267825310066144, 12.975088869635465 ], [ 80.26782690457577, 12.975088838121829 ], [ 80.267828498187072, 12.975088805732765 ], [ 80.267855804276778, 12.975239855886359 ], [ 80.268213405625076, 12.977323147955033 ], [ 80.268442576633845, 12.979022349270329 ], [ 80.268685885328551, 12.979971315385857 ], [ 80.268787731823906, 12.98061302676199 ], [ 80.268794260779373, 12.980667257049335 ], [ 80.268866889570106, 12.981340618674817 ], [ 80.269466352427187, 12.984309601890303 ], [ 80.269997579255275, 12.986609738351451 ], [ 80.270408822602462, 12.988634247641103 ], [ 80.270755477979009, 12.990288191678468 ], [ 80.271498081088424, 12.993252579345862 ], [ 80.271794743422817, 12.994427486926718 ], [ 80.271815200756748, 12.994593638437651 ], [ 80.271828550620214, 12.994702064886786 ], [ 80.271899907396488, 12.995281607095917 ], [ 80.272091354553197, 12.99699889887113 ], [ 80.272419129139124, 12.998011090034534 ], [ 80.272726585629925, 12.999154354207542 ], [ 80.273223613595192, 13.00102967259947 ], [ 80.273310304613346, 13.001303388976295 ], [ 80.273320890360679, 13.00133401964032 ], [ 80.2737888766911, 13.002688250079073 ], [ 80.273810288934214, 13.002750210411644 ], [ 80.274500707112097, 13.004942501596963 ], [ 80.27476306278578, 13.005742570843855 ], [ 80.275172692758716, 13.00704890713927 ], [ 80.275568635101664, 13.008246703162095 ], [ 80.275858504375861, 13.009318020308482 ], [ 80.276420299974774, 13.010601802604809 ], [ 80.276461717699249, 13.01076453942426 ], [ 80.276535278941225, 13.011117101802807 ], [ 80.276539872027286, 13.011198410102027 ], [ 80.276438223161293, 13.011817533716973 ], [ 80.276415157119757, 13.011921534380226 ], [ 80.276382810583016, 13.012002821409652 ], [ 80.276359717591987, 13.012093237258119 ], [ 80.276041545996478, 13.012545070061453 ], [ 80.275981626570371, 13.012599244359626 ], [ 80.275930887926506, 13.012626417278501 ], [ 80.276101237250472, 13.013028692712131 ], [ 80.276147324417778, 13.012983509907105 ], [ 80.276216552186867, 13.012920262893733 ], [ 80.276313356438479, 13.012884128362819 ], [ 80.276428533034334, 13.01289323617315 ], [ 80.276617504434157, 13.012952098211914 ], [ 80.276746501610617, 13.013037968564257 ], [ 80.276857158782278, 13.013141983594723 ], [ 80.277464899614699, 13.014715012071042 ], [ 80.278022035652214, 13.016098248244349 ], [ 80.278035821198571, 13.016156991365454 ], [ 80.278049606744929, 13.016215824621725 ], [ 80.278063357256954, 13.016396546433953 ], [ 80.278131895119913, 13.017978495586396 ], [ 80.278233002301747, 13.018755899070856 ], [ 80.278384527428926, 13.020084689727499 ], [ 80.278720287139421, 13.021960452857648 ], [ 80.278895077734148, 13.022819223603712 ], [ 80.279106590559365, 13.024121021234109 ], [ 80.279221369201537, 13.025079162058482 ], [ 80.279336286184218, 13.025829478568152 ], [ 80.27951070038489, 13.027786543061586 ], [ 80.279625524841094, 13.028857711848913 ], [ 80.279730765171593, 13.030629464781349 ], [ 80.2799560842044, 13.032035137434219 ], [ 80.280282661336074, 13.033820515060127 ], [ 80.280539997223912, 13.035755008885616 ], [ 80.280613509058568, 13.036347039088239 ], [ 80.280691712793953, 13.036699619317076 ], [ 80.28083881012509, 13.037734713145943 ], [ 80.280949018139097, 13.038751587176462 ], [ 80.281059389646472, 13.039619401255685 ], [ 80.281201937909017, 13.040365169300591 ], [ 80.281372225249228, 13.041124559374502 ], [ 80.281468887567044, 13.041513334040699 ], [ 80.281524089041284, 13.041816155861779 ], [ 80.281625351631661, 13.042195774575816 ], [ 80.281800256312422, 13.042860250977864 ], [ 80.281873771740351, 13.043312284936817 ], [ 80.281947321304244, 13.043917914176738 ], [ 80.282057804202694, 13.044378932961326 ], [ 80.282149774619796, 13.044957448854937 ], [ 80.282278397198837, 13.046028646579703 ], [ 80.282338231284939, 13.046290801804377 ], [ 80.282545324398981, 13.047063717122162 ], [ 80.2828122327345, 13.048270589764384 ], [ 80.283097003171136, 13.049647309605859 ], [ 80.283106743603767, 13.04969440309873 ], [ 80.283350464625187, 13.051077476192697 ], [ 80.28339187156989, 13.05145260537695 ], [ 80.283465454371481, 13.051796153078906 ], [ 80.283764628395375, 13.053007506777252 ], [ 80.284045396837413, 13.05420531499192 ], [ 80.284243337915328, 13.054829013692911 ], [ 80.284556495114941, 13.055778252269855 ], [ 80.285251910620786, 13.057627059003623 ], [ 80.285482140743255, 13.058314097382148 ], [ 80.285537173334205, 13.058888089731406 ], [ 80.285610590845749, 13.059778488077148 ], [ 80.28567494615271, 13.06043841318599 ], [ 80.285743975394084, 13.06071858233458 ], [ 80.285822233028384, 13.060994387161848 ], [ 80.286024857023847, 13.061505149187223 ], [ 80.286047952709822, 13.061550296880847 ], [ 80.286223037053645, 13.061830621406136 ], [ 80.286494758562455, 13.062517672594117 ], [ 80.286637494572886, 13.062879299591481 ], [ 80.286692731979713, 13.063100810140412 ], [ 80.286724911429843, 13.06329510500996 ], [ 80.28672487729385, 13.063503049022332 ], [ 80.286720178206593, 13.063733553817332 ], [ 80.286724660799848, 13.063936961121087 ], [ 80.286752276808315, 13.064158435718593 ], [ 80.286793713397429, 13.064361770042039 ], [ 80.286862718384299, 13.064583253884196 ], [ 80.286991746103496, 13.064881602997076 ], [ 80.2872036344245, 13.065265826727844 ], [ 80.287406288962714, 13.065785651654002 ], [ 80.287493693243235, 13.066237688304444 ], [ 80.287908448104844, 13.066794435022539 ], [ 80.288087212846406, 13.067061074744048 ], [ 80.28830253991832, 13.06738224925318 ], [ 80.289091482621643, 13.068602228874886 ], [ 80.289129410391254, 13.068796366281402 ], [ 80.289161666198169, 13.068936502594054 ], [ 80.289239960663394, 13.069135329114845 ], [ 80.289631466227135, 13.070143313004996 ], [ 80.2899124233154, 13.070857528582508 ], [ 80.29026253630748, 13.071549148600164 ], [ 80.290515837861406, 13.072245308116436 ], [ 80.29085665418863, 13.073171887271943 ], [ 80.291022473308615, 13.07356064738522 ], [ 80.291091652568653, 13.073727883321792 ], [ 80.291243577446139, 13.074098556575997 ], [ 80.29141865819669, 13.074496354268989 ], [ 80.291722657071986, 13.075219589259726 ], [ 80.292012891960496, 13.075897656068546 ], [ 80.292648703348931, 13.077249154373005 ], [ 80.29325683674513, 13.078438042338584 ], [ 80.293814298871112, 13.079428047881651 ], [ 80.29430739041878, 13.080164852910571 ], [ 80.294855729254721, 13.081028256724725 ], [ 80.295139232168495, 13.081508402053036 ], [ 80.295242772886468, 13.081683762249662 ], [ 80.295616016598814, 13.082321180651808 ], [ 80.296145938174774, 13.083161980111212 ], [ 80.296639036010674, 13.083889818411764 ], [ 80.297016888080421, 13.084472883573369 ], [ 80.297473183735718, 13.085096819912136 ], [ 80.297864830334973, 13.085603141352976 ], [ 80.298145987747546, 13.085987323186488 ], [ 80.298298048270638, 13.086276667305926 ], [ 80.298454768355086, 13.086498162098046 ], [ 80.298652858553339, 13.086751362633464 ], [ 80.299026171435969, 13.087235077244982 ], [ 80.299440954145354, 13.087795603737746 ], [ 80.299855710803627, 13.088428501071219 ], [ 80.300224393769284, 13.089074897664057 ], [ 80.300482397105384, 13.089513382024407 ], [ 80.300915673431561, 13.09007396020831 ], [ 80.300957155834723, 13.090114634188563 ], [ 80.301067736649586, 13.090146287195797 ], [ 80.301192282673838, 13.090141770587687 ], [ 80.301358211388262, 13.090087624657505 ], [ 80.301671780016292, 13.089983808248736 ], [ 80.301980768134683, 13.08989802324837 ], [ 80.302202016002653, 13.089916130821836 ], [ 80.30231727973505, 13.090020143253051 ], [ 80.302335728436049, 13.090133143358544 ], [ 80.302331060789825, 13.090196374991505 ], [ 80.302312548308436, 13.090309360141637 ], [ 80.302252644153739, 13.090381674810416 ], [ 80.302165019785988, 13.090453955334047 ], [ 80.301791496697575, 13.090607533767628 ], [ 80.301740743680668, 13.090639159587456 ], [ 80.301731505406281, 13.090724953954465 ], [ 80.301763744145177, 13.090806314817886 ], [ 80.301911252904731, 13.090951019089861 ], [ 80.302782328574509, 13.091932042725224 ], [ 80.303141784943861, 13.092573929312884 ], [ 80.303570257978194, 13.093550261947815 ], [ 80.303795949811871, 13.094418147650801 ], [ 80.303901927659155, 13.094752606862439 ], [ 80.303993937602144, 13.095249772189229 ], [ 80.304090698734669, 13.095552640084792 ], [ 80.304187394290167, 13.096036209674402 ], [ 80.304164081211923, 13.096786510135756 ], [ 80.304122496400794, 13.097166116929673 ], [ 80.30404856415457, 13.097586371386534 ], [ 80.303937710251873, 13.098237222787105 ], [ 80.303909958597828, 13.098436009054542 ], [ 80.303928376756105, 13.098576185391421 ], [ 80.30409423989353, 13.09899657218274 ], [ 80.304389163089496, 13.099570580973023 ], [ 80.304674851604361, 13.100230569342473 ], [ 80.304923665175124, 13.100592178656258 ], [ 80.305255569316415, 13.100917654407457 ], [ 80.305707298835131, 13.10135619030488 ], [ 80.306228239054917, 13.101749562347505 ], [ 80.30694732516848, 13.102486442367722 ], [ 80.307790793812941, 13.103512637930919 ], [ 80.308348446381757, 13.10441217469142 ], [ 80.308611129042191, 13.104769314892916 ], [ 80.308804704307832, 13.105049610404105 ], [ 80.309030541668562, 13.105334365055882 ], [ 80.309588293950384, 13.106188703152018 ], [ 80.309933883924998, 13.106839689293672 ], [ 80.310062929610524, 13.107106353939242 ], [ 80.310132066649729, 13.107278128023736 ], [ 80.310629893217268, 13.107775436039345 ], [ 80.310708274819078, 13.107906519374072 ], [ 80.310754291019492, 13.108028522833955 ], [ 80.310786547724703, 13.108155086256547 ], [ 80.310791154285482, 13.108272559319126 ], [ 80.310754235323941, 13.108376534249679 ], [ 80.31063889164146, 13.108412652187626 ], [ 80.310500611274819, 13.108399089369735 ], [ 80.310394583121848, 13.108385457433391 ], [ 80.310251600074707, 13.108376432760394 ], [ 80.3101132460462, 13.108371836870088 ], [ 80.30997953540944, 13.108376289275508 ], [ 80.309891998178273, 13.108367236605156 ], [ 80.309827394037981, 13.108322086111411 ], [ 80.309656915356612, 13.107833857263318 ], [ 80.30929284164668, 13.107182998864088 ], [ 80.309090106260115, 13.106857522648504 ], [ 80.308781296008135, 13.106287978044023 ], [ 80.308288156849784, 13.10556465925586 ], [ 80.308057749759186, 13.105135256263955 ], [ 80.307684347045026, 13.10464700971932 ], [ 80.307228114271794, 13.103892180109272 ], [ 80.306601274358101, 13.103168871778646 ], [ 80.306112715709389, 13.102585668882117 ], [ 80.30549956342567, 13.102029537573161 ], [ 80.30505708835102, 13.101514260841354 ], [ 80.304831222244189, 13.101252056670411 ], [ 80.304771315394518, 13.101197745195464 ], [ 80.304692942775887, 13.101193199917208 ], [ 80.304651457677735, 13.101238394590474 ], [ 80.304517546716639, 13.10182589834 ], [ 80.304443641419908, 13.102173877404789 ], [ 80.304383676179768, 13.10243151783993 ], [ 80.304346654810288, 13.10261674020918 ], [ 80.304300588304187, 13.102680061379525 ], [ 80.304208330426192, 13.102707155272558 ], [ 80.304065435413918, 13.102693506397317 ], [ 80.303904018937189, 13.102661870751357 ], [ 80.303834836982176, 13.10263475060548 ], [ 80.303798052767931, 13.102589538689982 ], [ 80.303788828866601, 13.102512656103949 ], [ 80.303784242068758, 13.10248558231285 ], [ 80.303793430935798, 13.102377049137964 ], [ 80.303844340259573, 13.101907019304996 ], [ 80.303872015556848, 13.101757959062855 ], [ 80.303890537021374, 13.101649497311586 ], [ 80.303945919955297, 13.101324023402871 ], [ 80.30402898357633, 13.101107185213635 ], [ 80.304084371001807, 13.100953537207747 ], [ 80.304098300278596, 13.100772713634054 ], [ 80.303978548563038, 13.100438276597512 ], [ 80.30367895861913, 13.099927408846376 ], [ 80.303480790267471, 13.099651650184807 ], [ 80.303328694710075, 13.099357861331002 ], [ 80.30316284325076, 13.098942001227657 ], [ 80.303098343315028, 13.09872954877485 ], [ 80.302960148288349, 13.098367979597782 ], [ 80.302918661393605, 13.098327306105386 ], [ 80.302872550870063, 13.098327221235872 ], [ 80.302784987587742, 13.098345337814111 ], [ 80.302715748140571, 13.098417582753124 ], [ 80.30266038856287, 13.098498947200229 ], [ 80.302545049371986, 13.098747460587045 ], [ 80.302457452851982, 13.0987926609589 ], [ 80.302365250669553, 13.098801639611356 ], [ 80.302305312378863, 13.098774499791535 ], [ 80.302263826382401, 13.098733827241258 ], [ 80.302203881803493, 13.098661489651123 ], [ 80.302134721408095, 13.098557558738593 ], [ 80.302102532076503, 13.098458081242011 ], [ 80.302070242133595, 13.098354165117687 ], [ 80.302074958288856, 13.098227619404206 ], [ 80.302116421827407, 13.098087497990392 ], [ 80.302217917081478, 13.097974517282822 ], [ 80.302411631585969, 13.097861616143415 ], [ 80.302669872975656, 13.097802926569251 ], [ 80.302891180132434, 13.097757810010483 ], [ 80.303020289598294, 13.097681002035927 ], [ 80.30321861515516, 13.097563562416282 ], [ 80.303292426128806, 13.097468663113171 ], [ 80.303320145443536, 13.097382828222486 ], [ 80.303347809961011, 13.097229150769191 ], [ 80.303398704911729, 13.096582864816476 ], [ 80.303288371133604, 13.095520715661717 ], [ 80.303108902112882, 13.094661968389191 ], [ 80.30305362158694, 13.094481202317597 ], [ 80.302850942794208, 13.093911627332522 ], [ 80.302532983201061, 13.093188403429593 ], [ 80.302353273431862, 13.092853915845284 ], [ 80.301910815425188, 13.092284297724293 ], [ 80.30077233644819, 13.091176654408139 ], [ 80.300670946296989, 13.091122429083184 ], [ 80.300311347095501, 13.091049987761306 ], [ 80.300200660279472, 13.09105447460375 ], [ 80.298531376682533, 13.091551104039175 ], [ 80.296571603973845, 13.092368497332942 ], [ 80.295321933327585, 13.09275219001438 ], [ 80.294948414730769, 13.092914809754689 ], [ 80.294883812387141, 13.092996188269131 ], [ 80.294879268708414, 13.093032337337229 ], [ 80.294888419846217, 13.09307751600892 ], [ 80.295160181779238, 13.093909180071822 ], [ 80.29559313740684, 13.09532392368639 ], [ 80.296108816194007, 13.097267566204247 ], [ 80.296873539418968, 13.099206724187088 ], [ 80.296910422447894, 13.099256375295182 ], [ 80.296965759567684, 13.099292584690195 ], [ 80.29703497206539, 13.09929262406251 ], [ 80.297168701566804, 13.099256481162934 ], [ 80.298003297551162, 13.098985572423452 ], [ 80.298109372416562, 13.098981096224746 ], [ 80.298173857080911, 13.09901728641155 ], [ 80.298206105701297, 13.099103177603665 ], [ 80.298316708075703, 13.099487363758543 ], [ 80.298358168021025, 13.099559741353211 ], [ 80.298441136420664, 13.099595892082753 ], [ 80.298519570124739, 13.099586854838321 ], [ 80.2986348069077, 13.099546219169643 ], [ 80.298759309812809, 13.099473953563221 ], [ 80.298796210808078, 13.099401687060659 ], [ 80.298787044398907, 13.099306779716546 ], [ 80.298685645264612, 13.099121393868032 ], [ 80.298635007232022, 13.099035540304742 ], [ 80.298575041991882, 13.098908944194838 ], [ 80.298561269021945, 13.098777905940135 ], [ 80.298588973065293, 13.098683014104559 ], [ 80.298672037584666, 13.098592627311415 ], [ 80.298778111551727, 13.09850228423217 ], [ 80.298870319124077, 13.098452548102582 ], [ 80.298953316269802, 13.098416417328883 ], [ 80.299050192386673, 13.098389315964091 ], [ 80.299128597344676, 13.098366780925485 ], [ 80.299234626395958, 13.098384859878221 ], [ 80.299326770187932, 13.098434668641779 ], [ 80.299391304259615, 13.098579279188266 ], [ 80.299469664301867, 13.098751034724886 ], [ 80.299534099558855, 13.098936405103297 ], [ 80.299580235235226, 13.09899065670616 ], [ 80.299640153762994, 13.099008739112865 ], [ 80.299690864559096, 13.098999667724224 ], [ 80.29973237211513, 13.098963530906211 ], [ 80.299737051439436, 13.098904827595637 ], [ 80.299709411176451, 13.098814396261838 ], [ 80.29955273331278, 13.098534110275178 ], [ 80.299492766276003, 13.098407605776508 ], [ 80.299396047364326, 13.098163516638667 ], [ 80.299373043306517, 13.098036935829457 ], [ 80.29940075094315, 13.097901375395253 ], [ 80.29945148329881, 13.097815493408326 ], [ 80.299529935867511, 13.09772964638932 ], [ 80.299626787729878, 13.097648286937659 ], [ 80.299737402680691, 13.097607660573502 ], [ 80.299903457159289, 13.097607770816666 ], [ 80.30000022008845, 13.097657479118627 ], [ 80.300083226217311, 13.097797612151414 ], [ 80.30047945332619, 13.098692606095486 ], [ 80.30050706843636, 13.098728780575758 ], [ 80.300543978414737, 13.09874691024857 ], [ 80.300585449139845, 13.098737857224044 ], [ 80.300622405830623, 13.098692672591076 ], [ 80.300709997859059, 13.09860227530214 ], [ 80.30084835458247, 13.098484871994494 ], [ 80.300954403396716, 13.098426138821743 ], [ 80.301083572151398, 13.098376414925955 ], [ 80.301254164918817, 13.098381043375792 ], [ 80.301410892189793, 13.098426277937703 ], [ 80.30153076787289, 13.098480556776167 ], [ 80.301641381027082, 13.098566467404243 ], [ 80.301728929936345, 13.098670358065645 ], [ 80.301751985198109, 13.098819582916272 ], [ 80.301751908841325, 13.098955177842612 ], [ 80.301701173790704, 13.099081640062817 ], [ 80.301553538368708, 13.099266907824372 ], [ 80.301387493771585, 13.099443154820646 ], [ 80.300949397085631, 13.099659913106079 ], [ 80.300197802738538, 13.099854039180089 ], [ 80.299270942587938, 13.100020987796269 ], [ 80.298740632041444, 13.10020160718685 ], [ 80.298473157767262, 13.100395814202797 ], [ 80.298440804044006, 13.100477219993143 ], [ 80.298408523982573, 13.100635346214881 ], [ 80.298376232243086, 13.100789032916516 ], [ 80.298274448629812, 13.101805898291271 ], [ 80.298278985121996, 13.101896285654664 ], [ 80.298624438552693, 13.103030803130382 ], [ 80.298859157556663, 13.104409390690194 ], [ 80.299287464402653, 13.105778888015672 ], [ 80.299665313777453, 13.106714616922275 ], [ 80.299683650189053, 13.106818565388796 ], [ 80.29965140695856, 13.106908940412463 ], [ 80.299577603171429, 13.106967696933769 ], [ 80.299323998885285, 13.106999199039521 ], [ 80.299287093398462, 13.107026358950449 ], [ 80.299259364202257, 13.107066996009056 ], [ 80.29924091999284, 13.107170930328151 ], [ 80.299286717902675, 13.108056803389534 ], [ 80.299305189959853, 13.108138106031618 ], [ 80.299351201668685, 13.108219533758719 ], [ 80.299411158824029, 13.108296404063102 ], [ 80.299484927576842, 13.108350600233607 ], [ 80.299558648718929, 13.108382242147613 ], [ 80.299614035246108, 13.108395895081916 ], [ 80.299678548656559, 13.108400381608314 ], [ 80.299775368179567, 13.108386866034751 ], [ 80.299863011411944, 13.108359783265874 ], [ 80.299936809809168, 13.10834169542172 ], [ 80.300029009296651, 13.108328188594033 ], [ 80.300112036086787, 13.108346314935114 ], [ 80.300135085060347, 13.108364384405839 ], [ 80.300181141684959, 13.108423165077019 ], [ 80.300568197893114, 13.10942210537454 ], [ 80.300927462023026, 13.110601814355871 ], [ 80.301461864395662, 13.11203922942147 ], [ 80.301484871148389, 13.112079853403545 ], [ 80.301530982570227, 13.112120610362867 ], [ 80.301595576829044, 13.112161237831085 ], [ 80.301646289421797, 13.112192925624324 ], [ 80.30171083427328, 13.112210998312118 ], [ 80.301789213180129, 13.112215546011539 ], [ 80.301826077344444, 13.112211030683206 ], [ 80.301858394236802, 13.112197557313925 ], [ 80.301899859571975, 13.112183973707241 ], [ 80.301945988960128, 13.112147826576585 ], [ 80.301978276208089, 13.112120675105043 ], [ 80.302005921860953, 13.112084567335355 ], [ 80.302550285651762, 13.111334504233733 ], [ 80.302993147001999, 13.11074253495064 ], [ 80.303532864706185, 13.109942752322182 ], [ 80.303537542233869, 13.109884046380779 ], [ 80.303532915011814, 13.109838764929986 ], [ 80.303514460022612, 13.109766519843625 ], [ 80.303463795040614, 13.109671605997313 ], [ 80.303426905723441, 13.109621863375589 ], [ 80.303320905418246, 13.109535942607751 ], [ 80.303219450588387, 13.109459070065899 ], [ 80.303141134563603, 13.109355065846101 ], [ 80.303104300043685, 13.109287298378881 ], [ 80.303081267239804, 13.109192417594079 ], [ 80.303076737035809, 13.108894052996719 ], [ 80.303113652404107, 13.108785640760326 ], [ 80.303178236781463, 13.108695288298609 ], [ 80.303279712272584, 13.108528044597946 ], [ 80.303358134298591, 13.108383495015428 ], [ 80.303413573826319, 13.108252398811159 ], [ 80.303408931332953, 13.108157480006222 ], [ 80.303362916030835, 13.107990275310927 ], [ 80.303284497598113, 13.10788174193882 ], [ 80.303192366382561, 13.107841083142052 ], [ 80.303095530689887, 13.107804872379768 ], [ 80.302961837121103, 13.107732505083685 ], [ 80.302878848060203, 13.107646627401614 ], [ 80.302832785147373, 13.107542646038249 ], [ 80.302809763123264, 13.107452294869949 ], [ 80.302782164182801, 13.107126806761775 ], [ 80.3027868560835, 13.106819548791316 ], [ 80.302823837028825, 13.106656788624138 ], [ 80.302906916819552, 13.106444386575285 ], [ 80.302999122595281, 13.106349537941032 ], [ 80.303132854791627, 13.10622751790023 ], [ 80.303386540824505, 13.106064940198904 ], [ 80.303635564601009, 13.106010796019948 ], [ 80.303870720186197, 13.106037930667426 ], [ 80.303958332875879, 13.106083218942075 ], [ 80.304078172626333, 13.10616005141754 ], [ 80.304147320445352, 13.106255014738716 ], [ 80.304336011570769, 13.107222198416684 ], [ 80.304437167261653, 13.108221087595822 ], [ 80.304474040409104, 13.108347642170301 ], [ 80.304897756864008, 13.109784996039828 ], [ 80.30494387816735, 13.109956732383264 ], [ 80.304966858868923, 13.110069728588583 ], [ 80.304966825631283, 13.110223354280068 ], [ 80.304948358963983, 13.110399664297571 ], [ 80.304892929317674, 13.110535200350343 ], [ 80.304819172242958, 13.110657276873177 ], [ 80.303421433186756, 13.112329082738462 ], [ 80.303107805269917, 13.112726667344621 ], [ 80.303052388200044, 13.112826061208517 ], [ 80.302734070179099, 13.113490420847288 ], [ 80.302083500368894, 13.114832486357809 ], [ 80.302009556444574, 13.115126218242029 ], [ 80.301949550780236, 13.115370281806303 ], [ 80.301903330662242, 13.115664047168558 ], [ 80.301857074611632, 13.11611144119277 ], [ 80.301819720865481, 13.117512477368875 ], [ 80.301722792646345, 13.117905720344984 ], [ 80.301547405570261, 13.118429929309753 ], [ 80.301076785379408, 13.119320074923239 ], [ 80.300762984986065, 13.119948201043405 ], [ 80.300583023688588, 13.120368520698101 ], [ 80.300504616933964, 13.120567334577814 ], [ 80.300463048292499, 13.1207481366033 ], [ 80.300426054770767, 13.120951483716013 ], [ 80.300412163223214, 13.121109672890954 ], [ 80.300416697020466, 13.121412487085419 ], [ 80.300453457878518, 13.121701737072906 ], [ 80.300494922315409, 13.121986449699671 ], [ 80.300587025683157, 13.122352582419596 ], [ 80.300660701909493, 13.122574091116185 ], [ 80.30084044761135, 13.122908610040433 ], [ 80.301158451221909, 13.123496209008756 ], [ 80.301711470280495, 13.124373191642171 ], [ 80.30252736064574, 13.125467121902849 ], [ 80.303610551910268, 13.126981536730542 ], [ 80.304481684173894, 13.128301543935901 ], [ 80.305362011592749, 13.129635029585371 ], [ 80.305537254938358, 13.129888212854818 ], [ 80.305569439778367, 13.130023753909763 ], [ 80.305564801776555, 13.130227130964178 ], [ 80.305532430086984, 13.130385364032911 ], [ 80.30547705523793, 13.130507319594924 ], [ 80.305421683982118, 13.130588694421998 ], [ 80.305357113079523, 13.130647439160443 ], [ 80.305274099764105, 13.130683576572022 ], [ 80.305186478091287, 13.130683489089174 ], [ 80.305094286688643, 13.130665385390934 ], [ 80.305034324143421, 13.130633805833291 ], [ 80.304997449199291, 13.130593119305406 ], [ 80.304965154764844, 13.130534304567648 ], [ 80.304937548637838, 13.130421310770263 ], [ 80.30490991376476, 13.130294728191215 ], [ 80.304873083736439, 13.13019081239562 ], [ 80.304674883943704, 13.129878885404718 ], [ 80.304195513263693, 13.129182735739452 ], [ 80.303144555348183, 13.127668337979493 ], [ 80.302301177433577, 13.126267012379374 ], [ 80.300932238365377, 13.124327706394803 ], [ 80.300019540155262, 13.123292486939041 ], [ 80.299830514856538, 13.123111617671565 ], [ 80.299609234649225, 13.122930813885223 ], [ 80.299318715893079, 13.122786025184238 ], [ 80.298949899976776, 13.122677450224815 ], [ 80.298850946954971, 13.122675920100198 ], [ 80.29865016270918, 13.122672812608659 ], [ 80.29839651979546, 13.122699876304118 ], [ 80.298189009863151, 13.122776665969687 ], [ 80.297783167187433, 13.123029597349163 ], [ 80.29707735817378, 13.123779637897217 ], [ 80.296860582119294, 13.123933261147091 ], [ 80.296795995046978, 13.124028144992591 ], [ 80.29673595704331, 13.124132078267255 ], [ 80.296708294322428, 13.124249533199222 ], [ 80.296708178439772, 13.124412223982651 ], [ 80.296708180236394, 13.124543301073594 ], [ 80.296726599292967, 13.124642726029142 ], [ 80.296828021783497, 13.124701579795868 ], [ 80.296952483366127, 13.124728681761288 ], [ 80.297040129293435, 13.124742271673714 ], [ 80.2971323153062, 13.124760381057552 ], [ 80.297247591615061, 13.124814677706473 ], [ 80.297284512373238, 13.124877921424396 ], [ 80.297316697213247, 13.125018081819151 ], [ 80.297427175620143, 13.12568248112319 ], [ 80.297657520726972, 13.126342378434289 ], [ 80.298040026069899, 13.126970803299695 ], [ 80.298970951995443, 13.128570994403441 ], [ 80.299063182025677, 13.128824084287375 ], [ 80.299104574597322, 13.128946109736454 ], [ 80.299150660866346, 13.129059156702498 ], [ 80.29914605340727, 13.129194774325443 ], [ 80.299104508122014, 13.129303201182667 ], [ 80.299026051960041, 13.129352913577213 ], [ 80.298730935626253, 13.129483876053687 ], [ 80.298514182029692, 13.129565126118822 ], [ 80.298205113062906, 13.129655442041257 ], [ 80.297840800401119, 13.129759277578799 ], [ 80.297739303350426, 13.129840561671251 ], [ 80.29767931744901, 13.129926470093702 ], [ 80.297628630009115, 13.130039444872439 ], [ 80.297513084205704, 13.130640455404729 ], [ 80.29742983193843, 13.131345483046918 ], [ 80.297484937292907, 13.131960185750117 ], [ 80.297655491432721, 13.132403170747475 ], [ 80.297839805067795, 13.132710519218097 ], [ 80.297982766555364, 13.132828080276001 ], [ 80.298079598654795, 13.132855239083048 ], [ 80.298157950612165, 13.132841670615168 ], [ 80.298517732171689, 13.132733312681198 ], [ 80.298799016246718, 13.132656639854465 ], [ 80.298914274589237, 13.132656674847322 ], [ 80.299112625298918, 13.132697393401727 ], [ 80.299218665129985, 13.132751617435886 ], [ 80.299384663913045, 13.132792401586089 ], [ 80.299587537640164, 13.132787905881843 ], [ 80.299795056555652, 13.132751877257714 ], [ 80.300122515832896, 13.132657079014756 ], [ 80.300505314924933, 13.132507995421722 ], [ 80.30108179079221, 13.132205415357403 ], [ 80.301441660386615, 13.131925296900125 ], [ 80.301561539662941, 13.131839443415915 ], [ 80.301630777313449, 13.131758132865397 ], [ 80.301695355402629, 13.131658715163612 ], [ 80.301723072920709, 13.131568342239376 ], [ 80.301723022615064, 13.131459819276374 ], [ 80.301736949196894, 13.13136041457625 ], [ 80.301792283621765, 13.131261015959664 ], [ 80.301944602859649, 13.131003431974877 ], [ 80.302202904436456, 13.130560648287942 ], [ 80.3025028501132, 13.130099661207021 ], [ 80.302738082953496, 13.129846704736835 ], [ 80.302890317749743, 13.129679526164962 ], [ 80.303180925439094, 13.129430982793631 ], [ 80.303291647289441, 13.129385821295967 ], [ 80.303434569251152, 13.129399472189078 ], [ 80.303517545735644, 13.129431094772233 ], [ 80.303572896330166, 13.12946730409903 ], [ 80.303623562210518, 13.129517020834538 ], [ 80.303669729327922, 13.12958033507822 ], [ 80.303720400598138, 13.129675254360698 ], [ 80.303748048945963, 13.129765601736555 ], [ 80.30381713028963, 13.129910305840177 ], [ 80.303881648191634, 13.129996137253116 ], [ 80.303941566719431, 13.130050454615667 ], [ 80.30401997167742, 13.130104641616528 ], [ 80.30413983388577, 13.130181570690375 ], [ 80.304209012247483, 13.130285510110264 ], [ 80.304232068407558, 13.130389455609976 ], [ 80.304254993413608, 13.130601925330524 ], [ 80.304245708426848, 13.130963476863872 ], [ 80.304144185325015, 13.131243604291599 ], [ 80.303991937054008, 13.131447019703135 ], [ 80.303673562439243, 13.131975629013969 ], [ 80.303576644101526, 13.132206104717859 ], [ 80.303392052887062, 13.132626364911564 ], [ 80.303313550911, 13.132825278225315 ], [ 80.303244394108859, 13.133028610093692 ], [ 80.303161336776014, 13.133173181051903 ], [ 80.302976730290183, 13.133417247688797 ], [ 80.302718466442613, 13.133665725788925 ], [ 80.302271044345716, 13.133936701300934 ], [ 80.302017392448818, 13.134054178664297 ], [ 80.301629968829701, 13.134203186084497 ], [ 80.301417802929294, 13.134270934435044 ], [ 80.300633819824625, 13.134406268364444 ], [ 80.299835952358947, 13.134532568008789 ], [ 80.299135013112419, 13.134645348209549 ], [ 80.298927492400338, 13.134681377430693 ], [ 80.298761486430749, 13.134681356435166 ], [ 80.298613927365565, 13.134663271402685 ], [ 80.2984755625573, 13.134622519056515 ], [ 80.298318800252019, 13.134622477940225 ], [ 80.298134312343819, 13.134667607856445 ], [ 80.298042065245582, 13.134753404363813 ], [ 80.297954301638953, 13.134947805417998 ], [ 80.297921975763472, 13.135133033034718 ], [ 80.297912765336847, 13.135277630747934 ], [ 80.297940341819455, 13.135422335102934 ], [ 80.297981807154642, 13.135535303854191 ], [ 80.298166135162731, 13.135933060871716 ], [ 80.298322802246616, 13.13627661412168 ], [ 80.29834585571173, 13.13638056233429 ], [ 80.298350387712361, 13.136511634788034 ], [ 80.298350386814022, 13.136683390947736 ], [ 80.298359475069759, 13.136999797924162 ], [ 80.298387090179901, 13.137248317013766 ], [ 80.298437701263026, 13.137487911100571 ], [ 80.298520590610906, 13.137736498805463 ], [ 80.298953743867884, 13.138776112737437 ], [ 80.299405464403435, 13.139634965768279 ], [ 80.299714212671631, 13.140245264998356 ], [ 80.300142807876867, 13.141135692848756 ], [ 80.300400834569189, 13.141754975928153 ], [ 80.300649699343907, 13.142324544187602 ], [ 80.300930879214363, 13.142790139427335 ], [ 80.301118640583482, 13.143091887647399 ], [ 80.301313415100012, 13.143404907950409 ], [ 80.301686812424265, 13.143852465772577 ], [ 80.302083214704609, 13.144336210667021 ], [ 80.302456670419375, 13.144851528841327 ], [ 80.302931365368352, 13.145628989045193 ], [ 80.303207863219527, 13.146316088913178 ], [ 80.303350739367147, 13.146682232594911 ], [ 80.303373714678841, 13.147003151865865 ], [ 80.303345889362916, 13.147342113702306 ], [ 80.303364273385213, 13.147676539399496 ], [ 80.30351165638065, 13.148074291609602 ], [ 80.304120047593329, 13.14940771095999 ], [ 80.30459022401638, 13.15022142334654 ], [ 80.305549055207933, 13.151541426293251 ], [ 80.306203632402671, 13.152590109747898 ], [ 80.30676138917606, 13.153494230691528 ], [ 80.307130111667547, 13.154149620025246 ], [ 80.307420536998919, 13.154678525079714 ], [ 80.307632487303692, 13.155211855182063 ], [ 80.308277674408714, 13.156848155779853 ], [ 80.308614141991654, 13.157625556956326 ], [ 80.308826049177299, 13.158177009432992 ], [ 80.309130217834166, 13.158977038219055 ], [ 80.309254694688136, 13.159329640602682 ], [ 80.30939290139294, 13.159786127414854 ], [ 80.309388278662482, 13.159786136162092 ], [ 80.309715472936716, 13.16079412731794 ], [ 80.309886015398476, 13.161115014996534 ], [ 80.310116452133485, 13.161472194330187 ], [ 80.310356271771596, 13.161766026984761 ], [ 80.310771021243326, 13.162688130569899 ], [ 80.31148999776245, 13.164505128293383 ], [ 80.312324258675233, 13.16639454216436 ], [ 80.312674536957346, 13.167208166665185 ], [ 80.312775951363037, 13.167452199432072 ], [ 80.312886565415525, 13.167881663132841 ], [ 80.312895526110509, 13.168866893852975 ], [ 80.312798431703001, 13.169517686684395 ], [ 80.312383239361864, 13.169897190685761 ], [ 80.312336961751669, 13.170534466877713 ], [ 80.313267992780141, 13.172676927842623 ], [ 80.31345697226476, 13.173251008428927 ], [ 80.313705695105682, 13.174570771849579 ], [ 80.313917625647505, 13.175194544098391 ], [ 80.314245022042684, 13.175646562400962 ], [ 80.314655291616106, 13.176396924864749 ], [ 80.315347070741694, 13.177338699605663 ], [ 80.31554517890622, 13.177608398821484 ], [ 80.315830874607599, 13.178422002672876 ], [ 80.315909040613747, 13.179294226694926 ], [ 80.316088729721713, 13.180207272850142 ], [ 80.31626848440672, 13.180740612084957 ], [ 80.316609607059448, 13.181445742296193 ], [ 80.31708903792655, 13.182426634413634 ], [ 80.317494609311041, 13.183533987662919 ], [ 80.317826408349433, 13.184564493012527 ], [ 80.318291961143757, 13.185735233406341 ], [ 80.318586998425758, 13.186616601834414 ], [ 80.318951092796937, 13.187529623280916 ], [ 80.319624056708889, 13.189540985872279 ], [ 80.320080443992353, 13.190693547200119 ], [ 80.320167939002715, 13.191064195262397 ], [ 80.320223232105093, 13.191344401798291 ], [ 80.320292316143693, 13.191669881361488 ], [ 80.320393709888137, 13.191931957419586 ], [ 80.320956038187987, 13.193586239307784 ], [ 80.321555218974069, 13.195697006792622 ], [ 80.321781030283688, 13.196375049684116 ], [ 80.322467860590365, 13.198508379267746 ], [ 80.323209886083006, 13.200985269024336 ], [ 80.323827561384164, 13.202946893385382 ], [ 80.324007291814638, 13.203484791107639 ], [ 80.324022313442839, 13.203553045034374 ], [ 80.32402426009206, 13.203561893914094 ], [ 80.324334518428245, 13.204971747771781 ], [ 80.32462935358933, 13.206485875757869 ], [ 80.324799911322444, 13.207091574347825 ], [ 80.325246932770739, 13.209021447274651 ], [ 80.325426633556802, 13.209658750923275 ], [ 80.326007459066702, 13.211810148745737 ], [ 80.326293169141152, 13.212849709580793 ], [ 80.326518985840607, 13.213744703337367 ], [ 80.326684942402849, 13.214431700268609 ], [ 80.3271827950215, 13.216167225979326 ], [ 80.327694440373065, 13.218020341694203 ], [ 80.327911054730748, 13.218770660614936 ], [ 80.328265894657875, 13.220325485672612 ], [ 80.328371927302427, 13.220931079950731 ], [ 80.329164722880037, 13.224131089102912 ], [ 80.32930753255232, 13.224718664637747 ], [ 80.329768634194394, 13.225708567718328 ], [ 80.33006373705345, 13.226472406147773 ], [ 80.330423344339764, 13.227561674767452 ], [ 80.331188787115281, 13.229609178394766 ], [ 80.331520728087469, 13.230454401310142 ], [ 80.331866527369598, 13.231484902760162 ], [ 80.332097067410842, 13.232122216795064 ], [ 80.333176201883532, 13.234278211977188 ], [ 80.333425139421834, 13.234829674254605 ], [ 80.333415941571658, 13.234929101624692 ], [ 80.333392871038484, 13.235028471240167 ], [ 80.333360507433767, 13.235109827918359 ], [ 80.333314369960775, 13.235195748348154 ], [ 80.333226714152005, 13.235286112724546 ], [ 80.333139052054975, 13.235335789594448 ], [ 80.332926815187633, 13.235394453217321 ], [ 80.332709955589863, 13.235376374756262 ], [ 80.332534738295379, 13.23532666641429 ], [ 80.332364052103188, 13.235276855751023 ], [ 80.33218412943323, 13.235154844854698 ], [ 80.331999631643555, 13.234937879409792 ], [ 80.331879759553715, 13.234707352702321 ], [ 80.331881925391869, 13.235440511575504 ] ] ] } }
]
}
