{
"type": "FeatureCollection",
"name": "perambalur_boundary",
"crs": { "type": "name", "properties": { "name": "urn:ogc:def:crs:OGC:1.3:CRS84" } },
"features": [
{ "type": "Feature", "properties": { "dtname": "Perambalur", "stname": "TAMIL NADU", "stcode11": "33", "dtcode11": "615", "year_stat": "2011_c", "objectid": 682, "test": -1, "dist_lgd": 581, "state_lgd": 33, "remarks": " ", "dist": "Perambalur", "st_area(shape)": 1837304714.0870793, "st_length(shape)": 298596.69686802267 }, "geometry": { "type": "Polygon", "coordinates": [ [ [ 78.87763396444285, 11.507522975758599 ], [ 78.876176498200039, 11.508408889597696 ], [ 78.874421099405012, 11.509909522391457 ], [ 78.872619843411371, 11.511631628344958 ], [ 78.872607436779006, 11.511728045080238 ], [ 78.872463972234854, 11.512843010052631 ], [ 78.872550993833073, 11.514632972141097 ], [ 78.872500562413023, 11.515105319355353 ], [ 78.872495313556811, 11.515154473383244 ], [ 78.872450130094649, 11.515577669297214 ], [ 78.872138428165783, 11.516648922671584 ], [ 78.871890911762307, 11.517123524284052 ], [ 78.870749644414659, 11.517652332946023 ], [ 78.868132541174916, 11.518090670248263 ], [ 78.865465022684802, 11.518361736208874 ], [ 78.864177083807462, 11.518673547430204 ], [ 78.86338414180446, 11.519026064166697 ], [ 78.862747030553834, 11.519396670756731 ], [ 78.861459019811264, 11.520598929015666 ], [ 78.859950984706146, 11.521927726824892 ], [ 78.857943355149033, 11.523107312397011 ], [ 78.856733300206812, 11.523477857272693 ], [ 78.855825788869126, 11.523396416026923 ], [ 78.85475329114972, 11.523152232101287 ], [ 78.853598328985541, 11.522555468319066 ], [ 78.851765096561067, 11.521321298326834 ], [ 78.850747591906725, 11.521257908782756 ], [ 78.849367959293389, 11.521542522583339 ], [ 78.846439152328159, 11.521691343835558 ], [ 78.844789091780001, 11.521980423395872 ], [ 78.843748590254407, 11.522495578772062 ], [ 78.843047255749156, 11.523019816084073 ], [ 78.840201373166124, 11.52018532183444 ], [ 78.83687442657876, 11.516541626225118 ], [ 78.835224746017971, 11.51465196498336 ], [ 78.834024530323049, 11.511089932115125 ], [ 78.833887078203119, 11.510827742603626 ], [ 78.834780856096728, 11.510529563013547 ], [ 78.833855709931697, 11.506628564615944 ], [ 78.831545721823005, 11.50707114434023 ], [ 78.830363241566744, 11.507206541381109 ], [ 78.828937542447292, 11.509009802985171 ], [ 78.826302278865796, 11.508643182584359 ], [ 78.825738474633908, 11.509004683432682 ], [ 78.822090123414327, 11.509627728585713 ], [ 78.818295401600665, 11.508881106421907 ], [ 78.816572170577658, 11.508672798739122 ], [ 78.815504486031557, 11.507831819325613 ], [ 78.814509992621524, 11.507601065179223 ], [ 78.812282506686827, 11.507871746013032 ], [ 78.810265897570119, 11.507920977006862 ], [ 78.809551680325399, 11.50496465587482 ], [ 78.811426371796884, 11.504183138952287 ], [ 78.811619306563685, 11.502393225708628 ], [ 78.811644284220193, 11.501407788209832 ], [ 78.811844445933488, 11.500106442755179 ], [ 78.811977687649659, 11.498754964329263 ], [ 78.81073116200524, 11.498528656990022 ], [ 78.810827783000548, 11.497023487253935 ], [ 78.810901414311147, 11.495816637888732 ], [ 78.810718405029888, 11.494582605026153 ], [ 78.810374939570906, 11.493565497767136 ], [ 78.809646640335771, 11.492046562576775 ], [ 78.808693815280208, 11.490414567885933 ], [ 78.808625219925091, 11.48984501735038 ], [ 78.808781226747243, 11.489112800159365 ], [ 78.809400246826357, 11.487811164631381 ], [ 78.809904506229643, 11.487237236280418 ], [ 78.810138267629512, 11.487092651407281 ], [ 78.81004222065765, 11.486333248824947 ], [ 78.809955702116, 11.48414549690283 ], [ 78.809739943852733, 11.481976369159081 ], [ 78.809736290404473, 11.481939630906536 ], [ 78.807257101917088, 11.481631638414596 ], [ 78.80282564434853, 11.481418025026061 ], [ 78.798435237991882, 11.481882371092537 ], [ 78.798433819552031, 11.481868727615003 ], [ 78.798366691145787, 11.481222416189736 ], [ 78.798023847320991, 11.478311368610397 ], [ 78.797799920676852, 11.476200414814961 ], [ 78.797561921923787, 11.47519236177043 ], [ 78.797205292552619, 11.472457593140339 ], [ 78.796757065565188, 11.469564594432393 ], [ 78.796556287607629, 11.466725906106621 ], [ 78.796355476412401, 11.464009261142316 ], [ 78.796232674916425, 11.46094006977968 ], [ 78.795669020703173, 11.460998665010463 ], [ 78.795206306585186, 11.460632398617536 ], [ 78.79373070156015, 11.460857961601846 ], [ 78.793575042386024, 11.460401383986085 ], [ 78.792690687819729, 11.460242911058453 ], [ 78.792581119406194, 11.458941085169871 ], [ 78.791655492642491, 11.458895598811701 ], [ 78.791440589575387, 11.457421975951746 ], [ 78.790446288404851, 11.457204701092326 ], [ 78.790066436685294, 11.455708424148455 ], [ 78.789549448154418, 11.453883032133142 ], [ 78.789517186957625, 11.453769123577366 ], [ 78.78955354087887, 11.453767335433049 ], [ 78.791982502762124, 11.453647849332402 ], [ 78.794292135137965, 11.453146818736474 ], [ 78.794173212567415, 11.452441645615053 ], [ 78.795768042895261, 11.45179122390887 ], [ 78.797362742069126, 11.451556643345256 ], [ 78.797147724017634, 11.450385871786104 ], [ 78.79841702285286, 11.450331996135565 ], [ 78.798280075586121, 11.448560071230334 ], [ 78.800337744897817, 11.4476747099216 ], [ 78.802569392727207, 11.447259474367302 ], [ 78.80309040571052, 11.447264224372468 ], [ 78.803591220074708, 11.447268788603482 ], [ 78.803403602436035, 11.446355676797294 ], [ 78.804815104580726, 11.445650914646537 ], [ 78.809406939275235, 11.443681318160085 ], [ 78.814269036614547, 11.4417885538946 ], [ 78.816019550371067, 11.44114709812718 ], [ 78.81933733773576, 11.439556744362541 ], [ 78.818916091647907, 11.438182538128594 ], [ 78.818920842837429, 11.4374186386876 ], [ 78.818664888558473, 11.434543785784328 ], [ 78.818756911976166, 11.432817119659331 ], [ 78.818894518606342, 11.432148170436431 ], [ 78.819467409297317, 11.431479315608104 ], [ 78.820581007635909, 11.430611687820649 ], [ 78.820929332980597, 11.430150707335969 ], [ 78.821103562128272, 11.429603808615287 ], [ 78.821112844420085, 11.429056876260583 ], [ 78.821213763854061, 11.428500922085574 ], [ 78.821892026029545, 11.427827562784149 ], [ 78.822706856382737, 11.427143548612595 ], [ 78.82278564941295, 11.427077404816657 ], [ 78.822350616880414, 11.42590660512462 ], [ 78.821210093337797, 11.424229403157742 ], [ 78.820078687695343, 11.422823407076338 ], [ 78.818365486362481, 11.421069232325403 ], [ 78.816895319738165, 11.419860567889598 ], [ 78.816895290992079, 11.419860544115258 ], [ 78.816308659670511, 11.419378249591915 ], [ 78.814260977828141, 11.417863542136626 ], [ 78.812749309037699, 11.416629195392231 ], [ 78.812524896405009, 11.416263010730692 ], [ 78.812360142686941, 11.415490029278436 ], [ 78.812090260927818, 11.413704515313475 ], [ 78.81215012555667, 11.412461494632677 ], [ 78.812104669006672, 11.41099696058602 ], [ 78.81126660103368, 11.409518678677845 ], [ 78.81057051897794, 11.408243833588996 ], [ 78.809792075783619, 11.406566674268712 ], [ 78.809430177793317, 11.4063948199805 ], [ 78.808307686133404, 11.406453302333501 ], [ 78.807781257207239, 11.404726480176013 ], [ 78.806113464813691, 11.405191626593719 ], [ 78.806333721839891, 11.40388988588305 ], [ 78.806448543601178, 11.402814125293128 ], [ 78.806375425228637, 11.402118005289804 ], [ 78.80626095560693, 11.401864849026026 ], [ 78.80601822273232, 11.401543857344681 ], [ 78.805665480371403, 11.401430761670618 ], [ 78.801434578876581, 11.402210290689137 ], [ 78.801427410320599, 11.402211610687139 ], [ 78.801418546643703, 11.402151738776846 ], [ 78.801235355902747, 11.400914281284393 ], [ 78.800658933036061, 11.397962476291267 ], [ 78.800082522745811, 11.395010669700193 ], [ 78.799790233410249, 11.391823894265986 ], [ 78.799420067326068, 11.38863709632775 ], [ 78.799045479734062, 11.384930479934374 ], [ 78.798868525097816, 11.384332336799172 ], [ 78.798839528378736, 11.384234321427902 ], [ 78.798768518352176, 11.384290443818362 ], [ 78.79641550902619, 11.386150161798668 ], [ 78.7928913831323, 11.389914385925827 ], [ 78.792612157097579, 11.389170738646159 ], [ 78.792332933757834, 11.388427092064125 ], [ 78.791359627113792, 11.388633319315202 ], [ 78.791226203039599, 11.388422297042291 ], [ 78.79094730488994, 11.387919271945766 ], [ 78.79000873609796, 11.387756188910481 ], [ 78.789447902594731, 11.387144288312495 ], [ 78.78918165811416, 11.386500535615555 ], [ 78.78910062738062, 11.38660470495773 ], [ 78.787733379840063, 11.388362371151269 ], [ 78.786115448436362, 11.390599313173501 ], [ 78.786110911045853, 11.39065991491055 ], [ 78.786023409747287, 11.391828758799274 ], [ 78.78502409957072, 11.39355512039724 ], [ 78.783593993316501, 11.395679105892921 ], [ 78.782769006610707, 11.396659696811438 ], [ 78.781403093966688, 11.398539606129821 ], [ 78.781260916708376, 11.398973490081405 ], [ 78.781576350238907, 11.400921773341839 ], [ 78.781369832944989, 11.401920650925451 ], [ 78.78102135758165, 11.402720594063375 ], [ 78.779440357715913, 11.403809397289612 ], [ 78.775934746998331, 11.405869328896584 ], [ 78.773661585324675, 11.40777599058641 ], [ 78.7732353059763, 11.408286608009444 ], [ 78.772614229653456, 11.409508691331324 ], [ 78.772577850579395, 11.409580272296646 ], [ 78.771992758970228, 11.410731532837797 ], [ 78.771291081308547, 11.412516717687103 ], [ 78.771913688360613, 11.413800666963565 ], [ 78.772537576410258, 11.415325604267709 ], [ 78.772549941720143, 11.415355827213986 ], [ 78.772487054260367, 11.415413718636438 ], [ 78.770611194080701, 11.417140546227802 ], [ 78.768186441702895, 11.419716084166152 ], [ 78.766440146434945, 11.421320043350635 ], [ 78.765303699447117, 11.421721885398602 ], [ 78.764877189231669, 11.422707099811129 ], [ 78.763785546616944, 11.425540776721922 ], [ 78.762377656598019, 11.428550603647148 ], [ 78.760306753305557, 11.42828758377525 ], [ 78.760159955113409, 11.42870337457054 ], [ 78.759398427195919, 11.43087271297137 ], [ 78.758784052305117, 11.431790038563136 ], [ 78.756922530135682, 11.434641443041134 ], [ 78.756041691575419, 11.437122607388588 ], [ 78.755642886301686, 11.43750212457002 ], [ 78.754180781158723, 11.438473315416836 ], [ 78.75206563404187, 11.439445904641245 ], [ 78.752049679064115, 11.43945324159875 ], [ 78.751986349633214, 11.439491301677403 ], [ 78.74880484568024, 11.441403367867752 ], [ 78.743233947039045, 11.44329152639078 ], [ 78.741348547649395, 11.449647511581958 ], [ 78.737633661809966, 11.450534734120721 ], [ 78.737614358811129, 11.450539344081648 ], [ 78.737536634776092, 11.450559962122151 ], [ 78.732546867970314, 11.451883601431023 ], [ 78.725036807566298, 11.452735865696376 ], [ 78.720115221992245, 11.453665169951375 ], [ 78.720097395823728, 11.453668536699938 ], [ 78.720028167156386, 11.453687850601691 ], [ 78.71375600318018, 11.455437739916924 ], [ 78.708243884901293, 11.45700318638406 ], [ 78.706974572591363, 11.457003514779016 ], [ 78.706919969395116, 11.45700326738228 ], [ 78.703194128600785, 11.45698637837142 ], [ 78.699689202399469, 11.455746452986796 ], [ 78.699670005401856, 11.455739663192249 ], [ 78.698147729304551, 11.451680948053736 ], [ 78.693225543655871, 11.447803759288414 ], [ 78.688550775596013, 11.443153497810636 ], [ 78.688352231748553, 11.435496454382402 ], [ 78.675750597569277, 11.42818504456924 ], [ 78.662626700850097, 11.425630611081267 ], [ 78.66147773224553, 11.42540694658712 ], [ 78.656509353428305, 11.424093337649698 ], [ 78.656162675593848, 11.42400167220608 ], [ 78.651613462366328, 11.422511731252287 ], [ 78.651333330829814, 11.422419984289284 ], [ 78.651316532333993, 11.421964271869369 ], [ 78.650782536898191, 11.407476472987485 ], [ 78.656335978578497, 11.401040070859915 ], [ 78.656337818328183, 11.401037938953067 ], [ 78.656393224618256, 11.400973722847151 ], [ 78.656401062419135, 11.40096463868511 ], [ 78.656687572892494, 11.400632557589894 ], [ 78.656925573442166, 11.397929497860858 ], [ 78.658353642317323, 11.394052626422759 ], [ 78.658377515944309, 11.393987814326008 ], [ 78.658247597994659, 11.389823084594756 ], [ 78.658244267041596, 11.38971629657348 ], [ 78.658244349686584, 11.389695085852592 ], [ 78.658271124871945, 11.382818563561125 ], [ 78.658512454578073, 11.381409103225872 ], [ 78.658815986329444, 11.379636338395372 ], [ 78.662132395678498, 11.376648205323182 ], [ 78.663185729637917, 11.373786845608642 ], [ 78.665623018903872, 11.375391229576634 ], [ 78.67195872161841, 11.376271867912603 ], [ 78.67623779976195, 11.378689531624206 ], [ 78.689091341309819, 11.381689629788175 ], [ 78.689106691721392, 11.381693213150056 ], [ 78.69007300587927, 11.380174258197586 ], [ 78.688487345553796, 11.377159634255927 ], [ 78.680992358880289, 11.375072668610693 ], [ 78.673927312189917, 11.367611004002345 ], [ 78.673775478940613, 11.363045679604548 ], [ 78.6721032353948, 11.359985465575928 ], [ 78.672098464442314, 11.359976734153722 ], [ 78.671585429397055, 11.360089806667151 ], [ 78.668021667137864, 11.360876767642861 ], [ 78.659647666382398, 11.357948614108212 ], [ 78.658763379189779, 11.355806145152169 ], [ 78.657485266983301, 11.354793745937616 ], [ 78.655684744014934, 11.351100934400266 ], [ 78.657118107560393, 11.346734351175048 ], [ 78.655230740860219, 11.344650715847681 ], [ 78.65026539026384, 11.344117685089342 ], [ 78.650114064562658, 11.341468886432546 ], [ 78.645913638413859, 11.33918191540057 ], [ 78.640797180406892, 11.336533298224404 ], [ 78.637993948935247, 11.335886985299862 ], [ 78.634581542919975, 11.336027157822643 ], [ 78.634247157631876, 11.333943370415478 ], [ 78.635438056000652, 11.333884596607145 ], [ 78.636409061160933, 11.33152054297231 ], [ 78.638451894795736, 11.331574749417202 ], [ 78.63972973121939, 11.328559774903049 ], [ 78.644937606281246, 11.330363138411879 ], [ 78.656269618231818, 11.333829387372383 ], [ 78.66119786391539, 11.331437782600876 ], [ 78.660981676257435, 11.322334209574178 ], [ 78.660057103217568, 11.319507814789402 ], [ 78.660034329128493, 11.319438193976978 ], [ 78.660005805821584, 11.319350998595873 ], [ 78.662781457217378, 11.320110112196303 ], [ 78.665854412344643, 11.317266598188635 ], [ 78.67170393874261, 11.3225047369249 ], [ 78.67535961841827, 11.327037941295027 ], [ 78.67843762656905, 11.327462369286058 ], [ 78.681208547436555, 11.326589532368297 ], [ 78.681597181984642, 11.326282599249211 ], [ 78.68166651126333, 11.326227844811745 ], [ 78.685806458335648, 11.322981649763303 ], [ 78.686873903929879, 11.324332981433223 ], [ 78.688095595648278, 11.324378985225581 ], [ 78.688163544216394, 11.324381543144764 ], [ 78.689860235412624, 11.324445417126872 ], [ 78.705709462600296, 11.32521885437877 ], [ 78.706279977247377, 11.325206263005482 ], [ 78.70630586759215, 11.325205692231791 ], [ 78.706312401039241, 11.325205117934793 ], [ 78.707338564554576, 11.32511499204816 ], [ 78.717570304673785, 11.323367433867162 ], [ 78.733129285294851, 11.323362531171366 ], [ 78.734928424857685, 11.320884868328264 ], [ 78.735961514383902, 11.319515440231157 ], [ 78.736018623879772, 11.319439738091914 ], [ 78.738032270352647, 11.316770435430808 ], [ 78.735987148708844, 11.310126536333295 ], [ 78.737884704999246, 11.299559424845526 ], [ 78.737898654937311, 11.2994817380445 ], [ 78.737901093863286, 11.299468157166823 ], [ 78.737921833268246, 11.29935265405334 ], [ 78.738871190826814, 11.294065396576521 ], [ 78.74197622838615, 11.293982899347247 ], [ 78.748793641892036, 11.289455618635905 ], [ 78.750000023623073, 11.28768536494611 ], [ 78.750042205813841, 11.287623465764257 ], [ 78.750639510917622, 11.286967163594605 ], [ 78.751211046050841, 11.284792986433134 ], [ 78.750000034402831, 11.283944011356471 ], [ 78.748809399240429, 11.28310930873236 ], [ 78.748800240017786, 11.283109311375236 ], [ 78.745543694399259, 11.281591858796675 ], [ 78.745543567736789, 11.281591800653464 ], [ 78.743954032977541, 11.280475923796883 ], [ 78.737792359984653, 11.274443760602576 ], [ 78.735557683934459, 11.274693156998177 ], [ 78.729901600749798, 11.273289299762242 ], [ 78.728696940190844, 11.272467024200619 ], [ 78.728800133260776, 11.271147763709031 ], [ 78.72880452781915, 11.27109158299276 ], [ 78.729271481087011, 11.26512156476446 ], [ 78.729253466272283, 11.265114148437966 ], [ 78.726024331846347, 11.263784637996178 ], [ 78.726073799374106, 11.260995677221567 ], [ 78.723641896406605, 11.259929675369882 ], [ 78.721068061420851, 11.258886296111394 ], [ 78.716594062335432, 11.258440102174887 ], [ 78.713070700907835, 11.251385103589081 ], [ 78.712841677222755, 11.251132036794143 ], [ 78.712050760920746, 11.250522814090759 ], [ 78.711128747181107, 11.249812603594581 ], [ 78.710400521607838, 11.249229694386171 ], [ 78.710070757253575, 11.248954050359375 ], [ 78.709855381672611, 11.248357443345155 ], [ 78.710093331916667, 11.24776523775845 ], [ 78.71067450507455, 11.246427113197042 ], [ 78.71105434511604, 11.245631461642768 ], [ 78.711644835600069, 11.244908075903549 ], [ 78.712400078005501, 11.243868232594933 ], [ 78.712660899356663, 11.243221777039789 ], [ 78.712990249587605, 11.242023841008564 ], [ 78.713195990737134, 11.240911821385247 ], [ 78.713442999592502, 11.240012238584866 ], [ 78.712833799896046, 11.239266575432223 ], [ 78.711913095001762, 11.237992131931723 ], [ 78.711811061656846, 11.237825071720936 ], [ 78.711267187447859, 11.236934582757069 ], [ 78.710635008846467, 11.235831824989452 ], [ 78.710185990443279, 11.234733539880036 ], [ 78.709924828630633, 11.234105302676811 ], [ 78.709695724995484, 11.233490618141881 ], [ 78.709191960563928, 11.23312461399593 ], [ 78.708674485146219, 11.232844496168985 ], [ 78.707625829612752, 11.232401784577414 ], [ 78.706210779122728, 11.231579467155276 ], [ 78.705674952022036, 11.231136620574704 ], [ 78.704864388666451, 11.230639600694641 ], [ 78.703600449180229, 11.229799152810852 ], [ 78.703284447914427, 11.229518976245107 ], [ 78.702881448406586, 11.229225260150075 ], [ 78.70271649795751, 11.228746160708521 ], [ 78.702766844037598, 11.228664784918822 ], [ 78.703242926883647, 11.228239774801933 ], [ 78.70372358484947, 11.227810242140023 ], [ 78.704282066563295, 11.227330969411558 ], [ 78.70489561769898, 11.227353419560879 ], [ 78.705600743094749, 11.2273803687252 ], [ 78.706882807888434, 11.227497574871787 ], [ 78.707583384215596, 11.227637525393012 ], [ 78.708842535681356, 11.227673365058289 ], [ 78.708837804254742, 11.227094783232085 ], [ 78.708755126010956, 11.226100364789012 ], [ 78.708864735746971, 11.225047133623534 ], [ 78.709203190403315, 11.223663870619831 ], [ 78.70989856009507, 11.221480440996769 ], [ 78.710740438721473, 11.219324091933895 ], [ 78.712159025878819, 11.216525721159822 ], [ 78.712443318411701, 11.215623202985579 ], [ 78.71252498694912, 11.21536393493359 ], [ 78.712776368803318, 11.213790842948349 ], [ 78.712606674351179, 11.21273768409324 ], [ 78.712178536388478, 11.211711947859389 ], [ 78.712157689185659, 11.211662001302065 ], [ 78.711645936036291, 11.211138906599388 ], [ 78.711264644317311, 11.210749160843868 ], [ 78.709222397282389, 11.209741693172209 ], [ 78.707349591374708, 11.208833612072413 ], [ 78.706566529043229, 11.208223582783923 ], [ 78.706255022048779, 11.207532070891856 ], [ 78.706227335073407, 11.206677761679927 ], [ 78.706341504657814, 11.20554316641241 ], [ 78.706341324994753, 11.204836979784707 ], [ 78.706341222586815, 11.204435719791643 ], [ 78.706188378732804, 11.203641504288443 ], [ 78.706171600898216, 11.203554324919573 ], [ 78.705717756745329, 11.202264620053395 ], [ 78.705557667080228, 11.201809683395142 ], [ 78.705182133562218, 11.201357755329333 ], [ 78.704481364995601, 11.200182675079065 ], [ 78.703276704436689, 11.197809863646995 ], [ 78.702200457149274, 11.196304893934848 ], [ 78.701499755956306, 11.19530609476168 ], [ 78.700460141067879, 11.193746867287041 ], [ 78.699525841070098, 11.192210212072251 ], [ 78.69881140643308, 11.191134566635228 ], [ 78.698536648618585, 11.190827253740547 ], [ 78.696700965589997, 11.191474041565058 ], [ 78.695094177787382, 11.192098172376436 ], [ 78.693386664586896, 11.192731352947234 ], [ 78.69158300470157, 11.1933645435894 ], [ 78.691161566374248, 11.193518166125735 ], [ 78.690255434848808, 11.193848465582574 ], [ 78.689728988854682, 11.194070056759227 ], [ 78.687366819407728, 11.194938379385086 ], [ 78.686204049985449, 11.195422252042896 ], [ 78.68531594135959, 11.195752385420443 ], [ 78.684235441447626, 11.195490403900477 ], [ 78.683063346614389, 11.195047626270298 ], [ 78.681708692555802, 11.194911571716593 ], [ 78.681131319271557, 11.194853580220405 ], [ 78.679817425370715, 11.195115964153892 ], [ 78.678485231889198, 11.195491348569085 ], [ 78.677858037140979, 11.195599929924247 ], [ 78.676800479303068, 11.195627210744266 ], [ 78.67590768416639, 11.19531092914168 ], [ 78.675165933558191, 11.194741492198963 ], [ 78.674772115730889, 11.19409515933528 ], [ 78.674451471971679, 11.192906394081545 ], [ 78.674130831805726, 11.191731186992103 ], [ 78.674002579332623, 11.191274666063341 ], [ 78.673892562659773, 11.190284757958617 ], [ 78.673809941908161, 11.188779543803044 ], [ 78.673416053113954, 11.187550104905339 ], [ 78.673122956192941, 11.186831432933838 ], [ 78.673109119442614, 11.186099163265453 ], [ 78.672948832148151, 11.185701407588835 ], [ 78.672481822286457, 11.185335335008096 ], [ 78.671460856423323, 11.184847288627026 ], [ 78.67033913821291, 11.184074480601538 ], [ 78.668819074666118, 11.182772851888098 ], [ 78.667299022797465, 11.181439574683836 ], [ 78.66696936534268, 11.181082518225224 ], [ 78.666621387646032, 11.180630538424882 ], [ 78.666126832742762, 11.179468903323647 ], [ 78.665888710022202, 11.178858702002238 ], [ 78.665618538107253, 11.178212344280537 ], [ 78.665366695417347, 11.177697068614355 ], [ 78.665096540570374, 11.177204396772 ], [ 78.664409745298016, 11.176200986111315 ], [ 78.663997678195713, 11.175681207931625 ], [ 78.663818641264626, 11.175457677973109 ], [ 78.663794818841595, 11.175427935596609 ], [ 78.663750386371035, 11.175372462429751 ], [ 78.663732821612285, 11.175350532609468 ], [ 78.663556417643292, 11.175130293105578 ], [ 78.66321933740933, 11.174709445959017 ], [ 78.662344868802776, 11.173782893388534 ], [ 78.661301048002187, 11.173068804358028 ], [ 78.66063928159025, 11.172703256056806 ], [ 78.659648362576746, 11.172155878367262 ], [ 78.657995690626066, 11.171279106369655 ], [ 78.65577079543263, 11.170302924926053 ], [ 78.654635462355728, 11.169787708356653 ], [ 78.652872965073385, 11.169096243946909 ], [ 78.651650661602233, 11.168531300377815 ], [ 78.651202023186414, 11.168264636563134 ], [ 78.651266065879668, 11.167559480085172 ], [ 78.651362154174024, 11.166881444140161 ], [ 78.651362106563312, 11.166153690159778 ], [ 78.651496529564113, 11.165378391967627 ], [ 78.651503962224766, 11.165335524935074 ], [ 78.651507257245242, 11.165292300083314 ], [ 78.651554274168888, 11.164675571011411 ], [ 78.651645772072158, 11.163843847847863 ], [ 78.651982851407794, 11.163644876379298 ], [ 78.652044015898866, 11.163608770559888 ], [ 78.652808513646661, 11.163938694280194 ], [ 78.653953509002761, 11.164389952732478 ], [ 78.653966705254291, 11.164395153373896 ], [ 78.654077513342898, 11.164427843999258 ], [ 78.654763243213324, 11.164630145418935 ], [ 78.655001218610209, 11.164599901345836 ], [ 78.655816082201071, 11.164496337162074 ], [ 78.655866458823866, 11.164489934408818 ], [ 78.657056625964017, 11.164064937575327 ], [ 78.657337510288755, 11.16388911668898 ], [ 78.657506774447839, 11.163783163882254 ], [ 78.657706624445737, 11.163658066177385 ], [ 78.658246767053015, 11.163377767416357 ], [ 78.658818965142913, 11.163233069888774 ], [ 78.659345396764024, 11.163219462326266 ], [ 78.660677520176961, 11.163391106169362 ], [ 78.661854004178693, 11.163580841602084 ], [ 78.663666819693418, 11.164032676991477 ], [ 78.664087700166974, 11.164141228708159 ], [ 78.664335378267197, 11.164205107368876 ], [ 78.665488795329054, 11.164502582159805 ], [ 78.666623372024489, 11.164583025051204 ], [ 78.666825496556669, 11.164597355227796 ], [ 78.667983675587891, 11.164750906639194 ], [ 78.668077987912909, 11.164768033217284 ], [ 78.668078058879814, 11.164768046437006 ], [ 78.669302085319671, 11.16499031730196 ], [ 78.669456487750708, 11.165118788980557 ], [ 78.669461954897514, 11.165123337437279 ], [ 78.670263509049136, 11.165790272970405 ], [ 78.670945636675285, 11.166133721438761 ], [ 78.671536195431258, 11.166368695331498 ], [ 78.672108357588542, 11.165975360566321 ], [ 78.672584399112111, 11.165663403813138 ], [ 78.673234412865185, 11.165505108782506 ], [ 78.67382486921322, 11.165016845717229 ], [ 78.674488486154658, 11.163968065037478 ], [ 78.674776772597298, 11.163226710292285 ], [ 78.67491859142784, 11.162602901589928 ], [ 78.67490478432191, 11.162101160871138 ], [ 78.67496878389602, 11.161499965408117 ], [ 78.675815658952061, 11.161558606060847 ], [ 78.675815566425555, 11.160934816689341 ], [ 78.675838336921387, 11.160148297592624 ], [ 78.675815285252895, 11.159045370596408 ], [ 78.675851842193367, 11.158615946791793 ], [ 78.676895566874194, 11.158810161630809 ], [ 78.677055688878653, 11.158195388573333 ], [ 78.677234013445712, 11.156875464398937 ], [ 78.677320809566794, 11.155718276643153 ], [ 78.677467135245095, 11.154705728838847 ], [ 78.678661910742662, 11.154927036163679 ], [ 78.678785409331283, 11.154325829377642 ], [ 78.678785293448598, 11.15360259609667 ], [ 78.678771477359547, 11.153073733925645 ], [ 78.678894863658769, 11.151771894776122 ], [ 78.678954199179913, 11.150696075604809 ], [ 78.67838200109, 11.150623841352882 ], [ 78.677910508635051, 11.150551588574476 ], [ 78.67793784257249, 11.14971534678328 ], [ 78.67801088997814, 11.148476799181026 ], [ 78.678084025418698, 11.147812317283249 ], [ 78.679370318582457, 11.1480155266211 ], [ 78.679979138291529, 11.14812843738228 ], [ 78.679892034048308, 11.147319332083855 ], [ 78.680578656844162, 11.147364424582182 ], [ 78.680367978553818, 11.146654786726415 ], [ 78.68011601818462, 11.145416288664558 ], [ 78.68089875712262, 11.145429723430327 ], [ 78.680697247038083, 11.144805966422073 ], [ 78.680312558789026, 11.143662415777243 ], [ 78.680065168149653, 11.142360634084746 ], [ 78.680014710678464, 11.14170973179937 ], [ 78.680047136266964, 11.140857517654306 ], [ 78.680051172397512, 11.140751440989224 ], [ 78.68011513514071, 11.140014636687557 ], [ 78.680288874706534, 11.13879867225009 ], [ 78.680668576407456, 11.137501310154217 ], [ 78.681029882407998, 11.135697686402136 ], [ 78.681304431813345, 11.135186857807295 ], [ 78.68137754838925, 11.134477172620089 ], [ 78.68124012232046, 11.133826284432484 ], [ 78.68100638607342, 11.132036318327524 ], [ 78.681006182155855, 11.130806819896337 ], [ 78.680969486874815, 11.130336722767833 ], [ 78.681614871609213, 11.130363740006571 ], [ 78.681990107784856, 11.129821252023387 ], [ 78.683244220600187, 11.129649273696737 ], [ 78.684562392278451, 11.129368794073097 ], [ 78.686406940780557, 11.129124375806967 ], [ 78.686905837241611, 11.129051963440745 ], [ 78.687001847382518, 11.128464317657393 ], [ 78.68701555208051, 11.128057285386562 ], [ 78.687017627188794, 11.127995649945921 ], [ 78.687051918578163, 11.126977155608625 ], [ 78.687095960281596, 11.126632647246042 ], [ 78.687119424276815, 11.126224367835347 ], [ 78.687149382193226, 11.12621475583069 ], [ 78.687152467906216, 11.126190621368091 ], [ 78.687254135636806, 11.126181144221254 ], [ 78.688176195190522, 11.125885286440674 ], [ 78.688285671975891, 11.124994757608745 ], [ 78.68833293683457, 11.123970978257013 ], [ 78.68834644300486, 11.122791198744263 ], [ 78.68834632532554, 11.122176450059058 ], [ 78.687636816151198, 11.121819483857465 ], [ 78.687622962332895, 11.121168574437165 ], [ 78.68760912019269, 11.120580949774922 ], [ 78.687599710340095, 11.119220364593055 ], [ 78.687521573080033, 11.117475575999686 ], [ 78.687347414000953, 11.11623254740236 ], [ 78.687077127999984, 11.114908173674813 ], [ 78.687051974273686, 11.114281756254153 ], [ 78.687049538042658, 11.114221105143725 ], [ 78.687214239658431, 11.113863977589235 ], [ 78.687336994441992, 11.113649528607599 ], [ 78.687845644810352, 11.112760928078954 ], [ 78.688715071173249, 11.111797959250866 ], [ 78.689561617445875, 11.11088923600736 ], [ 78.690330331885647, 11.109885600078481 ], [ 78.691076127607573, 11.108732798686459 ], [ 78.691648028355104, 11.107724678268493 ], [ 78.691881322631005, 11.10711440223065 ], [ 78.692155678000233, 11.105875806584082 ], [ 78.692302004576874, 11.105238426018248 ], [ 78.69243918091405, 11.104614609407047 ], [ 78.693011232578513, 11.104393002924558 ], [ 78.694315519895738, 11.103963316927089 ], [ 78.694315377961928, 11.10328980389929 ], [ 78.694287634392708, 11.101951823587283 ], [ 78.694360487762253, 11.100175361341368 ], [ 78.69450223113428, 11.099542501063558 ], [ 78.694749124106991, 11.098376231588858 ], [ 78.694895451581928, 11.09778405294584 ], [ 78.695284189436265, 11.09648214657032 ], [ 78.695329817564513, 11.095835745153407 ], [ 78.695329768157166, 11.095603060074561 ], [ 78.695329760970665, 11.095571657562393 ], [ 78.695329693597017, 11.095261676689406 ], [ 78.695352414685502, 11.09450227496413 ], [ 78.695416328919649, 11.093765464854616 ], [ 78.696770905723071, 11.093322195588595 ], [ 78.69788284756828, 11.092558039124917 ], [ 78.698257998403989, 11.09197936790112 ], [ 78.698555199727508, 11.090754323424576 ], [ 78.698838526571507, 11.088900966569778 ], [ 78.698989277350933, 11.087689513230837 ], [ 78.699065095160876, 11.087302144325076 ], [ 78.699083072246367, 11.087210296653472 ], [ 78.699096843419667, 11.087139937592097 ], [ 78.699126413263869, 11.086988847989472 ], [ 78.699624839007697, 11.085185167569994 ], [ 78.699812308424328, 11.08445736905467 ], [ 78.700320294039415, 11.084457253570676 ], [ 78.700516764575198, 11.083092101061842 ], [ 78.700717720399183, 11.081338208647143 ], [ 78.700777056818652, 11.080664681382737 ], [ 78.700854719768216, 11.080081553204854 ], [ 78.701005590023541, 11.079430606284136 ], [ 78.701055769017017, 11.07873899971076 ], [ 78.701051074421358, 11.077866600404128 ], [ 78.701041416633728, 11.076072068340718 ], [ 78.701018106250402, 11.074232340372353 ], [ 78.701104475671741, 11.071746193787234 ], [ 78.701067580066393, 11.07052121974195 ], [ 78.700984908110769, 11.069237493204094 ], [ 78.701035091595799, 11.068573008047494 ], [ 78.701767188009654, 11.068156979268586 ], [ 78.703171848585114, 11.067184803191626 ], [ 78.704224177329763, 11.066388993848319 ], [ 78.705093482420097, 11.065706230789512 ], [ 78.706196120413921, 11.064833558141139 ], [ 78.707673954159162, 11.063807101203075 ], [ 78.708666763228038, 11.062988690247495 ], [ 78.709773971849984, 11.062174767118195 ], [ 78.709883656146189, 11.061636831288109 ], [ 78.709732118442588, 11.059625366032753 ], [ 78.709722842438964, 11.059150744432483 ], [ 78.710079636201826, 11.058626305290565 ], [ 78.710477644669908, 11.058219382033323 ], [ 78.710550687584018, 11.057568449117209 ], [ 78.710518359911859, 11.056447438923145 ], [ 78.711680723295657, 11.056646027700857 ], [ 78.711730777423284, 11.055597320255387 ], [ 78.712321099922363, 11.055664967907104 ], [ 78.712961746043646, 11.055682877617844 ], [ 78.714732748575159, 11.055994297813246 ], [ 78.715560951249643, 11.055795179608124 ], [ 78.717652139399547, 11.055627349047185 ], [ 78.717720944062123, 11.056196878973559 ], [ 78.717799069644059, 11.057344996990492 ], [ 78.717909301912556, 11.058750757721727 ], [ 78.717973756034198, 11.060093248563195 ], [ 78.718312484676687, 11.060432170031424 ], [ 78.718362991555239, 11.06101526592683 ], [ 78.718358971594327, 11.062922804003195 ], [ 78.718436913021648, 11.063424527561073 ], [ 78.718514930805767, 11.064192945148791 ], [ 78.719059512887213, 11.064265112635011 ], [ 78.719549180955298, 11.064332775037135 ], [ 78.7196501731528, 11.065404040837031 ], [ 78.719677804432635, 11.065996181883282 ], [ 78.719682569096875, 11.066629013362556 ], [ 78.719678176335137, 11.067248286974815 ], [ 78.719577844399382, 11.06841453422936 ], [ 78.719591765591346, 11.069065443052772 ], [ 78.719729394679376, 11.070218062352302 ], [ 78.719876212634503, 11.071492724428255 ], [ 78.720096247776809, 11.072749285391314 ], [ 78.720215438045329, 11.073445364320319 ], [ 78.720233902017711, 11.07397874533541 ], [ 78.721506182361338, 11.07421342414043 ], [ 78.722027923878343, 11.074357917250508 ], [ 78.723240739343453, 11.074669449834193 ], [ 78.725167460337843, 11.074976239155555 ], [ 78.7264168246586, 11.075075299391683 ], [ 78.727602090590537, 11.075083966257125 ], [ 78.729482929233527, 11.075006523384188 ], [ 78.73077341573304, 11.074906660881638 ], [ 78.731156822086177, 11.074820564312585 ], [ 78.731519296794886, 11.074739168336743 ], [ 78.73202266776434, 11.074671198901935 ], [ 78.733194158031409, 11.074544243356186 ], [ 78.73518935759995, 11.074349200994689 ], [ 78.736434090207098, 11.07429001208312 ], [ 78.736823055335208, 11.074362303148368 ], [ 78.736825663144486, 11.074362788021487 ], [ 78.736969310944943, 11.074389486015967 ], [ 78.73699243537699, 11.074393783754589 ], [ 78.737669759711324, 11.074483953381725 ], [ 78.739541625981246, 11.074921755394298 ], [ 78.742164023891277, 11.075386395709154 ], [ 78.742749826067822, 11.075476587951737 ], [ 78.742951358610213, 11.075942096626429 ], [ 78.74323072837538, 11.076511542100247 ], [ 78.743565021137016, 11.077094528405595 ], [ 78.74414205755302, 11.078197249754435 ], [ 78.744323418425751, 11.078555182592982 ], [ 78.744696215675376, 11.079290937880936 ], [ 78.744761124344549, 11.079517916303145 ], [ 78.744818046092533, 11.079716966369741 ], [ 78.744826033013723, 11.079744895430876 ], [ 78.744847438070323, 11.079819746994215 ], [ 78.744943765316549, 11.080402820155015 ], [ 78.745186729956501, 11.081487582996791 ], [ 78.745379282041014, 11.082382514844962 ], [ 78.74548938135888, 11.083069546317779 ], [ 78.745123238828839, 11.083041866174336 ], [ 78.74483493262322, 11.083020069569207 ], [ 78.743960852088875, 11.083070115806349 ], [ 78.743073030923881, 11.083088524568039 ], [ 78.743013764573007, 11.083694256106162 ], [ 78.741956616366892, 11.083721763402222 ], [ 78.741425748864884, 11.083721955582149 ], [ 78.741352724815457, 11.084259888741663 ], [ 78.741302527855694, 11.084648644839694 ], [ 78.74083114769013, 11.084635253996112 ], [ 78.740100980857505, 11.084698574432728 ], [ 78.739993681588402, 11.084707878378337 ], [ 78.739924779009499, 11.084997585853246 ], [ 78.739649353746756, 11.085464974720358 ], [ 78.739271049824396, 11.085942155126956 ], [ 78.738868586610835, 11.086679094269243 ], [ 78.738685685127393, 11.087117620296935 ], [ 78.73813044004352, 11.08840767458366 ], [ 78.737954056735802, 11.088817479963284 ], [ 78.737820600322266, 11.089285740740557 ], [ 78.737762083166359, 11.089491060737597 ], [ 78.737602597169101, 11.091425770826099 ], [ 78.737488411415043, 11.092063162141471 ], [ 78.737200545383899, 11.09334700361461 ], [ 78.737095522445756, 11.094020553674943 ], [ 78.736958398210874, 11.094508785039389 ], [ 78.737237690720917, 11.094843184094232 ], [ 78.737136998560729, 11.094825138379832 ], [ 78.736867096140344, 11.095155207904233 ], [ 78.736858169581353, 11.095792561994482 ], [ 78.736858213598822, 11.095919128379901 ], [ 78.736616072714, 11.097103509657112 ], [ 78.736575097858918, 11.097709232427503 ], [ 78.735485948967437, 11.097985341086876 ], [ 78.734657694190645, 11.098333679970425 ], [ 78.734429037916513, 11.098844542280482 ], [ 78.73430569473642, 11.099500015728394 ], [ 78.73430879212755, 11.09967983436473 ], [ 78.734310071328508, 11.099754133405304 ], [ 78.734315036317071, 11.100042437586612 ], [ 78.734407033683667, 11.10137587102467 ], [ 78.734366047150488, 11.101963514097134 ], [ 78.734659107240574, 11.102392834569599 ], [ 78.735043732607579, 11.102908008254131 ], [ 78.735112490557725, 11.10321535942928 ], [ 78.735455956915047, 11.10381191075134 ], [ 78.735327974834846, 11.104286578017149 ], [ 78.735287226355226, 11.105552252835157 ], [ 78.735639745035641, 11.10585046543779 ], [ 78.736999114351107, 11.106030806413683 ], [ 78.737525480395234, 11.106125547394367 ], [ 78.737534822874181, 11.106654408440608 ], [ 78.737525939434349, 11.107409287383616 ], [ 78.737553573409102, 11.107888419698225 ], [ 78.737398234035211, 11.108652390602046 ], [ 78.738061877027789, 11.108661199272241 ], [ 78.738075999442358, 11.10974604583974 ], [ 78.738689275693559, 11.109687066837122 ], [ 78.74063435465915, 11.109464882428346 ], [ 78.741087626585227, 11.109912220783741 ], [ 78.742195494570623, 11.110630531997367 ], [ 78.742666959177811, 11.11075692535112 ], [ 78.743673917610693, 11.110883120317675 ], [ 78.744749535179054, 11.111022847663511 ], [ 78.74496027006326, 11.111542592430864 ], [ 78.745061262260762, 11.112324552563859 ], [ 78.74558313493182, 11.112604609616177 ], [ 78.746127766420585, 11.112554682148975 ], [ 78.74596772885775, 11.112952521169699 ], [ 78.745876345040557, 11.113350334085194 ], [ 78.74641191612136, 11.113539981386069 ], [ 78.746975803896547, 11.113760046284987 ], [ 78.746996708591539, 11.113768205158586 ], [ 78.74766160383561, 11.114027687366391 ], [ 78.748812785889058, 11.115957372725909 ], [ 78.752780942739676, 11.116085673017226 ], [ 78.752821903221687, 11.116610034665056 ], [ 78.755545225057233, 11.116534350734629 ], [ 78.755961128864101, 11.117926751387685 ], [ 78.756798723424922, 11.117909020017377 ], [ 78.756894443410005, 11.118840223128341 ], [ 78.758395505791881, 11.119288345699417 ], [ 78.759155267621551, 11.11933838131376 ], [ 78.759598482009679, 11.121142126641489 ], [ 78.759671542890047, 11.12155349558649 ], [ 78.760650723617758, 11.121473309635324 ], [ 78.760715140908445, 11.121468035066504 ], [ 78.760628740046116, 11.120111936195674 ], [ 78.763004281814361, 11.119932079026968 ], [ 78.765435009785477, 11.119087752733899 ], [ 78.766533663750977, 11.118645196235752 ], [ 78.772721895435211, 11.11826329639973 ], [ 78.773449926074079, 11.117477041863332 ], [ 78.776672321338765, 11.116899603835366 ], [ 78.776755905084386, 11.113563714064639 ], [ 78.776769904429756, 11.112817882601624 ], [ 78.778742509572268, 11.112922534403513 ], [ 78.779410689955341, 11.113058369079123 ], [ 78.779391730112934, 11.114920691361393 ], [ 78.783437689152009, 11.115062174413769 ], [ 78.786499452169167, 11.115686954163133 ], [ 78.787259203219051, 11.115754997795714 ], [ 78.788454701860402, 11.115664884096342 ], [ 78.788513316034368, 11.115660466204366 ], [ 78.791067367422613, 11.115281554148003 ], [ 78.793150020679022, 11.114793994824787 ], [ 78.795100017920745, 11.114035169265236 ], [ 78.79611629817137, 11.113334828148171 ], [ 78.796652022864095, 11.112557503741712 ], [ 78.797498754189647, 11.112539662742366 ], [ 78.799132188718531, 11.114361766126937 ], [ 78.800313030447697, 11.114375650110484 ], [ 78.800404652318491, 11.114077339563547 ], [ 78.803100482113067, 11.113983137978868 ], [ 78.803352485601422, 11.112966154882562 ], [ 78.803970421414007, 11.112762906101329 ], [ 78.803906525146161, 11.112084857044737 ], [ 78.804735043129341, 11.111700851588937 ], [ 78.809881696207952, 11.111822624671166 ], [ 78.809948079910825, 11.111824196340189 ], [ 78.810936706423703, 11.111738547858913 ], [ 78.809848473813801, 11.107421476597038 ], [ 78.809327214692075, 11.105418893425909 ], [ 78.809181804397042, 11.101210531296504 ], [ 78.80848614904103, 11.101187760218567 ], [ 78.808275984587041, 11.099736526986762 ], [ 78.808266847822296, 11.099673431949071 ], [ 78.807786884254199, 11.097349918779448 ], [ 78.807233663074683, 11.095180074836794 ], [ 78.806543126319141, 11.093109638268929 ], [ 78.80615458160257, 11.091310490568498 ], [ 78.806022122318964, 11.0903069671823 ], [ 78.806100054763121, 11.089796201900826 ], [ 78.806718520581725, 11.087332833671542 ], [ 78.806865166958588, 11.086559912159347 ], [ 78.807882004164696, 11.083169993154035 ], [ 78.808074542774477, 11.081868215632948 ], [ 78.808056411178768, 11.081181134615589 ], [ 78.807992418791201, 11.08087374439889 ], [ 78.807251535057233, 11.078934382078959 ], [ 78.809654187082458, 11.078704437587737 ], [ 78.813695155081817, 11.078547176129897 ], [ 78.81604289489033, 11.078258406434513 ], [ 78.819337911759234, 11.078082822055917 ], [ 78.82115461787744, 11.078603022130778 ], [ 78.821772445892179, 11.078508221977604 ], [ 78.824349024332818, 11.078074785606372 ], [ 78.828440347395414, 11.077741046189169 ], [ 78.829232077571092, 11.077619139888883 ], [ 78.830719479272446, 11.077122172085353 ], [ 78.8325821207427, 11.076702103710646 ], [ 78.83431659957138, 11.076413089759743 ], [ 78.837918215040006, 11.076128865159465 ], [ 78.838897550277906, 11.076119968232021 ], [ 78.838888361410866, 11.076368579597135 ], [ 78.839964419153745, 11.076432503942947 ], [ 78.840032434197155, 11.076436544229828 ], [ 78.840279395441783, 11.077566638406601 ], [ 78.840480439300705, 11.079781577609655 ], [ 78.840695427707757, 11.080500325229657 ], [ 78.840860149086453, 11.080703758667521 ], [ 78.841221658106249, 11.080893658135061 ], [ 78.842393168136283, 11.08125091327646 ], [ 78.842508612430066, 11.082748115680971 ], [ 78.842521082842836, 11.082909854095938 ], [ 78.843710905928234, 11.08329422886921 ], [ 78.843912234553059, 11.083556427790723 ], [ 78.843912197722133, 11.083841202320905 ], [ 78.843509370690853, 11.084591509393983 ], [ 78.843737881437875, 11.086982739733303 ], [ 78.84402153706526, 11.087642730391456 ], [ 78.844337239192086, 11.088239439573222 ], [ 78.845719269408946, 11.088863401346364 ], [ 78.846144794172488, 11.089604770805732 ], [ 78.847462768221362, 11.090188036027126 ], [ 78.847906788398319, 11.089383486159246 ], [ 78.852185838694069, 11.089442706397078 ], [ 78.852638993839122, 11.088674312785386 ], [ 78.853453617579817, 11.088638229409103 ], [ 78.854098801091595, 11.089741226355271 ], [ 78.856693727621902, 11.089406960746286 ], [ 78.858972808294951, 11.089809446172261 ], [ 78.860771362156214, 11.090175719152754 ], [ 78.862130599419345, 11.090135130411097 ], [ 78.863366348873654, 11.088837905335568 ], [ 78.863874548287754, 11.08556077141944 ], [ 78.870588255785634, 11.085005116981391 ], [ 78.870579133393917, 11.084263797568395 ], [ 78.872487514383522, 11.084236745207097 ], [ 78.872489291251142, 11.084245149978498 ], [ 78.872702574655804, 11.085253805425454 ], [ 78.872656718355472, 11.088056345123077 ], [ 78.872070923365428, 11.088092487634778 ], [ 78.872047962426777, 11.090330000925521 ], [ 78.871713873582721, 11.090329988583964 ], [ 78.871667994824534, 11.093485106759312 ], [ 78.873384206411913, 11.093923624339462 ], [ 78.873137042147988, 11.094786982413957 ], [ 78.873205631214915, 11.096721640691758 ], [ 78.874505402701175, 11.096617711217423 ], [ 78.87458776294136, 11.097322869392325 ], [ 78.876720494579899, 11.096766927901493 ], [ 78.877017947431739, 11.098484619139287 ], [ 78.879461894112225, 11.098123034778682 ], [ 78.879731908822023, 11.099099406287614 ], [ 78.880221614619359, 11.09900448407984 ], [ 78.880377219894584, 11.099442948417899 ], [ 78.881626656080527, 11.099072293593585 ], [ 78.881539700059349, 11.098579589999344 ], [ 78.882455035723154, 11.098534388577566 ], [ 78.882564875427889, 11.098963810176301 ], [ 78.884226211629496, 11.098918601761893 ], [ 78.884322324178385, 11.099338982006817 ], [ 78.885187317355346, 11.099244050180245 ], [ 78.885132394358877, 11.098909553907562 ], [ 78.885631251294058, 11.098850786041869 ], [ 78.885869258131919, 11.100450943171579 ], [ 78.886358964827608, 11.100405734105856 ], [ 78.886464248277221, 11.10173919938217 ], [ 78.889269776741031, 11.101585459589723 ], [ 78.889315503683946, 11.099885854029376 ], [ 78.892432228325134, 11.099741118777487 ], [ 78.895164495584311, 11.099325153724704 ], [ 78.895251488436429, 11.100093588085459 ], [ 78.89612563544614, 11.100057387115505 ], [ 78.89796542377556, 11.099230096718841 ], [ 78.899237703220891, 11.098556513712225 ], [ 78.903539575216413, 11.095749179605001 ], [ 78.903855430056822, 11.096657724307422 ], [ 78.905081969982817, 11.096653113074781 ], [ 78.905146085439611, 11.097191016266116 ], [ 78.906243211370821, 11.097043547851099 ], [ 78.906312662820397, 11.097034212563452 ], [ 78.912885098561759, 11.096150676925355 ], [ 78.912939520298281, 11.096293965616752 ], [ 78.912994968809215, 11.096439961388668 ], [ 78.916615059928276, 11.096159316720563 ], [ 78.916468482721683, 11.095083519652579 ], [ 78.917434131227893, 11.094929720820732 ], [ 78.917905442223216, 11.094260672172647 ], [ 78.917516230956707, 11.092597272614563 ], [ 78.918610021443243, 11.092479618851023 ], [ 78.918774725753977, 11.09206825829032 ], [ 78.921360424789682, 11.091575229057712 ], [ 78.921168120640175, 11.090906260883374 ], [ 78.922701231318129, 11.090648406603322 ], [ 78.922838480418804, 11.090300330953317 ], [ 78.924646166553259, 11.089965586425684 ], [ 78.925364665168658, 11.089829876764473 ], [ 78.926335756567198, 11.08945856798276 ], [ 78.926417208610644, 11.089427423983684 ], [ 78.927062544836019, 11.08972114484718 ], [ 78.928797501568411, 11.09255958357012 ], [ 78.929442965354582, 11.093599135268727 ], [ 78.932166092255713, 11.09389703302997 ], [ 78.934321659068758, 11.093819824336057 ], [ 78.934404120818598, 11.094289914202006 ], [ 78.938189057283878, 11.094718657094214 ], [ 78.939333229783145, 11.094813368246907 ], [ 78.942534399654306, 11.094348422053184 ], [ 78.942605414172462, 11.094338108184125 ], [ 78.943982951914549, 11.094238385393076 ], [ 78.944898222899681, 11.093998623896033 ], [ 78.94486153480517, 11.093646053791792 ], [ 78.945369549166315, 11.093700191150111 ], [ 78.945177220762318, 11.093175884433807 ], [ 78.946778301567932, 11.092807264167561 ], [ 78.946847591320719, 11.09279131196579 ], [ 78.949845264033939, 11.092826818307548 ], [ 78.949872989636887, 11.093988509240026 ], [ 78.95224365355314, 11.093920166102981 ], [ 78.952600808438731, 11.094665919788344 ], [ 78.953497806792669, 11.094593385151219 ], [ 78.954015003732664, 11.094755990605186 ], [ 78.956065298774178, 11.094637970114277 ], [ 78.960394784083249, 11.094668521172427 ], [ 78.965323726859467, 11.094418591614071 ], [ 78.966861588726985, 11.09431733587448 ], [ 78.966943817813117, 11.094311922414972 ], [ 78.96856390607185, 11.094205232901773 ], [ 78.96865550009484, 11.094417657195425 ], [ 78.972014706082376, 11.094330792389087 ], [ 78.973955173097266, 11.094280485384463 ], [ 78.974645990127158, 11.093480195756452 ], [ 78.977432792310594, 11.09241707761187 ], [ 78.980384212566463, 11.09099226191943 ], [ 78.980077269013648, 11.090047635793701 ], [ 78.980855236100822, 11.089911776308707 ], [ 78.980864051268711, 11.088903763707867 ], [ 78.984121668577387, 11.088817891644309 ], [ 78.984163696257951, 11.088816784425134 ], [ 78.98409905888002, 11.087180484435262 ], [ 78.984492496719952, 11.086773532101873 ], [ 78.98466167014918, 11.086325972300573 ], [ 78.9851649449989, 11.085928022075253 ], [ 78.985462359223192, 11.085765192203509 ], [ 78.985237382448474, 11.083676926411348 ], [ 78.984861651301088, 11.082348108307563 ], [ 78.984925562840289, 11.081896063384754 ], [ 78.985044379409686, 11.081407840048982 ], [ 78.984736871714873, 11.078854016925636 ], [ 78.986576466906527, 11.078555053001446 ], [ 78.986576344735653, 11.078211516297594 ], [ 78.988772907064998, 11.077962136881652 ], [ 78.988667443952338, 11.07738810561486 ], [ 78.990658373828339, 11.077984067863245 ], [ 78.992818426827924, 11.078019447292716 ], [ 78.993541313713465, 11.077549078256975 ], [ 78.993344215255291, 11.076712909241998 ], [ 78.994620882072439, 11.07636889961119 ], [ 78.996208808847356, 11.07621461840834 ], [ 78.997380337742001, 11.076187052222071 ], [ 78.998251318190341, 11.076211534634757 ], [ 78.998332224956386, 11.076213809116124 ], [ 78.998079928617287, 11.074690591161003 ], [ 78.998615329018179, 11.074622582043535 ], [ 78.998568285145083, 11.071377079268911 ], [ 78.99879105655576, 11.070278110765212 ], [ 78.999793371596937, 11.070020881872308 ], [ 79.000310504756555, 11.069899123992467 ], [ 79.000283174412345, 11.069673062030233 ], [ 79.000046982171327, 11.065826241291733 ], [ 79.000893522155735, 11.065799538990069 ], [ 79.000839591797629, 11.063589074031754 ], [ 79.000982069093268, 11.062341568602422 ], [ 79.001337791165994, 11.061496795576058 ], [ 79.001375993820091, 11.061406071815867 ], [ 79.001705860582334, 11.060615123948748 ], [ 79.003197635282476, 11.060624867710873 ], [ 79.004881638673666, 11.060634590313594 ], [ 79.005984563230044, 11.060291501615181 ], [ 79.006447421078505, 11.058854294211763 ], [ 79.00699651000771, 11.058917765693558 ], [ 79.008488121214498, 11.059406609285366 ], [ 79.009101108208171, 11.059894984797538 ], [ 79.00935713165741, 11.060410467840743 ], [ 79.010263147300137, 11.060415336198737 ], [ 79.011123099131751, 11.061351391572435 ], [ 79.012701342966182, 11.062545284433391 ], [ 79.01315430766843, 11.062708268280991 ], [ 79.014064962211293, 11.062844202107874 ], [ 79.01843514210104, 11.062904652288731 ], [ 79.018370852371092, 11.063496799267735 ], [ 79.018250744922639, 11.066443920002863 ], [ 79.020364794298231, 11.066715936645924 ], [ 79.022341525402808, 11.067078278344065 ], [ 79.022181645943505, 11.06653126739606 ], [ 79.02295944055416, 11.06676202900332 ], [ 79.023897367949061, 11.067246110282399 ], [ 79.024400385880597, 11.067655279684086 ], [ 79.02441439241251, 11.067666671818419 ], [ 79.024419713133952, 11.067701141794107 ], [ 79.024533020335667, 11.068435132938909 ], [ 79.024367909986466, 11.06952439663046 ], [ 79.024193638617945, 11.070582118835647 ], [ 79.023804509098142, 11.071061144892326 ], [ 79.023799680653482, 11.071734587583888 ], [ 79.024417394582173, 11.071915673396109 ], [ 79.024439809345154, 11.07313163262716 ], [ 79.02521768480419, 11.073330724945517 ], [ 79.02540480118293, 11.074709466809125 ], [ 79.025889867181832, 11.074809130140441 ], [ 79.025756941672626, 11.075387703098839 ], [ 79.027116066646357, 11.075492087963669 ], [ 79.029189019894318, 11.075854463762751 ], [ 79.030420051396717, 11.07605824160283 ], [ 79.030245824045664, 11.076984844055785 ], [ 79.030565851560596, 11.077753439402871 ], [ 79.030588168407178, 11.079421358591304 ], [ 79.030780250672805, 11.079837271744724 ], [ 79.031233199205388, 11.080131274645343 ], [ 79.031809607699032, 11.080678440903737 ], [ 79.032001690862941, 11.081225421009762 ], [ 79.032125004398637, 11.08193061631507 ], [ 79.031726342855322, 11.083435752808432 ], [ 79.032279873055316, 11.083883366400302 ], [ 79.033616144888214, 11.084195697230887 ], [ 79.035552870419977, 11.084085646170426 ], [ 79.035593178725065, 11.084083355882196 ], [ 79.035637317446543, 11.084092931367318 ], [ 79.036824217414008, 11.084350415003835 ], [ 79.036787346961475, 11.084951617140588 ], [ 79.03873242233378, 11.084839196742239 ], [ 79.039574389893403, 11.08513328806032 ], [ 79.041418483847977, 11.085689880227642 ], [ 79.043875874715027, 11.086251113586725 ], [ 79.046763578366139, 11.086527686188623 ], [ 79.047729831438545, 11.086609279878301 ], [ 79.047783008110088, 11.086613769615445 ], [ 79.047784143580614, 11.086613864822921 ], [ 79.048800068098359, 11.086700004643561 ], [ 79.048905707280838, 11.085452461060436 ], [ 79.050466239931168, 11.085461898978274 ], [ 79.051802727359743, 11.084924325941325 ], [ 79.052644784750868, 11.084929126893467 ], [ 79.053486933770174, 11.084933835282193 ], [ 79.054356432896597, 11.084974792354588 ], [ 79.054745211175145, 11.085553461575627 ], [ 79.055619177623512, 11.086263365391604 ], [ 79.055866004120844, 11.087547172392341 ], [ 79.056190878046721, 11.087547258784042 ], [ 79.056575144985914, 11.088162062772579 ], [ 79.05718341492603, 11.089830238196217 ], [ 79.057792052277122, 11.090024713983869 ], [ 79.057924593307405, 11.090571733026627 ], [ 79.058144266428656, 11.090734484409074 ], [ 79.058789348430835, 11.091733612756332 ], [ 79.059402316559897, 11.092728212783518 ], [ 79.059521161875324, 11.093469547756907 ], [ 79.05961243340316, 11.094355537741079 ], [ 79.059996737173265, 11.094902608621203 ], [ 79.060129289881672, 11.095476713051667 ], [ 79.060417632918174, 11.095386318056127 ], [ 79.060861282989222, 11.096828442120572 ], [ 79.061240932587879, 11.097795782409307 ], [ 79.061666539098141, 11.097827557563962 ], [ 79.062284431791596, 11.097669523604976 ], [ 79.063016127556821, 11.099758037617216 ], [ 79.064439483869975, 11.100101886619719 ], [ 79.064620692029109, 11.100283089736623 ], [ 79.064656700997261, 11.100319097628091 ], [ 79.064828351081729, 11.100490742411345 ], [ 79.066072702803211, 11.103058447010627 ], [ 79.066644349327504, 11.104957099595003 ], [ 79.067673927339271, 11.105920078657899 ], [ 79.068506341315825, 11.108180401337364 ], [ 79.068954906968116, 11.108379371938897 ], [ 79.06940781777142, 11.108894776583899 ], [ 79.069371082066226, 11.109441703868303 ], [ 79.069142200314957, 11.109721977887871 ], [ 79.068817214099681, 11.109757995192762 ], [ 79.068007131342767, 11.109717154424692 ], [ 79.06767749724419, 11.110132971566019 ], [ 79.067626629242909, 11.112822439809147 ], [ 79.067173465114706, 11.112912763295437 ], [ 79.067045261150611, 11.113364813990495 ], [ 79.066651513391918, 11.113938736671177 ], [ 79.066092877167861, 11.114770322185981 ], [ 79.066701322279471, 11.116013525375555 ], [ 79.066792744724253, 11.116845335916318 ], [ 79.066926082560187, 11.117069134824204 ], [ 79.06698103160781, 11.117161363589654 ], [ 79.067080911690979, 11.117329002817787 ], [ 79.06743327316623, 11.117844401345195 ], [ 79.067497191891945, 11.118323540318716 ], [ 79.06716759642093, 11.118865958037201 ], [ 79.066288611085113, 11.1195663528603 ], [ 79.065079940446722, 11.121157251378525 ], [ 79.064521387766007, 11.121957184812119 ], [ 79.064516668017518, 11.122440829129118 ], [ 79.064937565559049, 11.12320933041425 ], [ 79.065189174686978, 11.123819630064773 ], [ 79.065248531767693, 11.124366589293572 ], [ 79.065019517065792, 11.125067212410933 ], [ 79.065284721297232, 11.126323866388093 ], [ 79.065399043595249, 11.126866332679322 ], [ 79.06464824335886, 11.127598441403347 ], [ 79.063929509384877, 11.128140649707763 ], [ 79.063311552911031, 11.128004953392859 ], [ 79.061174030557083, 11.128090279781805 ], [ 79.061178696406671, 11.127737712091593 ], [ 79.060171760431643, 11.127597365181234 ], [ 79.059851535287393, 11.126991632192764 ], [ 79.060053144186611, 11.125997165698292 ], [ 79.059632072371912, 11.125902162336807 ], [ 79.059572694629921, 11.125549534705277 ], [ 79.059247671583748, 11.125544955660841 ], [ 79.059178924413331, 11.125929216125565 ], [ 79.058432908604189, 11.126019380418974 ], [ 79.058400808205818, 11.126113184995697 ], [ 79.058070971088014, 11.127077020578495 ], [ 79.057448391883725, 11.127583123968179 ], [ 79.057827943565997, 11.129056853572129 ], [ 79.057214520889389, 11.129246498586337 ], [ 79.057141099784587, 11.129888412698875 ], [ 79.055067663243008, 11.129869795347949 ], [ 79.055199360755239, 11.133942569440324 ], [ 79.055785182694734, 11.134331455904368 ], [ 79.055995296843065, 11.135868344341993 ], [ 79.056012839143946, 11.138833575406206 ], [ 79.056098271622403, 11.140512845913499 ], [ 79.056099310074885, 11.140533242986722 ], [ 79.057069778940942, 11.140542467589526 ], [ 79.057133658140756, 11.141184420252511 ], [ 79.060566664322138, 11.141271105400307 ], [ 79.060360254826051, 11.143092751436354 ], [ 79.059875022638806, 11.142898254630211 ], [ 79.059641346578914, 11.143888072292988 ], [ 79.060158601909407, 11.143956003571763 ], [ 79.060185706776466, 11.145334721122842 ], [ 79.060570064445486, 11.1458817130817 ], [ 79.060733780609397, 11.150338693123302 ], [ 79.06018444644009, 11.150496756689666 ], [ 79.059790614239773, 11.151292269701585 ], [ 79.059520263560074, 11.152273058422628 ], [ 79.059530425302569, 11.152282607871919 ], [ 79.060650705310238, 11.153335538711996 ], [ 79.061730590774502, 11.153489400142337 ], [ 79.061794992793864, 11.153498575859942 ], [ 79.061798515088114, 11.153499057076134 ], [ 79.062358056813977, 11.153575533423275 ], [ 79.065342568309958, 11.153720875620236 ], [ 79.065598795676763, 11.154073480569833 ], [ 79.067544265409481, 11.154055833366606 ], [ 79.068092668924137, 11.154176306376577 ], [ 79.068903704793556, 11.154354473996776 ], [ 79.070753046706017, 11.154458797109926 ], [ 79.072468656422174, 11.159246097302367 ], [ 79.072330961757103, 11.160990853139051 ], [ 79.072866169918541, 11.162595673878686 ], [ 79.072445018153786, 11.162753728132628 ], [ 79.072696494331041, 11.164421768212431 ], [ 79.072179195881418, 11.164579824997508 ], [ 79.072462868576778, 11.165221818866755 ], [ 79.072426073582761, 11.165859115692147 ], [ 79.072606328629334, 11.167280883369001 ], [ 79.07260889691274, 11.167301136673073 ], [ 79.072617442586036, 11.16736683277319 ], [ 79.072677167976025, 11.167825940966356 ], [ 79.072685064167374, 11.167886639950252 ], [ 79.072750612437005, 11.168390514879935 ], [ 79.072983698303787, 11.170180579680064 ], [ 79.072260118817141, 11.171364663295027 ], [ 79.071028738768405, 11.171513653075182 ], [ 79.071270847313883, 11.173981669310846 ], [ 79.070423879731422, 11.174166820422046 ], [ 79.069709778369358, 11.174067304754889 ], [ 79.069691797690624, 11.174723246865231 ], [ 79.069691317990277, 11.174740735943669 ], [ 79.069690625389171, 11.174766012925833 ], [ 79.069672856712856, 11.175414258984654 ], [ 79.069365719123951, 11.177113823580044 ], [ 79.07170500758231, 11.177127848216077 ], [ 79.07189256593216, 11.178149445154785 ], [ 79.075875292558365, 11.178308465624267 ], [ 79.07645642619039, 11.179492796300686 ], [ 79.078168572901106, 11.179899940716677 ], [ 79.078360702777445, 11.180446968907905 ], [ 79.078411033586193, 11.180758836617784 ], [ 79.078264392599209, 11.181567967695102 ], [ 79.078300857013218, 11.182087802297017 ], [ 79.078314555422992, 11.182440379832981 ], [ 79.078135985615859, 11.182499065603674 ], [ 79.077842972238159, 11.182937486084505 ], [ 79.077874919024623, 11.183177065919663 ], [ 79.077769631981766, 11.183317127776917 ], [ 79.077659711428623, 11.183674214970399 ], [ 79.077467412669023, 11.183809842987115 ], [ 79.077330036007581, 11.183827849696071 ], [ 79.077041537562494, 11.184189447405259 ], [ 79.076840093054997, 11.184302428696373 ], [ 79.076775976699892, 11.184541926327718 ], [ 79.076675238725613, 11.184614254363758 ], [ 79.07659274643305, 11.184917075934706 ], [ 79.076418770610317, 11.185161171431888 ], [ 79.076322570026534, 11.185373553126654 ], [ 79.07630417612279, 11.185658344397481 ], [ 79.076349845573489, 11.186273097153146 ], [ 79.076148341777184, 11.186982716581976 ], [ 79.075969665968856, 11.187412163607986 ], [ 79.075974151257071, 11.187737602035007 ], [ 79.076070341959365, 11.187814449174279 ], [ 79.076084078098376, 11.187873213168539 ], [ 79.075964941728756, 11.188189568987841 ], [ 79.075717714582808, 11.188456226815156 ], [ 79.075703928138154, 11.188582846302721 ], [ 79.075809146010755, 11.188700338717817 ], [ 79.075841131424738, 11.189125307379012 ], [ 79.075777034832612, 11.18925177940703 ], [ 79.075770257942096, 11.189265151338322 ], [ 79.070631238746756, 11.189232746390813 ], [ 79.070635880341825, 11.188880187694979 ], [ 79.067234444552795, 11.18885684802993 ], [ 79.067974662635123, 11.195090366419596 ], [ 79.066770564421546, 11.195298007793694 ], [ 79.066687820600734, 11.196690213412325 ], [ 79.066257442239703, 11.196970331920708 ], [ 79.066659471566993, 11.200821697975579 ], [ 79.06630683341065, 11.201034024123587 ], [ 79.06592823214595, 11.204342285948744 ], [ 79.065926107630304, 11.204360849176362 ], [ 79.065956450923977, 11.204382005755788 ], [ 79.068961104445265, 11.206476956792461 ], [ 79.073131658915912, 11.208114068588433 ], [ 79.073063163273829, 11.207137684358518 ], [ 79.073772784737571, 11.207210163599923 ], [ 79.07456540873693, 11.204556980803515 ], [ 79.078044997955686, 11.203947435081826 ], [ 79.079885505835648, 11.203821114871836 ], [ 79.083918911816951, 11.204617425358682 ], [ 79.085480131678452, 11.204766784880688 ], [ 79.08563138102285, 11.203297751319086 ], [ 79.08739870674988, 11.203166995759068 ], [ 79.087407968380461, 11.202050471604142 ], [ 79.088337580969082, 11.20107421759125 ], [ 79.08912523459, 11.199754439268377 ], [ 79.091464723372638, 11.199768319171399 ], [ 79.091459979369603, 11.200464493577513 ], [ 79.093447093202272, 11.199849992134496 ], [ 79.093450021710098, 11.199877875299793 ], [ 79.095042911676941, 11.215042505140939 ], [ 79.09517551828425, 11.216724109986036 ], [ 79.097660514379982, 11.226194195153088 ], [ 79.098904649607448, 11.230645641609257 ], [ 79.098910009854734, 11.230664818164097 ], [ 79.103834611073211, 11.229478881013327 ], [ 79.10390093458895, 11.229462909002857 ], [ 79.10740339311819, 11.232188870871418 ], [ 79.111167312599079, 11.230602594803205 ], [ 79.109444639429881, 11.244384506641376 ], [ 79.110131381701649, 11.244687455896315 ], [ 79.1101514617432, 11.244696283343053 ], [ 79.114604908273236, 11.24665400857694 ], [ 79.122173996076242, 11.248729128599315 ], [ 79.122080804848693, 11.249315873178542 ], [ 79.122077791000905, 11.249334852897034 ], [ 79.122077148705486, 11.249339597385934 ], [ 79.121791869822374, 11.251446117187987 ], [ 79.120990503418668, 11.255363029089732 ], [ 79.119982889215606, 11.258852588889154 ], [ 79.122441936576038, 11.259065178940796 ], [ 79.122272366989762, 11.262803282097988 ], [ 79.121965529438157, 11.264109683746625 ], [ 79.120541423930021, 11.26371183730428 ], [ 79.119785689247806, 11.266817155050763 ], [ 79.11578787182313, 11.268105182856079 ], [ 79.115233592428197, 11.27043302559837 ], [ 79.108978207184904, 11.270229258277618 ], [ 79.10902793342747, 11.272290769758628 ], [ 79.109028470620004, 11.272313058707605 ], [ 79.109030720899796, 11.272379014604741 ], [ 79.109307136105969, 11.280481015751816 ], [ 79.109586275902416, 11.282872223923498 ], [ 79.113030114867797, 11.282800108162357 ], [ 79.11340084778891, 11.286981300937857 ], [ 79.11088653337724, 11.287546178320497 ], [ 79.111023787867836, 11.288956458368148 ], [ 79.112292217133842, 11.291053858385871 ], [ 79.112340653395663, 11.291138465399785 ], [ 79.112351750284347, 11.291157847584648 ], [ 79.112378465282589, 11.291205218618572 ], [ 79.113116543577917, 11.292513991197334 ], [ 79.114091917245432, 11.293734517787525 ], [ 79.115813922068057, 11.293648719653454 ], [ 79.118813666296305, 11.293327928698556 ], [ 79.120041003926289, 11.294408276615256 ], [ 79.12342079840181, 11.296026661694475 ], [ 79.124355005873099, 11.296230022228796 ], [ 79.125884652647315, 11.2959001158225 ], [ 79.130102631876795, 11.297577153073796 ], [ 79.136628840313634, 11.293002765366017 ], [ 79.13919434612005, 11.290092327603206 ], [ 79.139266671280225, 11.29001027762596 ], [ 79.139624028286775, 11.295741863151106 ], [ 79.140411724128484, 11.295746354051722 ], [ 79.140109493137643, 11.29642891287093 ], [ 79.14075070340094, 11.296433416093574 ], [ 79.140812676375774, 11.29697981274945 ], [ 79.140814790111634, 11.296998453694075 ], [ 79.140821704444363, 11.297027462951524 ], [ 79.140888046824742, 11.297305798747916 ], [ 79.141478851719114, 11.297260570212416 ], [ 79.141666669682095, 11.298865273724859 ], [ 79.142362777789003, 11.298431306305597 ], [ 79.142701708552437, 11.299113868424936 ], [ 79.142578172234565, 11.302318675649 ], [ 79.140911355411433, 11.309306840690461 ], [ 79.140219769423609, 11.309546468749495 ], [ 79.136574096980198, 11.310152273592127 ], [ 79.134503966238881, 11.310721751913949 ], [ 79.132836790987923, 11.310658482668945 ], [ 79.131403318746351, 11.310699167333752 ], [ 79.124963823785535, 11.310757849889731 ], [ 79.128875041820208, 11.321470719407863 ], [ 79.129149729566123, 11.324942201653535 ], [ 79.129215265259333, 11.325387325930864 ], [ 79.129883359404118, 11.329925051615596 ], [ 79.129887109870438, 11.329950533421169 ], [ 79.129899237126779, 11.330027785645109 ], [ 79.130047477114971, 11.330972097400871 ], [ 79.130775708976444, 11.332386912088189 ], [ 79.140710533436391, 11.332400337264295 ], [ 79.142725847182447, 11.33265793898445 ], [ 79.145625302594055, 11.333353909827025 ], [ 79.14710015842418, 11.333801338388856 ], [ 79.149610283991649, 11.334967425985687 ], [ 79.149749876796903, 11.335997473427058 ], [ 79.15009330003511, 11.338531564793715 ], [ 79.150096049778185, 11.338551858903985 ], [ 79.150103489625351, 11.338591765394666 ], [ 79.150316008563706, 11.339731629394405 ], [ 79.157404186872625, 11.338430768019577 ], [ 79.157461447285442, 11.338420259398948 ], [ 79.159372233963367, 11.346497619377017 ], [ 79.159603715439033, 11.348757609912633 ], [ 79.159606035787434, 11.348780259305093 ], [ 79.159582211567781, 11.348835421612897 ], [ 79.159354211063842, 11.349363339622702 ], [ 79.154984755216219, 11.355931486991837 ], [ 79.153899195992565, 11.356261540831586 ], [ 79.15257080867292, 11.356397260963591 ], [ 79.152662418865589, 11.357174729985264 ], [ 79.151970760114281, 11.357852806439217 ], [ 79.15162265126358, 11.357997417588674 ], [ 79.1506423602182, 11.357794098321795 ], [ 79.150230271556339, 11.360320894133993 ], [ 79.150656436818707, 11.362748169607322 ], [ 79.150752665250252, 11.363426181728196 ], [ 79.151091683150298, 11.363918881560743 ], [ 79.152273571416757, 11.364411472215368 ], [ 79.152612597401642, 11.364755049102374 ], [ 79.152710873992021, 11.365239677663658 ], [ 79.152713409037773, 11.365252182724644 ], [ 79.152713609362053, 11.36525407094566 ], [ 79.15271446365989, 11.365262136396991 ], [ 79.15285094559934, 11.366549448377269 ], [ 79.153139504231547, 11.366834282964808 ], [ 79.154568833443037, 11.36713247211622 ], [ 79.156043826715347, 11.367141406759648 ], [ 79.158109860240685, 11.367204521706936 ], [ 79.159681129555267, 11.367846231670915 ], [ 79.161344141114895, 11.368682255587501 ], [ 79.162768926647672, 11.369708219138749 ], [ 79.163501905207141, 11.370395207369317 ], [ 79.163223046583369, 11.375299603022777 ], [ 79.166370243875633, 11.375561394985525 ], [ 79.167052929355563, 11.376682321397634 ], [ 79.167048444067362, 11.377170472578847 ], [ 79.168147513952846, 11.378420763311842 ], [ 79.166292820776249, 11.37940352641658 ], [ 79.165865325108925, 11.379629073866983 ], [ 79.165510902000108, 11.379816066062171 ], [ 79.163842027136639, 11.380696556853035 ], [ 79.161446222070524, 11.381808776326546 ], [ 79.159888672725259, 11.382053004822298 ], [ 79.157259145785133, 11.382161734906381 ], [ 79.156379525340398, 11.382184349941408 ], [ 79.154034027726851, 11.382293082617274 ], [ 79.150323328934959, 11.382709187333708 ], [ 79.1482938110276, 11.382994058598868 ], [ 79.146905803420864, 11.383075530601047 ], [ 79.146099498079721, 11.383315107327496 ], [ 79.145297846011758, 11.383613421887439 ], [ 79.144312869353854, 11.383771675210136 ], [ 79.143589037440634, 11.383853145228386 ], [ 79.142471270020806, 11.384259950733504 ], [ 79.141051130574667, 11.385105298219786 ], [ 79.140351473224058, 11.3855118844173 ], [ 79.140275496412272, 11.385556035172394 ], [ 79.139223187430559, 11.386167546423035 ], [ 79.137001351899002, 11.387378952972238 ], [ 79.13519176223447, 11.38845937061657 ], [ 79.133872399390171, 11.389376958313076 ], [ 79.132713332823499, 11.390493370840838 ], [ 79.131513042568386, 11.391528565688127 ], [ 79.130587636790253, 11.392102531322175 ], [ 79.128924535399108, 11.393878948744876 ], [ 79.128393100161873, 11.394199907694547 ], [ 79.126931670551997, 11.394484635360667 ], [ 79.125131228431997, 11.394927569349409 ], [ 79.123655983631394, 11.395171651848683 ], [ 79.121397348614209, 11.396053011821023 ], [ 79.121069696199143, 11.396165752109853 ], [ 79.121000620245411, 11.396189519623221 ], [ 79.118927935593732, 11.396902684115524 ], [ 79.117196140032803, 11.39750832642283 ], [ 79.117102576902695, 11.397539531373329 ], [ 79.116559379125121, 11.397720700717716 ], [ 79.114570966328529, 11.398583915130857 ], [ 79.113114173822183, 11.399201808216475 ], [ 79.113034881328687, 11.399235439020112 ], [ 79.112706222800512, 11.399374835405023 ], [ 79.110878205096256, 11.400328433128792 ], [ 79.109105094218791, 11.40101541259571 ], [ 79.107634438910964, 11.401354289624669 ], [ 79.105875174665286, 11.401715746268904 ], [ 79.105233722755187, 11.401710465387039 ], [ 79.10516796607638, 11.401709922945283 ], [ 79.104212075969087, 11.401702048733746 ], [ 79.102745996679303, 11.401570782195813 ], [ 79.10154566689836, 11.40139434670675 ], [ 79.100157517357772, 11.401127552115369 ], [ 79.098247176244243, 11.400603013773107 ], [ 79.096419234896771, 11.39987507693322 ], [ 79.09417446717265, 11.399029458100564 ], [ 79.092576893389904, 11.398297173240627 ], [ 79.092390218982302, 11.398211607295368 ], [ 79.092375871090567, 11.398205030107887 ], [ 79.092241169612038, 11.398143285201369 ], [ 79.092038114425222, 11.39807458707538 ], [ 79.089648242731528, 11.397266018579929 ], [ 79.087692092030082, 11.396822740396942 ], [ 79.085662565139629, 11.396836016358762 ], [ 79.084847150881473, 11.396822748322375 ], [ 79.084772540407243, 11.396821533091018 ], [ 79.083138198579945, 11.39679492480683 ], [ 79.082130244813712, 11.397020785171232 ], [ 79.078936838183225, 11.397892569059005 ], [ 79.077894171717787, 11.398196521768552 ], [ 79.077274494071872, 11.39837716673858 ], [ 79.077214666273932, 11.398394606973634 ], [ 79.076683824823107, 11.398549350817195 ], [ 79.075977132765502, 11.39875535586083 ], [ 79.073489247687803, 11.399383213381105 ], [ 79.071931480051944, 11.400015652998345 ], [ 79.071170863924479, 11.400390751706141 ], [ 79.069571866311989, 11.400648063029047 ], [ 79.067317756108878, 11.400954924020596 ], [ 79.065585868021486, 11.401248337210831 ], [ 79.064399180056441, 11.40145146870009 ], [ 79.062694818145999, 11.401681624391085 ], [ 79.061297684554276, 11.401889892032925 ], [ 79.061222794703994, 11.40190105523055 ], [ 79.060000864932036, 11.402083192200152 ], [ 79.058113659030312, 11.402349973565972 ], [ 79.05805921842915, 11.402357669881338 ], [ 79.058021567340646, 11.40236299213867 ], [ 79.056812038811188, 11.402552492261195 ], [ 79.055675775079663, 11.40277371793881 ], [ 79.053000192413236, 11.402831780118285 ], [ 79.051089790214277, 11.402578144572004 ], [ 79.048799256919651, 11.401863347625534 ], [ 79.047965363417845, 11.401484687122281 ], [ 79.047940852885304, 11.401473557370606 ], [ 79.047086002586227, 11.401085376298033 ], [ 79.044552518126395, 11.399653273090406 ], [ 79.044511437270131, 11.399630050954233 ], [ 79.044181820239558, 11.399443723425051 ], [ 79.042253276563414, 11.398719910090877 ], [ 79.040847071783972, 11.397969153872616 ], [ 79.039770595426177, 11.397335977041131 ], [ 79.038912459089758, 11.396775835985579 ], [ 79.03887809583523, 11.396753405276074 ], [ 79.037851433754867, 11.396083250907953 ], [ 79.035112151551672, 11.39488456836253 ], [ 79.032441739588052, 11.393568327823896 ], [ 79.031227621565776, 11.393662830739146 ], [ 79.030751108426713, 11.393770680176923 ], [ 79.030688989026487, 11.393784739145213 ], [ 79.027378951427721, 11.394533856153085 ], [ 79.025486749096416, 11.39489475700184 ], [ 79.02386029717222, 11.395016183187053 ], [ 79.022568418284038, 11.394939451396855 ], [ 79.022568378758166, 11.394939448755048 ], [ 79.022506234205125, 11.394935757245225 ], [ 79.022469211038981, 11.394933556605128 ], [ 79.02225235144121, 11.394920675066974 ], [ 79.021537641919679, 11.394893341864133 ], [ 79.019970786926422, 11.395028282741006 ], [ 79.018426681767679, 11.395353210169374 ], [ 79.016635223698856, 11.395867792390145 ], [ 79.016324857564811, 11.395954023017316 ], [ 79.016266238000952, 11.395970309808426 ], [ 79.014669547262116, 11.396413926591993 ], [ 79.012456517016972, 11.397032262054395 ], [ 79.0107245480812, 11.397429384998016 ], [ 79.010073638707794, 11.397717363245091 ], [ 79.010004366022983, 11.397748009872522 ], [ 79.008570888391489, 11.398382201115039 ], [ 79.006357577871995, 11.399579086587833 ], [ 79.004506019815693, 11.400898167372178 ], [ 79.002567365601053, 11.402556245313022 ], [ 79.000999743446485, 11.404151164570745 ], [ 79.000156095138976, 11.405515824731381 ], [ 78.999408977995287, 11.406202535406722 ], [ 78.998785838242242, 11.40648248626826 ], [ 78.998545659278022, 11.406625504412249 ], [ 78.997488664683786, 11.407254904908743 ], [ 78.99698965144178, 11.407552042562912 ], [ 78.995083742615861, 11.407602505335724 ], [ 78.992357521018548, 11.407097287221937 ], [ 78.990267885157479, 11.405909272628467 ], [ 78.987380798648971, 11.403948587135753 ], [ 78.985749501212169, 11.403167184604056 ], [ 78.984888122855892, 11.403000243674922 ], [ 78.983811442580517, 11.402914736383851 ], [ 78.981919309419496, 11.402965106638728 ], [ 78.979005630083662, 11.403395494085714 ], [ 78.975711910382032, 11.404531114209043 ], [ 78.972184491264315, 11.405617047745482 ], [ 78.968725512093158, 11.405857655121716 ], [ 78.964611186769361, 11.405470108771004 ], [ 78.964527915637476, 11.405465646894312 ], [ 78.962764805704069, 11.405371179604835 ], [ 78.962086765412451, 11.405457247083175 ], [ 78.960739973409261, 11.406103990425809 ], [ 78.960080418649554, 11.406782185432776 ], [ 78.959682035583967, 11.407559751945893 ], [ 78.959655472401039, 11.407618661134903 ], [ 78.958175592293543, 11.410900520043423 ], [ 78.956792589201257, 11.41335982377397 ], [ 78.956078062037733, 11.414173627102208 ], [ 78.956014470298769, 11.414229444193705 ], [ 78.954630579670962, 11.415444144098581 ], [ 78.952624057736614, 11.416479742008113 ], [ 78.950828223075703, 11.417275710757833 ], [ 78.949490547176026, 11.41805800342231 ], [ 78.948267572663383, 11.419549923434575 ], [ 78.948218892059799, 11.419627475394279 ], [ 78.947021788129035, 11.421534535109444 ], [ 78.945638914394138, 11.425232299271281 ], [ 78.944631621787977, 11.427488914599762 ], [ 78.944466536591577, 11.427858742388807 ], [ 78.943284819005001, 11.42975744362217 ], [ 78.94323305987497, 11.429828844258338 ], [ 78.941672449969531, 11.431981675359932 ], [ 78.938035086044181, 11.435562329426979 ], [ 78.935309263298848, 11.438085065231419 ], [ 78.932917804282098, 11.44015570443036 ], [ 78.932851153779595, 11.440196488581963 ], [ 78.930590350229309, 11.441579936951827 ], [ 78.929165602425783, 11.443306855167068 ], [ 78.928130351553008, 11.445241630620076 ], [ 78.926609554980956, 11.448311026718734 ], [ 78.925391198707189, 11.451669657392737 ], [ 78.925343268196883, 11.451737897915494 ], [ 78.924749817764024, 11.452582815437854 ], [ 78.924099206631269, 11.453075600947102 ], [ 78.922083056553689, 11.453482694584419 ], [ 78.922002310586052, 11.453514182154338 ], [ 78.921514883814581, 11.453704257336252 ], [ 78.919572297673895, 11.456041413583129 ], [ 78.917670924441865, 11.458401150664987 ], [ 78.916910390061062, 11.459553872377246 ], [ 78.916617169172554, 11.459978797238614 ], [ 78.916562233599663, 11.460421775043402 ], [ 78.91641573634314, 11.461574421603899 ], [ 78.916140873425789, 11.46225247061885 ], [ 78.915701026821637, 11.462826577434223 ], [ 78.913840695818294, 11.464101456832337 ], [ 78.911567930301686, 11.465421568403222 ], [ 78.911518796048924, 11.465508219822889 ], [ 78.911201397902829, 11.466067981155632 ], [ 78.91048675665327, 11.468355229414918 ], [ 78.909396330357453, 11.470610868724537 ], [ 78.909158127686808, 11.471560113564564 ], [ 78.909011738228102, 11.474222474095466 ], [ 78.908874377736325, 11.475479076879042 ], [ 78.908672781413543, 11.475917545836564 ], [ 78.90797629242094, 11.476717668187154 ], [ 78.906766530329506, 11.477445511397937 ], [ 78.905245156140708, 11.478376779419136 ], [ 78.902944835701078, 11.480989574970462 ], [ 78.901001848013493, 11.482395462381893 ], [ 78.900940864982104, 11.482445645949712 ], [ 78.898403547410979, 11.48453363011191 ], [ 78.896268063334446, 11.486518069274004 ], [ 78.895058222191253, 11.487060538151495 ], [ 78.892588115671344, 11.488181624807645 ], [ 78.891561587439966, 11.489094722882973 ], [ 78.89113081921009, 11.489790832315188 ], [ 78.890892532996148, 11.490536657351894 ], [ 78.890470950040054, 11.491996664176495 ], [ 78.890067702597221, 11.4937052763977 ], [ 78.889563593212586, 11.494283861565355 ], [ 78.888463703165243, 11.49504778593831 ], [ 78.888386347439493, 11.495097154740028 ], [ 78.887217150571345, 11.495843350421463 ], [ 78.884632364223947, 11.497249137345623 ], [ 78.883995331126769, 11.497827715235191 ], [ 78.883069568717445, 11.499219911238217 ], [ 78.882354616650815, 11.500390620208073 ], [ 78.881587711418035, 11.50142306541569 ], [ 78.881126351959452, 11.5024921341422 ], [ 78.880328882447429, 11.504666299300753 ], [ 78.879041005553859, 11.506492409392303 ], [ 78.87763396444285, 11.507522975758599 ] ] ] } }
]
}
