{
"type": "FeatureCollection",
"name": "velachery_boundary",
"crs": { "type": "name", "properties": { "name": "urn:ogc:def:crs:OGC:1.3:CRS84" } },
"features": [
{ "type": "Feature", "properties": { "bbox_west": 80.2043675, "bbox_south": 12.9659723, "bbox_east": 80.2334532, "bbox_north": 12.9954762, "place_id": 252320590, "osm_type": "way", "osm_id": 422418168, "lat": 12.9801655, "lon": 80.2228506, "class": "place", "type": "suburb", "place_rank": 19, "importance": 0.46814898102151992, "addresstype": "suburb", "name": "Velachery", "display_name": "Velachery, Chennai, Tamil Nadu, 600042, India" }, "geometry": { "type": "Polygon", "coordinates": [ [ [ 80.2043675, 12.9882925 ], [ 80.2121543, 12.9827493 ], [ 80.2129267, 12.9752934 ], [ 80.213025, 12.9694416 ], [ 80.2159475, 12.9674017 ], [ 80.2169979, 12.9669812 ], [ 80.2177643, 12.9666744 ], [ 80.2200953, 12.9662223 ], [ 80.2213847, 12.9659723 ], [ 80.2256024, 12.9697391 ], [ 80.2298234, 12.9739385 ], [ 80.2330997, 12.977045 ], [ 80.2331133, 12.9775816 ], [ 80.2334532, 12.9828771 ], [ 80.2316179, 12.9834699 ], [ 80.231866, 12.9844833 ], [ 80.2321656, 12.9868039 ], [ 80.2294122, 12.9871525 ], [ 80.2231944, 12.9875019 ], [ 80.2232194, 12.9879504 ], [ 80.2232689, 12.9888375 ], [ 80.2230572, 12.9904235 ], [ 80.22264, 12.9921722 ], [ 80.2229825, 12.9936711 ], [ 80.2215117, 12.994212 ], [ 80.2203112, 12.9914316 ], [ 80.2187285, 12.9934106 ], [ 80.2173514, 12.9954762 ], [ 80.2146524, 12.9939944 ], [ 80.2043675, 12.9882925 ] ] ] } }
]
}
